IDUSGS,PLAYTYPE,WELLTYPE,FORMSIMPLE,TDS,LATITUDE,LONGITUDE,STATE,COUNTY,PROVINCE,REGION,WELLNAME,API,DEPTHUPPER,DEPTHLOWER,PERIOD,DATESAMPLE,PH,B,Ba,Br,HCO3,Ca,Cl,FeTot,K,Li,Mg,Na,SO4,Sr,Zn,CHARGEBAL,BASIN_CATEGORY,Predicted_Li
86252,Sedimentary,Conventional Hydrocarbon,McMillan,108107.0,31.9435,-99.7242,Texas,Runnels,Bend Arch - Fort Worth Basin,West Texas and Eastern New Mexico,2,42399001220000.0,2528.0,2536.0,,1966-11-10,7.0,34.974000000000004,25.759,285.0,305.0,7165.0,66124.0,38.524,0.0,,818.0,33258.59,123.634,113.974,0.6302134400000001,-0.1,Fort Worth,3.6781311816112905
86253,Sedimentary,Conventional Hydrocarbon,Jenning,127128.0,31.9044,-99.9713,Texas,Runnels,Bend Arch - Fort Worth Basin,West Texas and Eastern New Mexico,1 Spill,42399001850000.0,4086.0,4130.0,,1966-11-08,6.8,14.209,373.452,223.0,290.0,7625.0,77845.0,15.389999999999995,0.0,,915.0,40117.65,1229.503,327.22100000000006,2.7605,-0.1,Fort Worth,3.2482266594775475
86254,Sedimentary,Conventional Hydrocarbon,Capps,115351.0,31.8878,-100.0274,Texas,Runnels,Bend Arch - Fort Worth Basin,West Texas and Eastern New Mexico,2 Parramore,42399105610000.0,3974.0,4010.0,,1966-11-08,7.2,24.083,106.485,206.0,476.0,5160.0,70762.0,6.45,0.0,,1636.0,37068.67,1832.834,104.517,1.10143,0.0,Fort Worth,3.2682342177832635
86805,Sedimentary,Conventional Hydrocarbon,Bend,207082.0,33.65228,-97.80667,Texas,Montague,Bend Arch - Fort Worth Basin,West Texas and Eastern New Mexico,#2,42337006240000.0,3540.5,,Pennsylvanian,1961-12-04,5.6,34.62,42.484,763.785561,59.0,17800.0,127300.0,63.075,0.0,,2660.0,54260.0,21.0,356.279,3.545900000000002,-1.8,Fort Worth,17.31857026527569
86806,Sedimentary,Conventional Hydrocarbon,Bend,216035.0,33.65188,-97.80068,Texas,Montague,Bend Arch - Fort Worth Basin,West Texas and Eastern New Mexico,No. 1,42337006230000.0,3178.6,,Pennsylvanian,1961-12-04,5.7,31.212,2.0,804.9889999999999,78.0,17760.0,134000.0,1024.125,0.0,,7084.0,61400.0,12.0,423.28,140.320000076,4.5,Fort Worth,18.060636726111216
86807,Sedimentary,Conventional Hydrocarbon,Cisco,156000.0,33.89891,-97.70987,Texas,Montague,Bend Arch - Fort Worth Basin,West Texas and Eastern New Mexico,,42337005560000.0,3618.8,,Permian,1963-04-08,5.6,32.13,13.2246,1035.734696,20.0,17700.0,97200.0,58.38000000000001,0.0,,2290.0,44100.0,264.73300000000006,174.22328000000002,0.908,4.3,Fort Worth,19.785222854645063
86809,Sedimentary,Conventional Hydrocarbon,Fusselman,230000.0,33.68761,-97.84083,Texas,Montague,Bend Arch - Fort Worth Basin,West Texas and Eastern New Mexico,Sl & Wr Henry #4,42337006190000.0,3889.1,,Silurian,1963-11-18,4.7,6.789999999999999,70.242,661.055,10.0,20500.0,143000.0,330.75300000000004,0.0,,3220.0,63100.0,44.0,558.3570000000001,170.741,0.0,Fort Worth,20.58993435964372
86811,Sedimentary,Conventional Hydrocarbon,Fusselman,229000.0,33.68868,-97.837,Texas,Montague,Bend Arch - Fort Worth Basin,West Texas and Eastern New Mexico,Sl & Wr Harry #3,42337006180000.0,5960.0,,Silurian,1963-11-18,,8.047,360.0,548.6589999999999,24.0,19500.0,142000.0,361.649,0.0,,3070.0,63700.0,273.717,1077.3439999999998,176.641,0.0,Fort Worth,33.15551797613117
86812,Sedimentary,Conventional Hydrocarbon,Fusselman,275000.0,33.68868,-97.837,Texas,Montague,Bend Arch - Fort Worth Basin,West Texas and Eastern New Mexico,Sl & Wr Harry #3,42337006180000.0,5900.0,,Silurian,1963-12-26,5.4,30.594000000000005,440.0,1376.452272,59.0,19800.0,140000.0,78.65563999999999,0.0,,3150.0,61100.0,146.817,2167.1549,1.8000999999999998,-0.5,Fort Worth,30.461722740036453
86813,Sedimentary,Conventional Hydrocarbon,Ellenburger,122000.0,33.81646,-97.50036,Texas,Montague,Bend Arch - Fort Worth Basin,West Texas and Eastern New Mexico,Wsw #30,42337018650000.0,1000.0,2800.0,Ordovician,1964-10-29,5.7,23.958,45.233,610.532344,61.0,12800.0,76200.0,25.0,0.0,,2490.0,30000.0,20.0,301.11510000000004,0.40330816,-0.1,Fort Worth,17.71404924082471
86814,Sedimentary,Conventional Hydrocarbon,Unknown,235000.0,33.56563,-97.74545,Texas,Montague,Bend Arch - Fort Worth Basin,West Texas and Eastern New Mexico,W. A. Rodessa No. 2,42337007310000.0,7200.0,,,,4.9,8.107,17.255,841.5925,17.0,22200.0,146000.0,136.987,0.0,,3170.0,63300.0,270.0,333.409,36.943900038,0.0,Fort Worth,20.7052098380172
86815,Sedimentary,Conventional Hydrocarbon,Fusselman,218000.0,33.59826,-97.70476,Texas,Montague,Bend Arch - Fort Worth Basin,West Texas and Eastern New Mexico,G R Nored #1,42337007060000.0,6400.0,,Silurian,1963-12-17,5.0,41.59,96.326,407.105,41.0,18600.0,135000.0,62.052,0.0,,2240.0,61900.0,34.0,693.5930000000001,0.6580199999999998,-0.1,Fort Worth,32.08614651153774
86816,Sedimentary,Conventional Hydrocarbon,Unknown,200000.0,33.60466,-97.70741,Texas,Montague,Bend Arch - Fort Worth Basin,West Texas and Eastern New Mexico,,42337006940000.0,3800.0,,,,5.8,37.24,1.0,753.075,117.0,16900.0,123000.0,52.59,0.0,,2510.0,55700.0,72.0,573.99,0.7641567199999999,0.0,Fort Worth,19.10290436640764
86817,Sedimentary,Conventional Hydrocarbon,Caddo,214000.0,33.6032,-97.71159,Texas,Montague,Bend Arch - Fort Worth Basin,West Texas and Eastern New Mexico,Sussette Meyers #4,42337006930000.0,6200.0,,Pennsylvanian,1963-12-12,5.1,37.49,150.218,447.819,27.0,18900.0,133000.0,71.268,0.0,,2800.0,59300.0,47.0,721.094,0.6147299999999999,0.0,Fort Worth,32.075025917714434
86818,Sedimentary,Conventional Hydrocarbon,Fusselman,218000.0,33.60347,-97.71034,Texas,Montague,Bend Arch - Fort Worth Basin,West Texas and Eastern New Mexico,Susette Meyer #2,42337006910000.0,6500.0,,Silurian,1963-12-12,4.4,47.34,6.0,1934.793,38.837,17800.0,135000.0,64.67,0.0,,2080.0,63000.0,44.0,1694.2,1.082,-0.1,Fort Worth,29.886607895564584
86819,Sedimentary,Conventional Hydrocarbon,Fusselman,214000.0,33.60151,-97.7079,Texas,Montague,Bend Arch - Fort Worth Basin,West Texas and Eastern New Mexico,Susette Meyers #1,42337006670000.0,6400.0,,Silurian,1963-12-12,4.6,40.458000000000006,147.902,409.05,10.0,18500.0,133000.0,73.58099999999999,0.0,,2510.0,60200.0,25.0,528.551,1.05473,-0.1,Fort Worth,20.500981579806098
86820,Sedimentary,Conventional Hydrocarbon,Unknown,162500.0,33.93319,-97.68338,Texas,Montague,Bend Arch - Fort Worth Basin,West Texas and Eastern New Mexico,N. J. Howard a No. 13,42337006360000.0,1400.0,,,1959-06-30,4.6,4.1850000000000005,152.916,529.2059999999999,24.0,11600.0,86300.0,205.54535500000003,535.0,,2200.0,38200.0,437.929,457.74,134.4070000191,0.0,Fort Worth,22.446844406706155
86821,Sedimentary,Conventional Hydrocarbon,Strawn,229000.0,33.68563,-97.84458,Texas,Montague,Bend Arch - Fort Worth Basin,West Texas and Eastern New Mexico,Sl & Wc Henry #6,42337006210000.0,4694.8,,Pennsylvanian,1963-11-18,4.7,33.558,43.39800000000001,679.425,15.0,21300.0,142000.0,82.185,0.0,,3050.0,62100.0,147.0,404.2,1.51131692,0.1,Fort Worth,20.290796011888922
86822,Sedimentary,Conventional Hydrocarbon,Fusselman,227000.0,33.69242,-97.83657,Texas,Montague,Bend Arch - Fort Worth Basin,West Texas and Eastern New Mexico,Henry No. 2,42337006170000.0,4365.6,,Silurian,1964-01-09,4.9,7.897999999999999,430.0,1074.962,34.0,19700.0,141000.0,160.81221,0.0,,3290.0,62400.0,1833.585,1247.303,28.522,0.0,Fort Worth,32.85309847093692
86823,Sedimentary,Conventional Hydrocarbon,Fusselman,216000.0,33.60336,-97.7181,Texas,Montague,Bend Arch - Fort Worth Basin,West Texas and Eastern New Mexico,#7,42337005750000.0,6400.0,,Silurian,1963-12-12,4.8,6.874569999694998,23.0,473.951,24.0,18700.0,134000.0,341.706,0.0,,2220.0,61800.0,34.0,635.755,250.58,0.3,Fort Worth,20.55328161979521
86824,Sedimentary,Conventional Hydrocarbon,Caddo,178000.0,33.60115,-97.72045,Texas,Montague,Bend Arch - Fort Worth Basin,West Texas and Eastern New Mexico,Wm Fry #3,42337005710000.0,6225.0,,Pennsylvanian,1963-12-12,,50.193,16.8081,918.692512,188.777,21400.0,111000.0,29.958,0.0,,2580.0,42800.0,630.0,377.195,4.271991439999999,0.0,Fort Worth,18.946420317716196
86825,Sedimentary,Conventional Hydrocarbon,Unknown,17952.0,33.81845,-98.50547,Texas,Archer,Bend Arch - Fort Worth Basin,West Texas and Eastern New Mexico,1 Alvin Jentsch,42009016030000.0,4680.0,4703.5,,1943-02-17,,23.33367,15.67388,89.944,133.61,1276.0,10976.3,20.636000000000003,0.0,,227.75,5286.37,45.55,38.2139,0.89029,-0.1,Fort Worth,3.2917854280939354
86826,Sedimentary,Conventional Hydrocarbon,Ellenburger,230371.0,33.80796,-98.49761,Texas,Archer,Bend Arch - Fort Worth Basin,West Texas and Eastern New Mexico,1 Perry Browning,42009000880000.0,5330.0,,Ordovician,1942-09-20,,28.462,38.028,1048.5782,422.24,29773.0,146302.68,90.3498,0.0,,8967.96,44124.86,677.44,696.8710000000001,0.33663,-0.1,Fort Worth,31.856678379025297
86827,Sedimentary,Conventional Hydrocarbon,Unknown,69001.0,33.07502,-97.19771,Texas,Denton,Bend Arch - Fort Worth Basin,West Texas and Eastern New Mexico,Gamble #1,42121004030000.0,2122.0,2140.0,,,,5.622999999999999,29.312,95.82264,166.0,3535.0,41151.0,118.686,0.0,,716.0,21343.0,368.05,109.293,12.421,0.0,Fort Worth,2.512116987306636
86828,Sedimentary,Conventional Hydrocarbon,Ellenburger,77980.0,32.08416,-99.41873,Texas,Callahan,Bend Arch - Fort Worth Basin,West Texas and Eastern New Mexico,Bessie L. Hall #1,42059005460000.0,4141.0,4210.0,Ordovician,1955-07-14,6.38,22.176,64.724,116.297,390.0,2214.0,46899.29,32.432,0.0,,491.96,27498.34,485.65,119.15900000000002,0.5483,0.3,Fort Worth,3.2948878012684455
86829,Sedimentary,Conventional Hydrocarbon,Fusselman,131602.0,32.08416,-99.41873,Texas,Callahan,Bend Arch - Fort Worth Basin,West Texas and Eastern New Mexico,Bessie L. Hall #1,42059005460000.0,2397.0,2402.0,Silurian,1955-07-17,5.67,35.0,38.167,515.012,18.52,10616.0,81764.92,37.855,0.0,,1931.51,37212.81,58.83,340.478,0.50760692,0.0,Fort Worth,4.203803891219436
86830,Sedimentary,Conventional Hydrocarbon,Caddo,153041.0,32.20163,-99.16125,Texas,Callahan,Bend Arch - Fort Worth Basin,West Texas and Eastern New Mexico,B. H. Freeland No. 1,42059005480000.0,3104.0,3121.0,Pennsylvanian,1954-11-11,6.77,35.532,4657.991899999999,1531.784,35.32,7888.0,95064.1,47.226,0.0,,4579.94,42273.4,828.47,3200.0,4.411,0.0,Fort Worth,16.374306111794624
86831,Sedimentary,Conventional Hydrocarbon,Caddo,77431.0,32.20163,-99.16125,Texas,Callahan,Bend Arch - Fort Worth Basin,West Texas and Eastern New Mexico,B. H. Freeland No. 1,42059005480000.0,2889.0,2909.0,Pennsylvanian,1954-11-08,6.86,19.402,2528.617,393.77,83.11,3847.0,47934.38,353.014,0.0,,2342.8,21224.1,4280.15,1999.0,59.958000000000006,0.0,Fort Worth,16.636365023663604
86832,Sedimentary,Conventional Hydrocarbon,Ellenburger,86415.0,32.28917,-99.18705,Texas,Callahan,Bend Arch - Fort Worth Basin,West Texas and Eastern New Mexico,Mary Guyton #1,42059005470000.0,4092.0,4104.0,Ordovician,1954-08-01,7.11,11.553,195.8681,218.645,296.24,2825.0,51757.36,7.131,0.0,,683.47,29687.48,1164.86,329.99920000000003,2.6154,0.0,Fort Worth,3.2616807392519114
86833,Sedimentary,Conventional Hydrocarbon,Tannehill,148321.0,33.54319,-99.27293,Texas,Baylor,Bend Arch - Fort Worth Basin,West Texas and Eastern New Mexico,Jesse Hajek #1,42023007870000.0,1300.0,1305.0,,1957-09-22,6.14,20.421000000000003,25.780171000000003,377.96,41.85,9372.0,91875.95,45.33,198.23,,2229.03,44547.59,57.27,473.012,2.43601,0.0,Fort Worth,7.1372506486132465
86834,Sedimentary,Conventional Hydrocarbon,Tannehill,147709.0,33.54319,-99.27293,Texas,Baylor,Bend Arch - Fort Worth Basin,West Texas and Eastern New Mexico,Jesse Hajek #1,42023007870000.0,1301.0,1305.0,,1957-09-23,5.6,17.038000000000004,92.968,330.31800000000004,17.61,8662.0,91468.17,32.794,198.13,,2272.95,45013.13,78.15,589.827,3.6280100000000006,0.0,Fort Worth,8.058759086057327
86835,Sedimentary,Conventional Hydrocarbon,Tannehill,148482.0,33.54319,-99.27293,Texas,Baylor,Bend Arch - Fort Worth Basin,West Texas and Eastern New Mexico,Jesse Hajek,42023007870000.0,1200.0,1300.0,,1964-10-11,5.98,17.19,76.38399999999999,228.811,24.17,7649.0,91936.34,30.778,0.0,,2277.4,46564.16,30.76,368.133,3.5449999999999995,0.0,Fort Worth,4.497926885528811
86838,Sedimentary,Conventional Hydrocarbon,Tannehill,159448.0,33.52893,-99.28229,Texas,Baylor,Bend Arch - Fort Worth Basin,West Texas and Eastern New Mexico,J. S. Criswell,42023007840000.0,1400.0,1480.0,,1964-04-17,5.62,17.882000000000005,48.692,364.733,16.67,8999.0,98584.59,54.527,0.0,,2160.9,49583.93,103.32,472.487,2.78801,0.0,Fort Worth,7.274175848071038
86842,Sedimentary,Conventional Hydrocarbon,Flippen,79468.0,32.31232,-99.98189,Texas,Taylor,Bend Arch - Fort Worth Basin,West Texas and Eastern New Mexico,Grady Parmelly No. #1,42441010770000.0,3019.0,3029.0,,1955-08-28,6.48,27.071000000000005,32.333,57.59499999999999,358.02,2269.0,48643.34,15.979,0.0,,1201.47,26867.3,129.52,76.338,0.6171567199999999,0.0,Fort Worth,4.051937050035644
86843,Sedimentary,Conventional Hydrocarbon,Ellenburger,123221.0,32.56196,-98.31145,Texas,Palo Pinto,Bend Arch - Fort Worth Basin,West Texas and Eastern New Mexico,1,42363002190000.0,3721.0,3729.0,Ordovician,1959-06-06,7.2,31.138,249.103,605.7529351999999,210.99,10049.0,75968.3,36.4221,892.65,,1437.98,35263.46,291.06,665.7,1.03702,0.6,Fort Worth,18.534574709396505
86844,Sedimentary,Conventional Hydrocarbon,Unknown,112418.0,32.7716,-98.39576,Texas,Palo Pinto,Bend Arch - Fort Worth Basin,West Texas and Eastern New Mexico,1 H. D. Watson,42363002330000.0,3666.0,3671.0,,1959-04-07,4.0,37.68,46.771,407.665,57.00899999999999,11354.0,69529.97,48.964,0.0,,1277.62,29861.95,395.26,341.023,10.53261692,0.0,Fort Worth,2.89312409636639
86845,Sedimentary,Conventional Hydrocarbon,Unknown,70201.0,32.7716,-98.39576,Texas,Palo Pinto,Bend Arch - Fort Worth Basin,West Texas and Eastern New Mexico,1,42363002330000.0,3565.0,3574.0,,1959-04-04,6.9,15.1708,18.022,92.17000000000002,215.05,4279.0,42926.13,49.00500000000001,0.0,,583.24,22011.17,185.67,108.742,4.161700000000001,0.0,Fort Worth,2.6780599640637277
86847,Sedimentary,Conventional Hydrocarbon,Pennsylvanian,244609.0,33.7507,-97.78886,Texas,Montague,Bend Arch - Fort Worth Basin,West Texas and Eastern New Mexico,Saunders #1,42337014190000.0,5888.0,5897.0,Pennsylvanian,1942-08-01,,7.336,21.359,788.92,6.91,24852.0,152066.3,123.26,0.0,,3079.3,64260.86,178.56,534.5379999999999,40.23271,-0.1,Fort Worth,22.283494333912174
86848,Sedimentary,Conventional Hydrocarbon,Fusselman,152082.0,33.52687,-97.94525,Texas,Montague,Bend Arch - Fort Worth Basin,West Texas and Eastern New Mexico,Jones Estate #1,42337023690000.0,5853.0,,Silurian,1956-01-14,6.8,62.88199999999999,416.58600000000007,288.16099999999994,96.62,11067.0,92268.23,1335.7013,0.0,,1813.9,44459.12,1954.44,422.73,38.256,0.0,Fort Worth,3.4947557604585464
86859,Sedimentary,Conventional Hydrocarbon,Caddo,205534.0,33.7354,-97.77107,Texas,Montague,Bend Arch - Fort Worth Basin,West Texas and Eastern New Mexico,Glinging Smith #1,42337013760000.0,6100.0,,Pennsylvanian,1942-03-31,,8.896,20.1351,779.92,56.45,19398.0,127500.23,223.54,0.0,,2592.18,55473.42,237.09,187.468,87.616177699,-0.1,Fort Worth,19.843993491891737
86860,Sedimentary,Conventional Hydrocarbon,Ellenburger,193956.0,33.7881,-97.70563,Texas,Montague,Bend Arch - Fort Worth Basin,West Texas and Eastern New Mexico,Benton #7,42337002850000.0,5204.0,5259.0,Ordovician,1940-06-26,,15.194,10.741,617.5600000000001,63.0,15352.0,118405.0,433.378,0.0,,2162.0,55332.0,473.0,166.88799999999998,157.18099999999998,0.0,Fort Worth,19.673436381044397
86861,Sedimentary,Conventional Hydrocarbon,Strawn,260515.0,33.7881,-97.70563,Texas,Montague,Bend Arch - Fort Worth Basin,West Texas and Eastern New Mexico,Benton #1,42337002850000.0,5106.0,5109.0,Pennsylvanian,1942-07-24,,19.275,18.133,878.22,6.97,25748.0,161829.47,218.27,0.0,,3499.25,68783.45,370.36,342.288,82.962155398,-0.1,Fort Worth,20.53606545325349
86862,Sedimentary,Conventional Hydrocarbon,Strawn,267308.0,33.7881,-97.70563,Texas,Montague,Bend Arch - Fort Worth Basin,West Texas and Eastern New Mexico,Benton #1,42337002850000.0,5151.0,5180.0,Pennsylvanian,1940-06-24,,28.475,10.193,986.775,32.42,20342.0,171258.94,48.357000000000006,0.0,,4340.18,75221.36,424.99,420.128,1.7117418400000002,-2.1,Fort Worth,20.94183354061086
86863,Sedimentary,Conventional Hydrocarbon,Strawn,292258.0,33.76109,-97.60887,Texas,Montague,Bend Arch - Fort Worth Basin,West Texas and Eastern New Mexico,Doty #1,42337013810000.0,5583.0,,Pennsylvanian,1940-06-13,,47.644,19.862,532.191,22.17,20019.0,177063.08,1404.5400000000002,0.0,,522.82,91043.51,353.6,1678.926,38.43032847600001,0.0,Fort Worth,32.54835500409648
86864,Sedimentary,Conventional Hydrocarbon,Gilbert,252757.0,33.75997,-97.60835,Texas,Montague,Bend Arch - Fort Worth Basin,West Texas and Eastern New Mexico,Doty #3,42337013830000.0,5411.0,5415.0,,1941-03-15,,41.203,79.192,1044.73205,114.27,25493.0,169155.12,636.64,0.0,,25903.86,31118.21,304.33,518.24,14.125,-0.2,Fort Worth,20.310660333048627
86865,Sedimentary,Conventional Hydrocarbon,Gilbert,285107.0,33.75516,-97.59785,Texas,Montague,Bend Arch - Fort Worth Basin,West Texas and Eastern New Mexico,"Admire, Mary #1",42337013680000.0,5421.0,5429.0,,1944-09-15,,33.488,10.161,1393.8,71.25,27312.0,176008.26,52.248000000000005,0.0,,3737.6,75876.78,297.84,216.457,4.6389,0.0,Fort Worth,18.92282200977173
86866,Sedimentary,Conventional Hydrocarbon,Howard,276673.0,33.75711,-97.5958,Texas,Montague,Bend Arch - Fort Worth Basin,West Texas and Eastern New Mexico,Bonita Se Unit,42337013720000.0,5268.0,,,1956-01-18,6.6,30.647,41.760000000000005,1100.8,31.59,25272.0,172161.99,65.636,0.0,,4321.98,74517.3,216.45,152.1,1.39673184,0.0,Fort Worth,20.246389657586658
86867,Sedimentary,Conventional Hydrocarbon,Caddo,286135.0,33.73858,-97.76929,Texas,Montague,Bend Arch - Fort Worth Basin,West Texas and Eastern New Mexico,Clingsmith #3,42337013780000.0,6010.0,6026.0,Pennsylvanian,1944-08-30,,41.459,7.885,1653.1,57.18,26756.0,175857.56,55.903,0.0,,4616.65,74902.73,536.82,362.759,10.459,0.0,Fort Worth,19.13388808785661
86868,Sedimentary,Conventional Hydrocarbon,Strawn,221139.0,33.65526,-97.748,Texas,Montague,Bend Arch - Fort Worth Basin,West Texas and Eastern New Mexico,#1,42337013890000.0,4082.0,4093.0,Pennsylvanian,1947-12-31,,46.9,93.19,1160.9,20.47,26455.0,137069.9,80.02900000000001,0.0,,3238.18,52490.74,136.44,544.284,0.83159692,0.0,Fort Worth,22.379876198871404
86869,Sedimentary,Conventional Hydrocarbon,Strawn,225020.0,33.54148,-97.66543,Texas,Montague,Bend Arch - Fort Worth Basin,West Texas and Eastern New Mexico,Henderson #1,42337013900000.0,6070.0,6085.0,Pennsylvanian,1942-07-24,,13.607,57.67299999999999,399.371,97.87,17244.0,139588.22,170.539,0.0,,3211.44,64731.72,67.14,175.944,12.438732019,0.0,Fort Worth,17.423894563091206
86870,Sedimentary,Conventional Hydrocarbon,Marble Falls,217028.0,33.54148,-97.66543,Texas,Montague,Bend Arch - Fort Worth Basin,West Texas and Eastern New Mexico,Henderson #1,42337013900000.0,6423.0,6431.0,,1942-07-24,,30.73,14.094,672.27116,202.21,12944.0,134118.43,26.852000000000004,0.0,,2917.25,66538.93,80.66,451.93,1.0226799999999998,-0.1,Fort Worth,18.49451748703812
86871,Sedimentary,Conventional Hydrocarbon,Fusselman,300155.0,33.7503,-97.79183,Texas,Montague,Bend Arch - Fort Worth Basin,West Texas and Eastern New Mexico,P. P. Hill #1,42337013930000.0,5948.0,5950.0,Silurian,1944-08-30,,53.46,54.23700000000001,1230.616,28.08,29051.0,184607.28,37.699,0.0,,4670.64,77863.5,576.81,213.191,1.6681449200000005,0.0,Fort Worth,20.592966925459518
86872,Sedimentary,Conventional Hydrocarbon,Holt Canyon,183642.0,33.76039,-97.60338,Texas,Montague,Bend Arch - Fort Worth Basin,West Texas and Eastern New Mexico,Viola Holt #3,42337013990000.0,1802.0,1808.0,,1937-11-12,7.05,4.13,502.765,775.283,55.7,15707.0,114240.7,225.03,382.1,,3018.94,50194.61,1.11,668.11662,61.48879999999999,0.0,Fort Worth,33.78960307016828
86875,Sedimentary,Conventional Hydrocarbon,Strawn,76863.0,32.258326,-98.525876,Texas,Erath,Bend Arch - Fort Worth Basin,West Texas and Eastern New Mexico,J. T. Mcmillan #4,42143801240000.0,2900.0,,Pennsylvanian,1956-01-19,7.38,42.503,66.933,217.0,130.82,3333.0,47039.29,10.883,0.0,,589.75,25514.12,31.65,223.66,0.26697016,0.0,Fort Worth,4.054235251455827
86936,Sedimentary,Conventional Hydrocarbon,Salmon,110245.0,33.87187,-97.76558,Texas,Montague,Bend Arch - Fort Worth Basin,West Texas and Eastern New Mexico,Mrs. N. H. Salmon #1,42337010150000.0,933.0,946.0,,1925-07-20,,3.3935000000000004,92.9696,425.149,73.57750000000001,8659.0,68370.0,75.25,0.0,,1465.23,31562.0,877.06425,233.385,3.96305144,-0.1,Fort Worth,4.104374978835678
87656,Sedimentary,Conventional Hydrocarbon,Mississippian,236687.0,33.62,-98.315,Texas,Clay,Bend Arch - Fort Worth Basin,West Texas and Eastern New Mexico,D-2,,3872.1,,Mississippian,1967-03-06,5.8,37.098,90.0,702.0,49.0,18965.0,146570.0,52.778,0.0,,3932.0,66119.0,327.0,330.0,1.12161692,0.1,Fort Worth,20.2479638918372
87855,Sedimentary,Conventional Hydrocarbon,Serratt,83727.0,31.82,-99.964,Texas,Runnels,Bend Arch - Fort Worth Basin,West Texas and Eastern New Mexico,Nunn Estate Unit #1,,2410.0,2417.0,,1966-11-08,7.3,6.26,163.0817,175.0,131.0,4026.0,52216.0,8.103,0.0,,759.0,26420.0,2386.571,173.158,4.295100000000001,-2.2,Fort Worth,3.737290527646063
87863,Sedimentary,Conventional Hydrocarbon,Bluff Creek,116945.0,32.7359500303,-99.3540554415,Texas,Shackelford,Bend Arch - Fort Worth Basin,West Texas and Eastern New Mexico,J. P. Morris #47,,3106.8,,,1971-12-30,6.1,30.73400000000001,24.527,263.737,152.7,6659.0,72399.63,35.74,0.0,,1669.99,36024.91,3.25,227.205,0.1229567199999999,-0.2,Fort Worth,3.907358115171959
87864,Sedimentary,Conventional Hydrocarbon,Bluff Creek,104528.0,32.7359500303,-99.3540554415,Texas,Shackelford,Bend Arch - Fort Worth Basin,West Texas and Eastern New Mexico,Morris #24,,9857.7,,,1973-03-30,6.6,49.28600000000001,27.936,297.869,263.0,4330.0,64342.0,37.0,0.0,,421.0,33281.0,199.766,369.62299999999993,1.43099,-3.4,Fort Worth,3.1441078066521366
87865,Sedimentary,Conventional Hydrocarbon,Bluff Creek,92463.0,32.7359500303,-99.3540554415,Texas,Shackelford,Bend Arch - Fort Worth Basin,West Texas and Eastern New Mexico,J. P. Morris H #2,,3390.1,,,1973-04-02,6.5,24.961,82.25399999999999,181.869,146.0,4480.0,57058.0,15.0,0.0,,1045.0,29693.0,41.0,371.08900000000006,2.35327016,-0.4,Fort Worth,3.336923310992975
87866,Sedimentary,Conventional Hydrocarbon,Bluff Creek,122343.0,32.7359500303,-99.3540554415,Texas,Shackelford,Bend Arch - Fort Worth Basin,West Texas and Eastern New Mexico,J. P. Morris H #23,,2614.0,,,1973-04-02,6.4,31.34500000000001,18.0,333.321,85.0,7040.0,75875.0,41.0,0.0,,1628.0,37697.0,325.483,386.983,0.5439999999999999,-0.4,Fort Worth,3.666100650886771
87867,Sedimentary,Conventional Hydrocarbon,Bluff Creek,95534.0,32.7359500303,-99.3540554415,Texas,Shackelford,Bend Arch - Fort Worth Basin,West Texas and Eastern New Mexico,J. P. Morris H Wsw #12,,6427.4,,,1973-04-02,6.5,26.301,84.03200000000001,186.72,146.0,4680.0,58879.0,41.0,0.0,,948.0,30820.0,61.0,197.248,0.62717,-0.4,Fort Worth,3.2948878012684455
87868,Sedimentary,Conventional Hydrocarbon,KMA,208340.0,33.6151989159,-98.6876545839,Texas,Archer,Bend Arch - Fort Worth Basin,West Texas and Eastern New Mexico,Jones-ford #13,,4148.0,4152.0,,1971-06-17,5.7,34.588,35.928,573.374,30.0,17600.0,126000.0,65.0,0.0,,1800.0,62700.0,210.0,249.783,0.5992069200000001,2.7,Fort Worth,20.241548861444024
87869,Sedimentary,Conventional Hydrocarbon,Canyon,77155.0,32.88,-99.664,Texas,Jones,Bend Arch - Fort Worth Basin,West Texas and Eastern New Mexico,Lyckman #2,,3233.0,3249.0,Pennsylvanian,1938-04-21,,18.306,67.1219,78.825,179.89,3320.0,46255.39,41.11899999999999,0.0,,904.72,25170.15,1325.52,105.774,1.6969567199999998,0.0,Fort Worth,4.054252818680604
87870,Sedimentary,Conventional Hydrocarbon,Cisco,110384.0,32.7398931015,-99.8787637262,Texas,Jones,Bend Arch - Fort Worth Basin,West Texas and Eastern New Mexico,Carter No. 6,,2894.0,2896.0,Permian,1931-05-09,,23.42,168.90699999999998,151.548,169.97,4240.0,66334.66,8.808000000000002,0.0,,1477.36,36301.1,1861.13,124.316,1.9571081599999995,0.0,Fort Worth,3.859443007509262
87871,Sedimentary,Conventional Hydrocarbon,Unknown,68368.0,32.7398931015,-99.8787637262,Texas,Jones,Bend Arch - Fort Worth Basin,West Texas and Eastern New Mexico,Tessis - Composite - Wells 1 To 6,,2500.0,,,1931-05-09,,17.453,29.536,60.515,172.43,1999.0,39833.31,26.26,0.0,,709.56,23353.66,2300.05,45.552,1.7206999999999997,0.0,Fort Worth,4.021460621506588
88226,Sedimentary,Conventional Hydrocarbon,Cambrian,88625.0,31.7732074362,-99.4536349448,Texas,Coleman,Bend Arch - Fort Worth Basin,West Texas and Eastern New Mexico,Wilson #1,,5625.3,4800.0,Cambrian,1961-07-07,6.55,15.044999999999998,105.843,102.863,203.46,2617.0,52640.6,62.870000000000005,0.0,,609.33,30869.06,1685.98,106.011,3.2512,0.0,Fort Worth,3.263435349847267
89048,Sedimentary,Conventional Hydrocarbon,Cambrian,81352.0,31.989,-99.767,Texas,Runnels,Bend Arch - Fort Worth Basin,West Texas and Eastern New Mexico,Kewanee Cree Sykes Unit,,4902.6,,Cambrian,1962-04-04,6.6,37.67100000000001,47.693,103.197,489.52,2325.0,49231.58,29.421000000000003,0.0,,828.18,28086.21,391.41,109.70900000000002,0.6115200000000001,0.0,Fort Worth,3.2948878012684455
89049,Sedimentary,Conventional Hydrocarbon,Fry,214652.0,31.8311180054,-99.9761934158,Texas,Runnels,Bend Arch - Fort Worth Basin,West Texas and Eastern New Mexico,M. O. Reed No. 1,,4150.0,,,1957-07-18,4.8,7.106,23.524,885.692,96.31,22705.0,133569.37,219.06,0.0,,3353.68,54509.76,418.08,237.653,29.425977756,0.0,Fort Worth,19.29324808364084
89050,Sedimentary,Conventional Hydrocarbon,Gardner,99334.0,31.8311180054,-99.9761934158,Texas,Runnels,Bend Arch - Fort Worth Basin,West Texas and Eastern New Mexico,R. L. Jones,,2208.7,,,1962-04-04,5.65,24.415000000000003,39.946000000000005,266.825,65.27,9006.0,61466.15,20.984,0.0,,1679.9,26623.74,493.27,350.92999999999995,5.75575144,0.0,Fort Worth,3.0265580893658846
89409,Sedimentary,Conventional Hydrocarbon,Tannehill,134852.0,33.6165151584,-99.2135272762,Texas,Baylor,Bend Arch - Fort Worth Basin,West Texas and Eastern New Mexico,L. W. Harris #3,,1279.0,1281.0,,1957-09-13,6.62,15.922000000000006,33.534000000000006,394.849,43.22,7985.0,83525.55,38.19,180.9,,2106.48,40958.78,52.26,532.4445,4.34201,0.0,Fort Worth,7.092296372157377
89410,Sedimentary,Conventional Hydrocarbon,Tannehill,149582.0,33.6165151584,-99.2135272762,Texas,Baylor,Bend Arch - Fort Worth Basin,West Texas and Eastern New Mexico,L. W. Harris No. 3,,2661.1,,,1969-10-09,5.32,30.082,38.964000000000006,307.279,9.89,7561.0,92528.49,37.788,0.0,,2132.38,47320.0,29.66,379.4600000000001,1.0915969200000002,0.0,Fort Worth,4.304817204585311
89412,Sedimentary,Conventional Hydrocarbon,Tannehill,142744.0,33.6165151584,-99.2135272762,Texas,Baylor,Bend Arch - Fort Worth Basin,West Texas and Eastern New Mexico,Jesse Hajek No. 4,,1328.0,1370.0,,1964-04-16,6.7,14.168,52.892,275.358,77.82,7529.0,88228.0,30.805,0.0,,1994.72,44864.76,49.32,413.97,1.01860816,0.0,Fort Worth,5.1945497751457195
89413,Sedimentary,Conventional Hydrocarbon,Tannehill,149360.0,33.6165151584,-99.2135272762,Texas,Baylor,Bend Arch - Fort Worth Basin,West Texas and Eastern New Mexico,L. W. Harris #2,,1361.0,1366.0,,1956-12-01,5.94,31.951,31.438,148.43499999999997,17.6,8136.0,92339.21,26.839,0.0,,2241.39,46411.56,214.46,302.74080000000004,1.15459692,0.0,Fort Worth,4.464117214744147
89414,Sedimentary,Conventional Hydrocarbon,Tannehill,148392.0,33.6165151584,-99.2135272762,Texas,Baylor,Bend Arch - Fort Worth Basin,West Texas and Eastern New Mexico,L. W. Harris #2,,1216.0,1226.0,,1957-09-13,6.81,4.3066,79.55699999999999,307.549,29.72,8663.0,91878.27,5.5,198.14,,2254.44,45308.93,59.44,523.6450000000001,29.286,0.0,Fort Worth,7.221302773165127
89415,Sedimentary,Conventional Hydrocarbon,Tannehill,81226.0,33.6165151584,-99.2135272762,Texas,Baylor,Bend Arch - Fort Worth Basin,West Texas and Eastern New Mexico,J. S. Criswell C - 1,,1291.0,1296.0,,1956-12-20,6.9,20.67,135.60904999999997,210.477,94.97,4450.0,49615.5,23.46,0.0,,1240.92,25097.93,725.98,164.711,1.85200816,0.0,Fort Worth,4.023758822926771
89416,Sedimentary,Conventional Hydrocarbon,Tannehill,148469.0,33.6165151584,-99.2135272762,Texas,Baylor,Bend Arch - Fort Worth Basin,West Texas and Eastern New Mexico,J. S. Criswell C - 1,,1291.0,1296.0,,1957-09-13,6.72,13.443,57.59499999999999,328.708,17.6,8347.0,91874.85,30.8,93.51,,2171.6,45890.67,73.71,574.663,16.742,0.0,Fort Worth,7.240919779072154
89417,Sedimentary,Conventional Hydrocarbon,Tannehill,149002.0,33.6165151584,-99.2135272762,Texas,Baylor,Bend Arch - Fort Worth Basin,West Texas and Eastern New Mexico,J. S. Criswell C - 1,,2944.7,,,1969-09-11,5.49,27.56300000000001,51.701,272.961,30.81,7999.0,92155.87,35.911,0.0,,2084.35,46683.21,48.42,457.94000000000005,1.0666069200000003,0.0,Fort Worth,6.2813878152289195
89418,Sedimentary,Conventional Hydrocarbon,Tannehill,137595.0,33.6165151584,-99.2135272762,Texas,Baylor,Bend Arch - Fort Worth Basin,West Texas and Eastern New Mexico,J. S. Criswell B - 8,,2333.4,,,1969-10-09,6.2,24.678000000000004,34.519000000000005,190.731,78.65,7123.0,85008.38,12.848000000000004,0.0,,2011.11,43247.02,126.72,394.593,0.98725672,0.0,Fort Worth,4.129753425013858
89419,Sedimentary,Conventional Hydrocarbon,Tannehill,149994.0,33.6165151584,-99.2135272762,Texas,Baylor,Bend Arch - Fort Worth Basin,West Texas and Eastern New Mexico,J. S. Criswell B No. 10,,3368.4,,,1969-09-11,5.39,30.409,22.876,343.363,20.89,7840.0,92735.87,35.671,0.0,,2157.42,47129.96,109.96,468.42800000000005,1.3292038400000004,0.0,Fort Worth,7.344093240235279
89420,Sedimentary,Conventional Hydrocarbon,Tannehill,150994.0,33.6165151584,-99.2135272762,Texas,Baylor,Bend Arch - Fort Worth Basin,West Texas and Eastern New Mexico,J. S. Criswell B No. C - 5,,3375.0,,,1969-09-11,5.64,33.67130000000001,78.98400000000001,288.247,36.36,8238.0,93508.99,35.494,0.0,,2302.55,46870.72,37.46,164.643,1.1855969200000005,0.0,Fort Worth,4.335311200339144
89421,Sedimentary,Conventional Hydrocarbon,Tannehill,147964.0,33.6165151584,-99.2135272762,Texas,Baylor,Bend Arch - Fort Worth Basin,West Texas and Eastern New Mexico,J. S. Criswell B No. C - 8,,1466.0,,,1969-09-11,5.82,20.288000000000004,67.773,202.17,26.39,7840.0,91576.26,28.246,0.0,,2181.41,46299.95,39.58,350.84000000000003,2.003,0.0,Fort Worth,4.466415416164331
89422,Sedimentary,Conventional Hydrocarbon,Tannehill,150262.0,33.6165151584,-99.2135272762,Texas,Baylor,Bend Arch - Fort Worth Basin,West Texas and Eastern New Mexico,J. S. Criswell B No. C - 9,,2377.8,,,1969-09-11,5.5,28.7554,49.04600000000001,268.98,23.11,7999.0,92929.14,25.733,0.0,,2085.07,47179.76,46.21,408.101,1.0666069200000003,0.0,Fort Worth,4.304817204585311
89423,Sedimentary,Conventional Hydrocarbon,Tannehill,149547.0,33.6165151584,-99.2135272762,Texas,Baylor,Bend Arch - Fort Worth Basin,West Texas and Eastern New Mexico,J. S. Criswell B No. C - 11,,2871.3,,,1969-09-11,5.67,25.515,86.774,255.42800000000005,34.12,7998.0,92542.45,20.524,0.0,,2181.59,46748.93,41.83,438.9,1.0666069200000003,0.0,Fort Worth,6.2508938194750865
89424,Sedimentary,Conventional Hydrocarbon,Tannehill,148508.0,33.6165151584,-99.2135272762,Texas,Baylor,Bend Arch - Fort Worth Basin,West Texas and Eastern New Mexico,J. S. Criswell B No. C - U2,,3057.1,,,1969-09-11,5.3,27.052000000000003,31.857,321.533,13.2,7840.0,91962.86,44.835,0.0,,2254.1,46405.52,31.9,383.78960000000006,1.0915969200000002,0.0,Fort Worth,4.33301299891896
89425,Sedimentary,Conventional Hydrocarbon,Tannehill,150502.0,33.6165151584,-99.2135272762,Texas,Baylor,Bend Arch - Fort Worth Basin,West Texas and Eastern New Mexico,J. S. Criswell B No. C - 13,,3640.5,,,1969-09-11,5.58,22.715,6.647999999999999,290.66673000000003,118.98,8238.0,93122.29,21.813,0.0,,2278.32,46699.96,278.38899999999995,393.925,3.03907144,0.0,Fort Worth,3.5985068135617677
89426,Sedimentary,Conventional Hydrocarbon,Tannehill,145943.0,33.6165151584,-99.2135272762,Texas,Baylor,Bend Arch - Fort Worth Basin,West Texas and Eastern New Mexico,J. S. Criswell B No. 4,,3100.5,,,1969-09-11,6.49,24.06,50.91099999999999,202.274,103.43,7839.0,90224.6,24.478,0.0,,2156.59,45526.01,93.53,276.661,0.67925672,0.0,Fort Worth,4.162176911918165
89427,Sedimentary,Conventional Hydrocarbon,Goen,127858.0,32.3014604772,-99.8901209669,Texas,Taylor,Bend Arch - Fort Worth Basin,West Texas and Eastern New Mexico,J. S. Richards #1,,4464.0,4500.0,,1959-10-11,5.4,17.720999999999997,968.579,932.013,43.39,10066.0,78610.03,202.86,0.0,,1699.88,36622.85,815.77,1465.692,4.369999999999999,0.0,Fort Worth,15.705885242251117
89428,Sedimentary,Conventional Hydrocarbon,Goen,109266.0,32.346,-99.92,Texas,Taylor,Bend Arch - Fort Worth Basin,West Texas and Eastern New Mexico,J. S. Richards #3,,4505.0,4506.0,,1959-12-23,6.25,28.388,5.621,552.387944,286.16,10045.0,67148.21,44.522095,0.0,,1415.75,29751.25,619.66,189.063,1.46257144,0.0,Fort Worth,3.4761320468691146
89429,Sedimentary,Conventional Hydrocarbon,Goen,137761.0,32.346,-99.92,Texas,Taylor,Bend Arch - Fort Worth Basin,West Texas and Eastern New Mexico,J. S. Richards #3,,4505.0,4508.0,,1959-12-16,5.45,42.67999999999999,12.888,554.9390000000001,99.54,13738.0,85049.51,332.450795,0.0,,1730.39,36478.23,666.12,173.881,1.533,0.0,Fort Worth,18.158367518709685
89430,Sedimentary,Conventional Hydrocarbon,Goen,114233.0,32.346,-99.92,Texas,Taylor,Bend Arch - Fort Worth Basin,West Texas and Eastern New Mexico,J. S. Richards #3,,4505.0,4553.0,,1959-12-15,4.5,20.096,12.9192,737.719712,289.31800000000004,10590.0,70428.63,144.759,0.0,,1460.01,31083.72,670.21,275.08428,10.382100076,0.0,Fort Worth,1.957004915790193
89431,Sedimentary,Conventional Hydrocarbon,Goen,142010.0,32.346,-99.92,Texas,Taylor,Bend Arch - Fort Worth Basin,West Texas and Eastern New Mexico,G. L. Rister #3,,4524.0,4550.0,,1959-11-29,6.08,33.932,48.451,384.145,68.08,12662.0,87455.7,30.372,0.0,,2010.44,38869.2,945.38,254.148,1.8899999999999997,0.0,Fort Worth,18.842659080583573
89432,Sedimentary,Conventional Hydrocarbon,Gardner,161644.0,33.6165151584,-99.2135272762,Texas,Baylor,Bend Arch - Fort Worth Basin,West Texas and Eastern New Mexico,F. A. Bradshaw #5,,4689.0,4700.0,,1959-11-18,6.49,45.135000000000005,4.921,636.182,93.32,15195.0,99964.45,55.49,0.0,,2228.67,43523.43,639.94,255.227,2.08607144,0.0,Fort Worth,18.614133301483033
89433,Sedimentary,Conventional Hydrocarbon,Sanrob,163427.0,32.3014604772,-99.8901209669,Texas,Taylor,Bend Arch - Fort Worth Basin,West Texas and Eastern New Mexico,F. A. Bradshaw #5,,4687.0,4700.0,,1959-12-18,5.91,28.113,4.8516,759.812576,37.8,15446.0,101095.97,58.932,0.0,,2272.52,43888.31,687.09,247.32528,1.6489999999999998,0.0,Fort Worth,20.027030224791663
89589,Sedimentary,Conventional Hydrocarbon,Mississippi,78589.0,32.377,-98.829,Texas,Eastland,Bend Arch - Fort Worth Basin,West Texas and Eastern New Mexico,"Sinclair Research Laboratories, Inc.",,3400.0,,,,7.3,13.4512,23.039,46.344,390.4,2438.0,47620.58,85.408,0.0,,759.64,26980.06,399.92,88.06000000000002,2.62162,0.0,Fort Worth,3.1415622497846885
89590,Sedimentary,Conventional Hydrocarbon,Mississippi,99254.0,32.327070905,-98.8323174406,Texas,Eastland,Bend Arch - Fort Worth Basin,West Texas and Eastern New Mexico,"Sinclair Research Laboratories, Inc.",,3700.0,,,,5.7,12.238,145.09949999999998,224.341,221.9,8972.0,60568.0,18.417,0.0,,892.98,27872.0,726.82,252.131,3.97307144,0.2,Fort Worth,2.824249412956461
89591,Sedimentary,Conventional Hydrocarbon,Marble Falls,106289.0,32.189,-98.621,Texas,Eastland,Bend Arch - Fort Worth Basin,West Texas and Eastern New Mexico,"Sinclair Research Laboratories, Inc.",,3000.0,,,,6.6,32.508,192.5465,163.667,135.7,8271.0,64404.6,15.856,0.0,,365.1,32094.6,1017.77,282.712,0.91470816,0.0,Fort Worth,3.872539157589108
89592,Sedimentary,Conventional Hydrocarbon,Lake,151079.0,32.327070905,-98.8323174406,Texas,Eastland,Bend Arch - Fort Worth Basin,West Texas and Eastern New Mexico,"Sinclair Research Laboratories, Inc.",,3300.0,,,,6.8,38.357,8.39,753.691552,189.47,11656.0,93072.0,34.734,0.0,,1462.56,44430.8,268.14,421.485,1.03112288,0.0,Fort Worth,19.420938232843813
89594,Sedimentary,Conventional Hydrocarbon,Strawn,245617.0,33.781,-97.758,Texas,Montague,Bend Arch - Fort Worth Basin,West Texas and Eastern New Mexico,"Sinclair Research Laboratories, Inc.",,4652.0,,Pennsylvanian,,3.8,7.662000000000001,107.99299999999998,845.824,4.7,24990.0,152644.8,334.72200000000004,0.0,,3281.04,64680.0,16.46,600.0430000000001,170.448,0.3,Fort Worth,20.586146671693122
89595,Sedimentary,Conventional Hydrocarbon,Strawn,221752.0,33.6756881415,-97.7246475609,Texas,Montague,Bend Arch - Fort Worth Basin,West Texas and Eastern New Mexico,"Sinclair Research Laboratories, Inc.",,5830.0,,Pennsylvanian,,2.6,6.629,24.591,743.2760000000001,44.953,23761.0,137968.6,175.044,0.0,,2797.52,57048.6,175.71,565.2260000000001,33.325710019,0.0,Fort Worth,22.258167001150916
89596,Sedimentary,Conventional Hydrocarbon,Strawn,195414.0,33.6756881415,-97.7246475609,Texas,Montague,Bend Arch - Fort Worth Basin,West Texas and Eastern New Mexico,"Sinclair Research Laboratories, Inc.",,3500.0,,Pennsylvanian,,3.9,39.201,136.529,539.219561,2.28,17254.0,121759.1,66.30699999999999,0.0,,3071.88,53316.59,10.25,643.128,0.6766169200000001,0.0,Fort Worth,20.66642345587004
89612,Sedimentary,Conventional Hydrocarbon,Bend,254810.0,32.733,-99.235,Texas,Montague,Bend Arch - Fort Worth Basin,West Texas and Eastern New Mexico,"Sinclair Research Laboratories, Inc.",,5975.0,,Pennsylvanian,,8.7,76.36,4.511,2943.4,65.53207,25114.0,158441.0,73.04299999999999,0.0,,3109.92,67964.71,180.23,2671.8,1.3938654,-0.1,Fort Worth,30.674044217637146
89613,Sedimentary,Conventional Hydrocarbon,Canyon,236322.0,33.6756881415,-97.7246475609,Texas,Montague,Bend Arch - Fort Worth Basin,West Texas and Eastern New Mexico,"Sinclair Research Laboratories, Inc.",,2800.0,,Pennsylvanian,,4.2,20.051,18.91,989.82,23.32,25663.0,146857.7,470.692,0.0,,2111.63,61506.5,159.74,347.69100000000003,98.33100000000002,-0.2,Fort Worth,20.609536528239136
89614,Sedimentary,Conventional Hydrocarbon,Viola,235940.0,33.541,-97.816,Texas,Montague,Bend Arch - Fort Worth Basin,West Texas and Eastern New Mexico,"Sinclair Research Laboratories, Inc.",,6470.0,,,,7.0,15.048000000000002,81.062,163.85299999999998,156.11,16403.0,145858.0,92.513,0.0,,2970.75,70424.25,128.15,814.9200000000001,2.22168664,0.1,Fort Worth,33.529064639324645
89615,Sedimentary,Conventional Hydrocarbon,Bend,242027.0,33.6756881415,-97.7246475609,Texas,Montague,Bend Arch - Fort Worth Basin,West Texas and Eastern New Mexico,"Sinclair Research Laboratories, Inc.",,6260.0,,Pennsylvanian,,6.5,31.24,196.554,692.583,9.34,17940.0,148861.6,96.03799999999998,0.0,,922.72,74284.8,8.18,1755.7330000000002,2.0997907599999994,0.0,Fort Worth,29.761013750536737
89703,Sedimentary,Conventional Hydrocarbon,Cisco,173792.0,33.7855031282,-98.2085202308,Texas,Clay,Bend Arch - Fort Worth Basin,West Texas and Eastern New Mexico,,,1700.0,,Permian,,6.3,1.3073,47.98,385.735,45.92,11272.0,106792.0,63.9803,0.0,,1671.04,53435.2,575.68,160.302,29.319999999999997,0.0,Fort Worth,3.5137499766946347
89704,Sedimentary,Conventional Hydrocarbon,Caddo,143704.0,33.785503,-98.20852,Texas,Clay,Bend Arch - Fort Worth Basin,West Texas and Eastern New Mexico,,,5358.0,,Pennsylvanian,,4.5,27.160000000000004,23.94,703.40192,30.94,12701.0,90112.75,55.6,0.0,,2092.87,38730.25,35.36,449.9185,0.96472,-1.0,Fort Worth,18.860552824766327
89705,Sedimentary,Conventional Hydrocarbon,Bend,229811.0,33.514,-98.39,Texas,Clay,Bend Arch - Fort Worth Basin,West Texas and Eastern New Mexico,,,5454.0,,Pennsylvanian,,4.3,4.688000000000001,156.29699999999997,396.307,31.51,18543.0,142607.4,314.232,0.0,,2998.02,65585.4,45.51,803.511,228.438,0.0,Fort Worth,33.00152599894078
89706,Sedimentary,Conventional Hydrocarbon,Gunsight,154533.0,33.7855031282,-98.2085202308,Texas,Clay,Bend Arch - Fort Worth Basin,West Texas and Eastern New Mexico,,,1100.0,,,,4.9,17.054399999999998,155.14399999999998,259.342,17.78,11448.0,95990.4,148.724,0.0,,2055.35,45001.06,20.0,548.8860000000001,7.283000000000001,-0.2,Fort Worth,20.020209775240442
89707,Sedimentary,Conventional Hydrocarbon,Ellenburger,246290.0,33.7855031282,-98.2085202308,Texas,Clay,Bend Arch - Fort Worth Basin,West Texas and Eastern New Mexico,,,6261.0,,Ordovician,,5.7,4.5600000000000005,18.551,1473.42,76.25,24750.0,153070.64,214.038,0.0,,2975.9,65277.45,139.59,2115.5,4.747,0.0,Fort Worth,31.35559195484366
89708,Sedimentary,Conventional Hydrocarbon,Ellenburger,222731.0,33.785503,-98.20852,Texas,Clay,Bend Arch - Fort Worth Basin,West Texas and Eastern New Mexico,,,5600.0,,Ordovician,,6.6,5.156,28.491000000000003,702.2,22.02,20722.0,138442.55,345.81699999999995,0.0,,3322.85,59920.3,301.34,139.34699999999998,176.641,0.0,Fort Worth,20.703949913811996
89710,Sedimentary,Conventional Hydrocarbon,Strawn,170499.0,33.7855031282,-98.2085202308,Texas,Clay,Bend Arch - Fort Worth Basin,West Texas and Eastern New Mexico,,,4254.0,,Pennsylvanian,,5.0,34.129,291.578,382.949,31.39,12392.0,105934.5,41.796,0.0,,2671.34,49458.52,11.21,946.241,0.7250099999999998,0.0,Fort Worth,31.242523250346483
89711,Sedimentary,Conventional Hydrocarbon,Simpson,245404.0,33.779,-98.134,Texas,Clay,Bend Arch - Fort Worth Basin,West Texas and Eastern New Mexico,,,6227.0,,Ordovician,,4.2,8.192,36.163,1007.027,30.58,26224.0,152586.0,329.997,0.0,,2822.4,63692.16,59.98,897.2460000000001,193.141,0.1,Fort Worth,32.677050635974744
89712,Sedimentary,Conventional Hydrocarbon,Mississippian,229566.0,33.7855031282,-98.2085202308,Texas,Clay,Bend Arch - Fort Worth Basin,West Texas and Eastern New Mexico,,,6011.0,,Mississippian,,7.0,31.251,35.70099999999999,704.752,119.58,20189.0,142338.6,67.013,0.0,,2856.06,63855.0,207.82,806.1600000000001,1.0992,0.0,Fort Worth,32.4603934067528
89713,Sedimentary,Conventional Hydrocarbon,Mississippi,236649.0,33.772,-98.263,Texas,Clay,Bend Arch - Fort Worth Basin,West Texas and Eastern New Mexico,,,5954.0,,,,4.1,38.819,44.27700000000001,1340.3,3.52,25700.0,147504.75,71.21700000000001,0.0,,3073.26,60292.2,75.07,285.295,1.11372,-0.1,Fort Worth,18.44102427186461
89714,Sedimentary,Conventional Hydrocarbon,Chappel,209138.0,33.7855031282,-98.2085202308,Texas,Clay,Bend Arch - Fort Worth Basin,West Texas and Eastern New Mexico,Sinclair Prairie Oil Company,,6149.0,6406.0,,1944-06-08,,32.055,24.155,735.15016,177.75,16184.0,127644.75,42.247,0.0,,3705.75,57658.5,797.63,228.951,3.06594,0.0,Fort Worth,19.1783517082241
89715,Sedimentary,Conventional Hydrocarbon,Strawn,229799.0,33.785503,-98.20852,Texas,Clay,Bend Arch - Fort Worth Basin,West Texas and Eastern New Mexico,,,4658.0,,Pennsylvanian,,4.1,43.67100000000001,75.49999999999999,684.947,22.1,21015.0,143397.9,74.978,0.0,,2609.77,62743.85,10.47,737.3410000000001,0.9230200000000002,-0.7,Fort Worth,31.851643409296976
89728,Sedimentary,Conventional Hydrocarbon,Mississippian,111006.0,33.281,-98.54,Texas,Stephens,Bend Arch - Fort Worth Basin,West Texas and Eastern New Mexico,,,4143.0,,Mississippian,,6.7,12.1718,220.85100000000003,182.025,213.86,6304.0,67351.2,6.681000000000002,0.0,,1197.0,34792.8,1146.99,293.4415,3.876,0.0,Fort Worth,2.8035156420777887
89729,Sedimentary,Conventional Hydrocarbon,Mississippian,111656.0,32.24,-99.977,Texas,Stephens,Bend Arch - Fort Worth Basin,West Texas and Eastern New Mexico,,,4600.0,,Mississippian,,6.7,28.382,6.202,569.871,87.48,10351.0,68580.0,102.118,0.0,,1090.8,30898.8,648.0,222.346,2.60307144,0.0,Fort Worth,3.4658327168236864
89730,Sedimentary,Conventional Hydrocarbon,Mississippian,136785.0,32.786,-99.906,Texas,Stephens,Bend Arch - Fort Worth Basin,West Texas and Eastern New Mexico,,,4391.0,,Mississippian,,6.4,16.77,8.057,219.14573,161.11,8285.0,83844.0,19.521,0.0,,1634.14,42196.0,664.18,177.5209,2.60107144,0.0,Fort Worth,3.241093613402874
89731,Sedimentary,Conventional Hydrocarbon,Marble Falls,216991.0,32.7358703285,-98.8361851126,Texas,Stephens,Bend Arch - Fort Worth Basin,West Texas and Eastern New Mexico,,,6214.0,6273.0,,,,47.260000000000005,17.806,906.483424,98.75,17320.0,133462.38,27.252,0.0,,1921.56,64014.0,174.79,363.888,3.3385,0.5,Fort Worth,19.176063372819605
89732,Sedimentary,Conventional Hydrocarbon,Marble Falls,142047.0,32.7358703285,-98.8361851126,Texas,Stephens,Bend Arch - Fort Worth Basin,West Texas and Eastern New Mexico,,,3794.0,,,,6.4,26.517,26.581,319.055,120.23,9540.0,87798.8,32.464,0.0,,2110.04,42189.75,287.88,404.513,1.6550714399999995,0.0,Fort Worth,3.598490723184274
89733,Sedimentary,Conventional Hydrocarbon,Harbin,114721.0,32.7358703285,-98.8361851126,Texas,Stephens,Bend Arch - Fort Worth Basin,West Texas and Eastern New Mexico,Bruce #6,,1540.0,1550.0,,1955-03-14,6.83,11.539600000000002,46.055,143.98260000000002,157.68,4752.0,71991.72,457.966795,0.0,,4094.28,33461.64,46.44,220.32,169.635,0.0,Fort Worth,2.8664533991454078
89734,Sedimentary,Conventional Hydrocarbon,Bond,157422.0,32.7358703285,-98.8361851126,Texas,Stephens,Bend Arch - Fort Worth Basin,West Texas and Eastern New Mexico,,,3675.0,,,,6.5,40.335,4.637600000000001,872.865912,144.69,13378.0,96942.3,81.25699999999999,0.0,,1361.2,45132.15,464.12,374.178,3.2590714400000005,-0.1,Fort Worth,18.376426578472657
89735,Sedimentary,Conventional Hydrocarbon,Ellenburger,75340.0,32.3014604772,-99.8901209669,Texas,Taylor,Bend Arch - Fort Worth Basin,West Texas and Eastern New Mexico,,,5385.0,,Ordovician,,6.4,20.607,125.36,239.664,391.46,6316.0,45282.4,42.238,0.0,,2164.67,19149.8,2035.59,111.489,0.45623,0.0,Fort Worth,3.52483629148661
89736,Sedimentary,Conventional Hydrocarbon,Gunsight,98367.0,32.538,-99.933,Texas,Taylor,Bend Arch - Fort Worth Basin,West Texas and Eastern New Mexico,,,2465.0,,,,7.3,23.887,13.674,106.225,351.62,3591.0,60568.0,37.357,0.0,,2133.28,31323.84,399.86,89.0,0.2456999999999999,-0.2,Fort Worth,4.304922722474665
89737,Sedimentary,Conventional Hydrocarbon,Flippen,101471.0,32.538,-99.933,Texas,Taylor,Bend Arch - Fort Worth Basin,West Texas and Eastern New Mexico,,,2233.0,,,,6.4,10.72,17.047,227.105,256.0,5838.0,62605.0,26.698999999999995,0.0,,1459.0,31034.0,279.0,199.04102,3.518,-0.4,Fort Worth,4.05951650435248
89738,Sedimentary,Conventional Hydrocarbon,Flippen,85233.0,32.418,-100.078,Texas,Taylor,Bend Arch - Fort Worth Basin,West Texas and Eastern New Mexico,,,2480.0,,,,6.4,19.77,12.66,237.787,320.57,5655.0,52185.0,25.53885,0.0,,1112.93,25560.0,399.38,220.414,0.3819567199999999,0.0,Fort Worth,3.850150052913501
89739,Sedimentary,Conventional Hydrocarbon,Ellenburger,89487.0,32.3014604772,-99.8901209669,Texas,Taylor,Bend Arch - Fort Worth Basin,West Texas and Eastern New Mexico,S. D. Gamble # 1,,5400.0,,Ordovician,1964-07-14,7.56,26.9232,667.059,287.0,106.0,3302.0,53500.0,29.83300000000001,193.0,,1106.0,29197.0,1541.0,542.0,2.37535144,0.0,Fort Worth,7.958438866264514
89750,Sedimentary,Conventional Hydrocarbon,Flippen,101471.0,32.538,-99.933,Texas,Taylor,Bend Arch - Fort Worth Basin,West Texas and Eastern New Mexico,,,2233.0,,,,6.4,10.72,17.047,227.105,256.21,5838.0,62604.8,26.698999999999995,0.0,,1458.99,31034.4,278.72,199.04102,3.518,-0.4,Fort Worth,4.05951650435248
89751,Sedimentary,Conventional Hydrocarbon,Gunsight,97532.0,32.538,-99.933,Texas,Taylor,Bend Arch - Fort Worth Basin,West Texas and Eastern New Mexico,,,2465.0,,,,7.3,45.103,14.049799999999996,109.288,349.0,3561.0,60053.0,39.817,0.0,,2115.0,31058.0,396.0,81.89099999999999,0.4387,-0.2,Fort Worth,4.309989028699694
89752,Sedimentary,Conventional Hydrocarbon,Palo Pinto,106627.0,32.3014604772,-99.8901209669,Texas,Taylor,Bend Arch - Fort Worth Basin,West Texas and Eastern New Mexico,,,2920.0,,,,6.6,26.307,96.528,176.057344,442.9,5192.0,63747.5,23.651,0.0,,1191.1,34174.25,1879.1,127.87099999999998,0.77205672,0.0,Fort Worth,3.859281066684431
89772,Sedimentary,Conventional Hydrocarbon,Mississippian,106930.0,33.1774881425,-99.2123491559,Texas,Throckmorton,Bend Arch - Fort Worth Basin,West Texas and Eastern New Mexico,,,5097.0,,Mississippian,,6.3,34.5826,513.7830000000001,195.565,408.24,6879.0,64368.0,10.655,0.0,,1114.56,32778.0,1382.4,302.803,0.6453,0.3,Fort Worth,3.163656158388028
89773,Sedimentary,Conventional Hydrocarbon,Mississippian,86445.0,33.1774881425,-99.2123491559,Texas,Throckmorton,Bend Arch - Fort Worth Basin,West Texas and Eastern New Mexico,,,4416.0,,Mississippian,,,14.759,242.03359999999992,183.865,212.86,6745.0,52208.7,10.87,0.0,,728.59,25363.05,1186.08,273.907,3.51105144,0.0,Fort Worth,3.2674660227474295
89774,Sedimentary,Conventional Hydrocarbon,Mississippian,74523.0,33.1774881425,-99.2123491559,Texas,Throckmorton,Bend Arch - Fort Worth Basin,West Texas and Eastern New Mexico,,,4500.0,,Mississippian,,6.9,23.422,966.3009999999998,423.753,421.2,3085.0,44226.0,8.152,0.0,,613.9,24798.15,1379.43,1366.6,0.26393,0.0,Fort Worth,16.922342980436387
89775,Sedimentary,Conventional Hydrocarbon,Strawn,175532.0,33.1774881425,-99.2123491559,Texas,Throckmorton,Bend Arch - Fort Worth Basin,West Texas and Eastern New Mexico,,,2600.0,,Pennsylvanian,,6.2,39.341,15.187,944.5241600000002,160.74,15565.0,111502.0,33.299,0.0,,3316.399,46298.8,209.42,323.034,0.5247743199999999,-6.1,Fort Worth,19.051676713010693
89776,Sedimentary,Conventional Hydrocarbon,Caddo,91723.0,33.052,-98.945,Texas,Throckmorton,Bend Arch - Fort Worth Basin,West Texas and Eastern New Mexico,,,3900.0,,Pennsylvanian,,7.1,23.0636,707.798,246.273,418.94,4850.0,55005.6,41.732,0.0,,980.72,29048.5,1419.91,343.226,0.6427567200000001,-0.1,Fort Worth,3.272360544703444
89867,Sedimentary,Conventional Hydrocarbon,Fry,126537.0,31.8311180054,-99.9761934158,Texas,Runnels,Bend Arch - Fort Worth Basin,West Texas and Eastern New Mexico,L. Blevins # 1,,4500.0,,,1956-09-13,7.25,20.032400000000003,104.62,569.184016,158.41,5208.0,78865.4,37.895,0.0,,4007.99,37208.99,128.03,960.23,0.40820144,0.0,Fort Worth,17.701451158058628
89873,Sedimentary,Conventional Hydrocarbon,Goen,103002.0,31.8311180054,-99.9761934158,Texas,Runnels,Bend Arch - Fort Worth Basin,West Texas and Eastern New Mexico,T. Wilson # 6,,4400.0,,,1956-09-13,7.22,16.153,85.26700000000001,124.794,208.26,1879.0,63428.52,26.619000000000007,0.0,,2283.38,34745.24,210.4,221.08,2.16875144,0.0,Fort Worth,3.4674012946430874
89874,Sedimentary,Conventional Hydrocarbon,Unknown,99166.0,31.8311180054,-99.9761934158,Texas,Runnels,Bend Arch - Fort Worth Basin,West Texas and Eastern New Mexico,T. Wilson # 6,,4400.0,,,1956-07-10,7.12,21.583,102.675,131.25,679.65,2315.0,60815.63,15.931,0.0,,2031.44,33082.99,9.65,231.55,0.7240314400000001,0.0,Fort Worth,3.6235014904776515
89983,Sedimentary,Conventional Hydrocarbon,Palo Pinto,164023.0,33.68,-98.224,Texas,Clay,Bend Arch - Fort Worth Basin,West Texas and Eastern New Mexico,Burns Supply No. J - 2,,2546.0,7210.0,,1967-03-06,5.4,38.63,50.0,622.0,30.0,12375.0,101657.0,26.535000000000004,0.0,,2823.0,46485.14,27.82,306.0,0.6556069200000001,0.1,Fort Worth,18.77663106746935
89984,Sedimentary,Conventional Hydrocarbon,Strawn,182869.0,33.68,-98.224,Texas,Clay,Bend Arch - Fort Worth Basin,West Texas and Eastern New Mexico,Burns Produced No. 1 - 2,,4268.8,,Pennsylvanian,1967-03-06,4.9,36.4,10.0,655.0,18.0,15108.0,113322.0,40.618,0.0,,2823.0,50919.25,173.516,425.0,1.1630200000000002,0.1,Fort Worth,21.286441376291666
90142,Sedimentary,Conventional Hydrocarbon,Atoka,24065.0,32.771561748,-97.2912249024,Texas,Tarrant,Bend Arch - Fort Worth Basin,West Texas and Eastern New Mexico,Pan American Petroleum Corporation,,4112.0,4132.0,Pennsylvanian,1970-12-27,5.8,24.4133,14.853979999999998,59.927,48.0,1270.0,15250.0,70.781,410.0,,200.0,6850.0,37.0,34.6923,1.11,-5.3,Fort Worth,4.042584521897924
91386,Sedimentary,Conventional Hydrocarbon,Unknown,18051.0,32.7358703285,-98.8361851126,Texas,Stephens,Bend Arch - Fort Worth Basin,West Texas and Eastern New Mexico,Morrison #2,,2408.0,2438.0,,1951-01-12,8.2,19.668,16.378,50.544,281.61,218.81,10992.06,12.919999999999998,0.0,,88.13,6918.79,209.69,12.506,3.592999999999999,0.0,Fort Worth,3.431733878173603
91666,Sedimentary,Conventional Hydrocarbon,Strawn,130429.0,32.7358703285,-98.8361851126,Texas,Stephens,Bend Arch - Fort Worth Basin,West Texas and Eastern New Mexico,,,1950.0,,Pennsylvanian,,6.2,4.2782,25.753,567.9,51.75,11246.0,87859.8,92.2594,0.0,,2155.76,29044.38,71.57,165.47799999999998,28.638,-10.7,Fort Worth,3.8229752785691655
91669,Sedimentary,Conventional Hydrocarbon,Ellenburger,76036.0,32.7358703285,-98.8361851126,Texas,Stephens,Bend Arch - Fort Worth Basin,West Texas and Eastern New Mexico,,,4400.0,,Ordovician,,7.5,18.706,588.314,236.552,378.05,2935.0,45196.8,31.182,0.0,,518.5,25766.4,1240.8,494.3560000000001,0.5533,0.1,Fort Worth,6.912642486073625
91670,Sedimentary,Conventional Hydrocarbon,Mississippian,90275.0,32.7358703285,-98.8361851126,Texas,Stephens,Bend Arch - Fort Worth Basin,West Texas and Eastern New Mexico,A. A. Atkins # 16 A Lease # 7,,4245.0,4290.0,Mississippian,1949-08-04,7.15,18.5756,121.2989,123.945,315.88,3239.0,52618.4,14.701999999999998,0.0,,683.7,31727.92,1340.9,129.554,1.42013,2.6,Fort Worth,3.1281144468728264
91671,Sedimentary,Conventional Hydrocarbon,Caddo,185081.0,32.7358703285,-98.8361851126,Texas,Stephens,Bend Arch - Fort Worth Basin,West Texas and Eastern New Mexico,W. P. Nowell # 6,,3300.0,,Pennsylvanian,1956-01-02,7.1,13.029,180.97000000000003,200.308,54.88,13619.0,115164.0,133.129,0.0,,3592.96,52017.28,61.6,571.2,20.175000000000004,0.0,Fort Worth,19.988263721114237
91673,Sedimentary,Conventional Hydrocarbon,Caddo,174781.0,32.7358703285,-98.8361851126,Texas,Stephens,Bend Arch - Fort Worth Basin,West Texas and Eastern New Mexico,A. A. Atkins # 6,,3200.0,,Pennsylvanian,1956-02-01,7.29,32.941,70.49100000000001,370.378,65.79,11952.0,108720.31,40.967,0.0,,3467.65,50014.44,47.95,512.9,0.4953696000000001,0.0,Fort Worth,19.897957807943214
91682,Sedimentary,Conventional Hydrocarbon,Strawn,280144.0,33.6756881415,-97.7246475609,Texas,Montague,Bend Arch - Fort Worth Basin,West Texas and Eastern New Mexico,Clinging Smith # 2,,5938.0,5957.0,Pennsylvanian,1944-10-18,,41.581,16.274000000000004,964.618,142.5,24608.0,172902.54,42.943,0.0,,4214.14,76199.15,442.67,444.432,3.7023,0.0,Fort Worth,20.181868941270803
91686,Sedimentary,Conventional Hydrocarbon,Strawn,130913.0,33.2334642327,-98.172475313,Texas,Jack,Bend Arch - Fort Worth Basin,West Texas and Eastern New Mexico,Mary Bryson # 1,,3000.0,,Pennsylvanian,1956-02-01,6.28,31.833,90.659,238.908,68.17,8223.0,80757.23,32.743,0.0,,1472.6,39956.1,5.41,430.64,0.3198567199999999,0.0,Fort Worth,5.426437270341721
91687,Sedimentary,Conventional Hydrocarbon,Swastika,129245.0,32.7398931015,-99.8787637262,Texas,Jones,Bend Arch - Fort Worth Basin,West Texas and Eastern New Mexico,Chittenden #14,,3000.0,,,1964-07-14,7.3,29.341,123.14795,244.472,298.0,5525.0,77950.0,34.262,366.0,,1700.0,41463.0,1580.0,363.0,1.586,0.0,Fort Worth,4.105105419062196
91689,Sedimentary,Conventional Hydrocarbon,Caddo,56096.0,33.2334642327,-98.172475313,Texas,Jack,Bend Arch - Fort Worth Basin,West Texas and Eastern New Mexico,"Sinclair Research Laboratories, Inc.",,4400.0,,Pennsylvanian,1956-01-19,7.72,22.017,696.9,217.402,127.0,3031.0,32567.0,182.547,0.0,,404.0,17675.0,1943.0,351.0,9.7542,0.0,Fort Worth,1.4403098826001006
91691,Sedimentary,Conventional Hydrocarbon,Fusselman,98331.0,33.643,-97.808,Texas,Montague,Bend Arch - Fort Worth Basin,West Texas and Eastern New Mexico,Middleton #1,,6248.0,6271.0,Silurian,1943-07-22,,61.38099999999999,1157.609,536.0,184.724,5181.0,59555.3,21.48,0.0,,664.39,31643.58,376.52,1066.2,1.66575144,0.1,Fort Worth,17.768680781159794
91692,Sedimentary,Conventional Hydrocarbon,Caddo,248926.0,33.6756881415,-97.7246475609,Texas,Montague,Bend Arch - Fort Worth Basin,West Texas and Eastern New Mexico,Templeton #3,,6056.0,6067.0,Pennsylvanian,1944-03-20,,30.46,181.488,109.62600000000002,244.39,13681.0,148200.77,21.509,0.0,,3540.2,74051.85,483.07,549.5699999999999,5.014719999999999,0.0,Fort Worth,20.499262386274857
91694,Sedimentary,Conventional Hydrocarbon,Ellenburger,275348.0,33.748519,-97.784768,Texas,Montague,Bend Arch - Fort Worth Basin,West Texas and Eastern New Mexico,J. E. Zachary #1,42337313570000.0,6690.0,6700.0,Ordovician,1942-11-18,,10.888,25.328,738.978,81.0,23443.0,169720.0,232.0,0.0,,3298.0,77094.0,739.0,448.128,88.087000019,-0.1,Fort Worth,20.420667662154965
91697,Sedimentary,Conventional Hydrocarbon,Bend,206955.0,33.013,-98.931,Texas,Young,Bend Arch - Fort Worth Basin,West Texas and Eastern New Mexico,"Sinclair Research Laboratories, Inc.",,4300.0,,Pennsylvanian,,5.8,7.141,61.165,726.917,119.5,18958.0,129377.4,176.64,0.0,,3808.94,54456.86,234.4,558.809,10.423932019,-0.4,Fort Worth,20.931334031545244
91698,Sedimentary,Conventional Hydrocarbon,Cisco,110804.0,33.281,-98.761,Texas,Young,Bend Arch - Fort Worth Basin,West Texas and Eastern New Mexico,"Sinclair Research Laboratories, Inc.",,860.0,,Permian,,5.7,24.9914,759.923,692.4359999999999,24.79,6963.0,68614.7,103.65,0.0,,1670.9,33525.8,4.31,1384.82205,0.8280099999999999,0.2,Fort Worth,16.349228370798574
91699,Sedimentary,Conventional Hydrocarbon,Strawn,149567.0,32.968,-98.534,Texas,Young,Bend Arch - Fort Worth Basin,West Texas and Eastern New Mexico,"Sinclair Research Laboratories, Inc.",,2500.0,,Pennsylvanian,,6.4,35.279999999999994,19.2254,628.301776,12.18,10931.0,93231.54,58.503,0.0,,1977.1,43073.37,342.06,408.476,0.8796169199999999,-1.1,Fort Worth,4.2015056897992515
91700,Sedimentary,Conventional Hydrocarbon,Caddo,201790.0,33.294,-98.548,Texas,Young,Bend Arch - Fort Worth Basin,West Texas and Eastern New Mexico,"Sinclair Research Laboratories, Inc.",,3521.0,,Pennsylvanian,,2.6,35.44799999999999,29.587,783.0029999999999,30.781999999999996,13908.0,124944.0,57.837,0.0,,2496.6,60420.0,21.66,192.243,0.57760692,0.0,Fort Worth,18.388965794843905
91701,Sedimentary,Conventional Hydrocarbon,Mississippian,111031.0,32.99,-98.786,Texas,Young,Bend Arch - Fort Worth Basin,West Texas and Eastern New Mexico,"Sinclair Research Laboratories, Inc.",,4500.0,,Mississippian,,7.5,31.46,7.379,281.8070000000001,105.74,7040.0,68030.95,39.257,0.0,,1165.32,34139.56,549.21,198.329,2.49202,0.0,Fort Worth,3.2487605436187263
91703,Sedimentary,Conventional Hydrocarbon,James Rose,101965.0,33.1765995865,-98.6877205731,Texas,Young,Bend Arch - Fort Worth Basin,West Texas and Eastern New Mexico,"Sinclair Research Laboratories, Inc.",,1182.0,1212.0,,1957-07-08,5.95,9.932,29.504,375.292,57.94,9013.0,63725.47,60.104020000000006,0.0,,2294.07,26443.01,172.48700000000002,431.35,24.4107,0.0,Fort Worth,4.843315922533636
91704,Sedimentary,Conventional Hydrocarbon,Strawn,151571.0,33.1765995865,-98.6877205731,Texas,Young,Bend Arch - Fort Worth Basin,West Texas and Eastern New Mexico,L. P. Moren B #12,,5988.7,,Pennsylvanian,1949-12-27,5.7,20.787,37.876000000000005,352.207,266.09,8797.0,93179.03,166.29299999999998,0.0,,1900.92,46864.91,48.18,195.561,15.527100019,0.0,Fort Worth,1.8492698837312327
91707,Sedimentary,Conventional Hydrocarbon,Mississippian,138878.0,33.1765995865,-98.6877205731,Texas,Young,Bend Arch - Fort Worth Basin,West Texas and Eastern New Mexico,"Sinclair Research Laboratories, Inc.",,4500.0,,Mississippian,,7.2,33.379999999999995,18.761000000000003,299.56,127.14,8134.0,85049.6,40.48,0.0,,1574.95,43292.0,700.34,155.765,2.3610199999999995,0.1,Fort Worth,3.262002544145911
91708,Sedimentary,Conventional Hydrocarbon,Caddo,169665.0,33.1766,-98.687721,Texas,Young,Bend Arch - Fort Worth Basin,West Texas and Eastern New Mexico,"Sinclair Research Laboratories, Inc.",,4710.0,,Pennsylvanian,,4.3,34.801,100.408,359.649,21.3,11983.0,105374.0,44.071,0.0,,2937.02,49301.58,48.2,594.418,0.93473,0.2,Fort Worth,20.893613378582415
91709,Sedimentary,Conventional Hydrocarbon,Strawn,170798.0,33.141,-98.911,Texas,Young,Bend Arch - Fort Worth Basin,West Texas and Eastern New Mexico,"Sinclair Research Laboratories, Inc.",,2590.0,,Pennsylvanian,,5.5,9.4349,43.94800000000001,569.2,40.43,13953.0,106011.2,131.798,0.0,,2207.82,48580.98,4.49,314.506,33.69199999999999,0.0,Fort Worth,18.852802271498543
91710,Sedimentary,Conventional Hydrocarbon,Caddo,222833.0,33.324,-98.545,Texas,Young,Bend Arch - Fort Worth Basin,West Texas and Eastern New Mexico,"Sinclair Research Laboratories, Inc.",,4500.0,,Pennsylvanian,,,4.795,36.164,503.638,105.65,17153.0,138130.78,174.613,0.0,,2766.16,64638.4,38.62,182.238,15.237732,0.0,Fort Worth,17.589163770396603
91711,Sedimentary,Conventional Hydrocarbon,Bend,179377.0,33.197,-98.645,Texas,Young,Bend Arch - Fort Worth Basin,West Texas and Eastern New Mexico,"Sinclair Research Laboratories, Inc.",,4000.0,,Pennsylvanian,,6.8,33.452,58.487,313.254,33.78,14452.0,111417.7,105.055,0.0,,2594.3,50861.42,18.02,228.07628,0.90159692,0.1,Fort Worth,18.428988358811498
91712,Sedimentary,Conventional Hydrocarbon,Strawn,181122.0,33.293,-98.694,Texas,Young,Bend Arch - Fort Worth Basin,West Texas and Eastern New Mexico,"Sinclair Research Laboratories, Inc.",,3100.0,,Pennsylvanian,,6.6,30.09,44.081,559.6519999999999,10.16,15022.0,112674.2,65.35600000000001,0.0,,2650.89,50748.55,15.81,188.80628,0.6335969199999999,-0.1,Fort Worth,18.452538232645438
91713,Sedimentary,Conventional Hydrocarbon,Bend,160353.0,33.048,-98.792,Texas,Young,Bend Arch - Fort Worth Basin,West Texas and Eastern New Mexico,"Sinclair Research Laboratories, Inc.",,3550.0,4100.0,Pennsylvanian,,6.3,39.0394,214.923,438.85,19.01,11431.0,100284.6,48.38,0.0,,3722.94,44887.7,7.83,603.6479999999999,0.62803,0.0,Fort Worth,20.40558092139227
91714,Sedimentary,Conventional Hydrocarbon,Caddo,90686.0,33.2159147284,-97.6544772192,Texas,Wise,Bend Arch - Fort Worth Basin,West Texas and Eastern New Mexico,"Sinclair Research Laboratories, Inc.",,3849.0,,Pennsylvanian,,7.2,16.155,13.2642,125.32500000000002,391.22,4117.0,55634.54,113.737,0.0,,1345.29,29101.8,95.94,89.74299999999998,2.56284672,0.1,Fort Worth,3.1415622497846885
91715,Sedimentary,Conventional Hydrocarbon,Caddo,86744.0,33.022,-97.765,Texas,Wise,Bend Arch - Fort Worth Basin,West Texas and Eastern New Mexico,"Sinclair Research Laboratories, Inc.",,3645.0,,Pennsylvanian,,7.1,17.161,20.394,114.23600000000002,393.0,4034.0,53194.0,38.493,0.0,,1159.0,27807.0,158.0,71.174,2.5044567199999994,-0.1,Fort Worth,3.2982631359257697
91716,Sedimentary,Conventional Hydrocarbon,Strawn,98205.0,33.022,-97.765,Texas,Wise,Bend Arch - Fort Worth Basin,West Texas and Eastern New Mexico,"Sinclair Research Laboratories, Inc.",,3350.0,,Pennsylvanian,,5.7,25.004,741.4699999999999,267.602,229.41,7536.0,60235.68,32.357000000000006,0.0,,1479.36,27989.92,735.39,369.212,4.485976719999999,-0.1,Fort Worth,2.602745871134448
91717,Sedimentary,Conventional Hydrocarbon,Strawn,94990.0,33.022,-97.765,Texas,Wise,Bend Arch - Fort Worth Basin,West Texas and Eastern New Mexico,"Sinclair Research Laboratories, Inc.",,3300.0,,Pennsylvanian,,7.1,29.673,15.445000000000002,258.496,410.11,5201.0,58419.6,25.44585,0.0,,1467.43,29391.36,100.39,358.125,0.8367134399999999,0.1,Fort Worth,3.890498071469913
91718,Sedimentary,Conventional Hydrocarbon,Ellenburger,212412.0,33.022,-97.765,Texas,Wise,Bend Arch - Fort Worth Basin,West Texas and Eastern New Mexico,"Sinclair Research Laboratories, Inc.",,7275.0,,Ordovician,,6.1,30.984,83.101,573.682,246.82,18909.0,131200.33,115.393,0.0,,2455.57,59190.88,408.69,794.9860000000001,11.2672,0.1,Fort Worth,33.13395744307158
91719,Sedimentary,Conventional Hydrocarbon,Fusselman,135681.0,33.292,-97.863,Texas,Wise,Bend Arch - Fort Worth Basin,West Texas and Eastern New Mexico,"Sinclair Research Laboratories, Inc.",,5252.0,,Silurian,,6.3,23.99,56.925,215.757,326.7,7876.0,83215.0,26.961,0.0,,1058.2,43120.0,85.8,324.711,0.37478,0.0,Fort Worth,3.285464394394244
91720,Sedimentary,Conventional Hydrocarbon,Fusselman,135576.0,33.292,-97.863,Texas,Wise,Bend Arch - Fort Worth Basin,West Texas and Eastern New Mexico,"Sinclair Research Laboratories, Inc.",,5250.0,,Silurian,,5.0,19.74,23.407,608.015,51.61,9854.0,83997.0,215.09,0.0,,1689.82,39967.2,16.47,414.918,85.726177699,0.0,Fort Worth,3.7323154291113445
91721,Sedimentary,Conventional Hydrocarbon,Caddo,99927.0,33.003,-97.68,Texas,Wise,Bend Arch - Fort Worth Basin,West Texas and Eastern New Mexico,"Sinclair Research Laboratories, Inc.",,3550.0,,Pennsylvanian,,6.2,44.278,25.971000000000004,247.602,461.39,5652.0,61268.3,18.559,0.0,,1325.16,31020.43,199.58,430.038,2.31415672,0.0,Fort Worth,4.6332822908677755
91722,Sedimentary,Conventional Hydrocarbon,Caddo,92801.0,33.003,-97.68,Texas,Wise,Bend Arch - Fort Worth Basin,West Texas and Eastern New Mexico,"Sinclair Research Laboratories, Inc.",,3860.0,,Pennsylvanian,,7.2,26.289300000000004,69.32000000000001,186.965,416.13,4641.0,56999.14,5.659000000000001,0.0,,1365.76,29289.15,89.63,359.117,0.94693672,0.0,Fort Worth,3.336923310992975
91723,Sedimentary,Conventional Hydrocarbon,Bend,154417.0,33.292,-97.863,Texas,Wise,Bend Arch - Fort Worth Basin,West Texas and Eastern New Mexico,"Sinclair Research Laboratories, Inc.",,5300.0,,Pennsylvanian,,6.5,33.6,13.876,645.157,85.55,11328.0,95468.23,52.243,0.0,,1977.58,45317.69,239.98,427.88,1.58175144,0.0,Fort Worth,4.972498787113795
91725,Sedimentary,Conventional Hydrocarbon,Ellenburger,96028.0,32.7358703285,-98.8361851126,Texas,Stephens,Bend Arch - Fort Worth Basin,West Texas and Eastern New Mexico,"Sinclair Research Laboratories, Inc.",,4286.0,,Ordovician,,,13.935,192.1036,179.979,282.22,4233.0,57726.0,14.379,0.0,,598.64,32070.0,1118.17,205.7575,2.3255,0.0,Fort Worth,3.1281144468728264
91726,Sedimentary,Conventional Hydrocarbon,Gardner,154190.0,32.7359500303,-99.3540554415,Texas,Shackelford,Bend Arch - Fort Worth Basin,West Texas and Eastern New Mexico,"Sinclair Research Laboratories, Inc.",,3863.0,3874.0,,1957-07-11,5.82,34.108000000000004,7.69077,769.914,56.41,16811.0,96078.22,365.509535,0.0,,3225.1,36996.81,588.39,268.98927999999995,60.122000000000014,-0.2,Fort Worth,18.516489874531988
91773,Sedimentary,Conventional Hydrocarbon,Strawn,107201.0,31.916,-99.937,Texas,Runnels,Bend Arch - Fort Worth Basin,West Texas and Eastern New Mexico,"Sinclair Research Laboratories, Inc.",,4000.0,,Pennsylvanian,,6.8,18.133599999999998,41.04,230.682,145.53,5694.0,66404.8,254.051,0.0,,1836.91,33116.16,4.31,311.499,27.148000076,0.0,Fort Worth,1.37778077747825
92670,Sedimentary,Conventional Hydrocarbon,Caddo,223617.0,33.1774881425,-99.2123491559,Texas,Throckmorton,Bend Arch - Fort Worth Basin,West Texas and Eastern New Mexico,J. B. Matthews #2,,4219.0,,Pennsylvanian,,6.2,5.767999999999999,22.315,669.824,69.36,20164.0,139016.44,197.184,0.0,,3571.32,60486.13,309.26,217.03000000000003,27.696177699,0.0,Fort Worth,19.84422065943564
92800,Sedimentary,Conventional Hydrocarbon,Gardner,116597.0,31.8311180054,-99.9761934158,Texas,Runnels,Bend Arch - Fort Worth Basin,West Texas and Eastern New Mexico,Nora Gardner Sand Unit #13 - 1,,5752.3,,,1963-09-10,6.4,30.96,77.252,163.042,112.01,7280.0,72180.54,22.997,0.0,,1686.58,35337.45,1086.367,183.595,1.6049999999999998,0.0,Fort Worth,3.2814923086879415
92804,Sedimentary,Conventional Hydrocarbon,Nora Gardner,85908.0,31.8311180054,-99.9761934158,Texas,Runnels,Bend Arch - Fort Worth Basin,West Texas and Eastern New Mexico,Nora Gardner Sand Unit #7 - 2,,7331.7,,,1964-09-24,6.4,16.169999999999998,210.016,194.206,122.96,6911.0,52576.0,6.188,0.0,,1176.6,24348.2,773.8,253.1320000000001,3.18375144,0.0,Fort Worth,3.2674660227474295
92805,Sedimentary,Conventional Hydrocarbon,Nora Gardner,10399.0,31.8311180054,-99.9761934158,Texas,Runnels,Bend Arch - Fort Worth Basin,West Texas and Eastern New Mexico,Nora Gardner Sand Unit #7 - 3,,5446.2,,,1964-09-24,6.8,16.554,9.29018,30.016,135.07,762.05,6179.04,130.743,0.0,,136.08,3010.9,176.4,19.89,6.104900000000001,0.0,Fort Worth,1.2729534296009968
92806,Sedimentary,Conventional Hydrocarbon,Nora Gardner,10867.0,31.8311180054,-99.9761934158,Texas,Runnels,Bend Arch - Fort Worth Basin,West Texas and Eastern New Mexico,Nora Gardner Sand Unit #7 - 3,,4069.1,,,1964-10-04,6.7,20.1072,8.635200000000001,37.06,90.81,855.63,6477.78,154.90900000000002,0.0,,136.22,3095.61,211.89,18.689,8.3295,0.0,Fort Worth,1.3044644682160347
92846,Sedimentary,Conventional Hydrocarbon,Gunsight,100740.0,32.7398931015,-99.8787637262,Texas,Jones,Bend Arch - Fort Worth Basin,West Texas and Eastern New Mexico,J. H. F. Jones,,5696.25,,,1957-12-10,7.1,16.806,25.501,151.11700000000002,326.35,3731.0,61846.0,132.776,0.0,,2294.08,31928.8,614.18,119.648,15.090699999999998,0.0,Fort Worth,1.5969782016736789
92847,Sedimentary,Conventional Hydrocarbon,Hope,113668.0,32.7398931015,-99.8787637262,Texas,Jones,Bend Arch - Fort Worth Basin,West Texas and Eastern New Mexico,J. H. F. Jones,,3251.8,,,1962-04-10,6.8,28.7951,3.455,235.306,144.18,5724.0,69824.87,23.835,0.0,,1816.29,35620.98,538.0,233.52,1.03172,0.0,Fort Worth,3.6869716503863064
92848,Sedimentary,Conventional Hydrocarbon,Gunsight,131339.0,32.538,-99.933,Texas,Jones,Bend Arch - Fort Worth Basin,West Texas and Eastern New Mexico,E. L. Kelso,,3423.95,,,1959-01-05,5.7,56.1,47.94348,730.92,70.85,19331.0,81167.94,98.651815,0.0,,1514.01,28167.78,1087.82,220.825,2.98305144,0.0,Fort Worth,18.464755104877646
92849,Sedimentary,Conventional Hydrocarbon,Gunsight,114997.0,32.538,-99.933,Texas,Jones,Bend Arch - Fort Worth Basin,West Texas and Eastern New Mexico,E. L. Kelso B,,1702.2,,,1959-01-05,6.7,7.1089,41.55,150.39299999999997,131.27,6166.0,70967.58,33.126000000000005,0.0,,1793.69,35731.81,206.59,206.01802,3.9117514400000006,0.0,Fort Worth,3.6261078869873575
92850,Sedimentary,Conventional Hydrocarbon,King,125257.0,32.7398931015,-99.8787637262,Texas,Jones,Bend Arch - Fort Worth Basin,West Texas and Eastern New Mexico,J. H. Huffaker,,4377.9,,,1959-03-05,6.61,24.113,44.565,198.801,198.12,5510.0,77162.32,14.532000000000002,0.0,,1712.67,40613.74,60.63,327.862,0.59116,0.0,Fort Worth,3.272206303489566
92851,Sedimentary,Conventional Hydrocarbon,King,102987.0,32.7398931015,-99.8787637262,Texas,Jones,Bend Arch - Fort Worth Basin,West Texas and Eastern New Mexico,J. H. F. Jones #6,,6612.4,,,1962-07-21,7.0,21.366,31.416999999999994,125.164,659.41,3026.0,62385.59,34.02,0.0,,744.81,35956.22,215.12,107.372,0.37704,0.0,Fort Worth,3.2012826131984276
92852,Sedimentary,Conventional Hydrocarbon,Gunsight,89321.0,32.7398931015,-99.8787637262,Texas,Jones,Bend Arch - Fort Worth Basin,West Texas and Eastern New Mexico,W. E. Butler #1,,6683.15,,,1962-07-21,4.4,18.149,317.742,330.626,320.191,2591.0,54497.84,12.48,0.0,,181.0,32050.75,3319.946,254.834,0.3713999999999999,0.0,Fort Worth,3.115773818782962
92853,Sedimentary,Conventional Hydrocarbon,Gunsight,108461.0,32.538,-99.933,Texas,Jones,Bend Arch - Fort Worth Basin,West Texas and Eastern New Mexico,Kelso #3,,2821.9,,,1965-11-01,6.9,14.637,21.8618,157.18200000000002,221.7,4198.0,66830.4,45.533,0.0,,2195.55,34629.71,385.56,112.553,0.93475144,0.0,Fort Worth,4.114858043690232
92854,Sedimentary,Conventional Hydrocarbon,Gunsight,104923.0,32.538,-99.933,Texas,Jones,Bend Arch - Fort Worth Basin,West Texas and Eastern New Mexico,E. L. Kelso #2,,9600.2,,,1962-07-20,6.9,35.395,53.675,166.523,861.2,4018.0,63540.77,65.22999999999999,0.0,,813.41,35501.34,188.96,152.656,0.59234,0.0,Fort Worth,3.204401076750431
92869,Sedimentary,Conventional Hydrocarbon,Gardner,214671.0,32.3014604772,-99.8901209669,Texas,Taylor,Bend Arch - Fort Worth Basin,West Texas and Eastern New Mexico,M. G. Reed #3,,5601.5,,,1957-07-18,7.5,7.721000000000001,206.079,358.492,124.52,16900.0,133266.96,167.902,0.0,,3760.5,60211.08,407.52,670.5939999999999,13.432064019,0.0,Fort Worth,33.7281454640452
92870,Sedimentary,Conventional Hydrocarbon,Unknown,231713.0,32.814,-98.145,Texas,Palo Pinto,Bend Arch - Fort Worth Basin,West Texas and Eastern New Mexico,Wagley G,,4324.3,,,1962-11-17,5.1,10.211000000000002,31.754,568.359,22.96,24337.0,144515.98,359.78599999999994,0.0,,3641.46,59040.49,154.98,193.267,154.241,0.0,Fort Worth,20.534052920547133
92871,Sedimentary,Conventional Hydrocarbon,Unknown,150400.0,32.814,-98.145,Texas,Palo Pinto,Bend Arch - Fort Worth Basin,West Texas and Eastern New Mexico,Wagley F,,3853.2,,,1962-11-17,5.9,39.13,18.898,677.680288,123.2,11396.0,92904.9,28.583815000000005,0.0,,1562.0,44337.7,77.0,559.191,0.6312,0.0,Fort Worth,7.732695397749771
92872,Sedimentary,Conventional Hydrocarbon,Unknown,173397.0,32.814,-98.145,Texas,Palo Pinto,Bend Arch - Fort Worth Basin,West Texas and Eastern New Mexico,Wagley E,,3187.5,,,1962-11-17,5.3,34.690000000000005,10.98,1021.409696,37.88,18135.0,107843.0,52.401,0.0,,2342.74,44842.96,194.95,337.71728,0.34401,0.0,Fort Worth,20.09349642459067
92873,Sedimentary,Conventional Hydrocarbon,Unknown,170652.0,32.814,-98.145,Texas,Palo Pinto,Bend Arch - Fort Worth Basin,West Texas and Eastern New Mexico,Wagley C,,5320.3,,,1962-11-17,5.7,30.790000000000003,28.712,627.547,118.88,11998.0,105190.59,63.478,0.0,,1630.95,51535.96,177.76,474.902,1.2375999999999998,0.0,Fort Worth,20.23195191340196
92874,Sedimentary,Conventional Hydrocarbon,Unknown,148525.0,32.814,-98.145,Texas,Palo Pinto,Bend Arch - Fort Worth Basin,West Texas and Eastern New Mexico,Wagley B,,4058.7,,,1962-11-17,4.9,41.6,12.9494,651.42864,26.33,11408.0,91805.74,32.473,0.0,,1637.82,43476.3,170.04,355.46000000000004,0.8561449199999999,0.0,Fort Worth,3.788124461896373
92875,Sedimentary,Conventional Hydrocarbon,Unknown,201239.0,32.814,-98.145,Texas,Palo Pinto,Bend Arch - Fort Worth Basin,West Texas and Eastern New Mexico,Wagley A,,4159.8,,,1962-11-17,5.7,12.256,67.209,821.309,55.32,20638.0,125308.84,153.558,0.0,,2974.92,52098.83,163.71,518.779,20.425000000000004,0.0,Fort Worth,21.426128520837633
92876,Sedimentary,Conventional Hydrocarbon,Big Saline,210413.0,32.7531436369,-98.3130150454,Texas,Palo Pinto,Bend Arch - Fort Worth Basin,West Texas and Eastern New Mexico,E. F. Wagley F #1,,4778.0,4788.0,,1961-09-29,3.8,11.063,29.471,679.1,332.425,24243.0,131208.27,174.92800000000005,0.0,,3098.55,51588.02,274.67,256.35028,17.8162,0.0,Fort Worth,19.12458696614084
92877,Sedimentary,Conventional Hydrocarbon,Big Saline,167550.0,32.7531436369,-98.3130150454,Texas,Palo Pinto,Bend Arch - Fort Worth Basin,West Texas and Eastern New Mexico,E. T. Hart #1,,3815.0,3830.0,,1959-07-20,6.9,22.917,26.208,717.142,148.47,14954.0,103724.31,192.569,0.0,,2241.48,46130.47,351.24,276.754,16.599177774999998,0.0,Fort Worth,18.91549755279832
93126,Sedimentary,Conventional Hydrocarbon,Unknown,39179.0,33.54,-98.162,Texas,Hidalgo,Bend Arch - Fort Worth Basin,West Texas and Eastern New Mexico,Temple West Lease,,5000.0,6200.0,,1956-06-01,7.4,29.564000000000004,23.0,70.411288,481.0,2050.0,23520.0,17.928000000000004,0.0,,61.0,12998.0,69.0,58.38800000000001,0.27226,0.0,Fort Worth,3.291769337716442
93873,Sedimentary,Conventional Hydrocarbon,Canyon,102000.0,33.6756881415,-97.7246475609,Texas,Montague,Bend Arch - Fort Worth Basin,West Texas and Eastern New Mexico,Dodgin No. 3,,1600.0,,Pennsylvanian,1964-02-13,5.4,22.1,30.0,409.264,14.0,8680.0,63800.0,54.39300000000001,0.0,,2130.0,27400.0,69.592,173.06710000000004,1.4010000000000002,0.0,Fort Worth,4.683664436647815
93874,Sedimentary,Conventional Hydrocarbon,Cisco,151000.0,33.6756881415,-97.7246475609,Texas,Montague,Bend Arch - Fort Worth Basin,West Texas and Eastern New Mexico,H. C. Mc Gaughy No. 14,,900.0,,Permian,1963-04-08,5.8,13.2212,75.933,436.601,20.0,11100.0,93600.0,54.453,0.0,,1960.0,44300.0,72.0,491.503,16.378000000000004,0.0,Fort Worth,6.5667143123513885
93875,Sedimentary,Conventional Hydrocarbon,Unknown,18252.0,32.537,-99.732,Texas,Jones,Bend Arch - Fort Worth Basin,West Texas and Eastern New Mexico,Henry Sayles #25,,1944.0,1970.0,,1961-12-28,6.8,27.233169999999998,16.209,107.822,351.0,656.0,10460.0,23.097,0.0,,224.0,5758.0,52.0,16.1787,2.1651434400000005,0.0,Fort Worth,4.021602287295097
93876,Sedimentary,Conventional Hydrocarbon,Flippen,63200.0,32.537,-99.732,Texas,Jones,Bend Arch - Fort Worth Basin,West Texas and Eastern New Mexico,"H. Sayles, Jr. No. 21",,1900.0,,,1960-01-21,7.12,4.898,20.991,140.34740000000002,189.0,3000.0,35300.0,14.518,59.0,,863.0,19000.0,92.0,90.414,4.47295672,2.3,Fort Worth,2.668858893416799
93877,Sedimentary,Conventional Hydrocarbon,Buttram,163200.0,33.301,-98.266,Texas,Jack,Bend Arch - Fort Worth Basin,West Texas and Eastern New Mexico,J. B. Cooper No. 1,,2326.0,,,1958-04-18,5.19,31.539,28.366,666.5,44.0,10800.0,103700.0,42.44,197.0,,2300.0,45600.0,179.63000000000002,373.984,0.7905969199999999,-3.7,Fort Worth,4.905950602635591
93878,Sedimentary,Conventional Hydrocarbon,Salona,230000.0,33.555,-97.751,Texas,Montague,Bend Arch - Fort Worth Basin,West Texas and Eastern New Mexico,F&p Mueller No. 1,,7200.0,,,1962-10-29,4.5,10.279,22.189,857.5260000000001,171.34199999999998,21300.0,143000.0,139.985,0.0,,3220.0,62300.0,270.0,217.16000000000005,24.021400038000003,0.0,Fort Worth,19.123327041935635
93879,Sedimentary,Conventional Hydrocarbon,Cisco,132000.0,33.6756881415,-97.7246475609,Texas,Montague,Bend Arch - Fort Worth Basin,West Texas and Eastern New Mexico,J. W. Rowland No. 5,,950.0,,Permian,1962-07-30,5.8,26.1314,767.087,750.09901743,22.0,11300.0,81900.0,114.016,0.0,,1980.0,36400.0,1.0,773.8130748,0.4814599999999999,0.0,Fort Worth,17.235789116055173
93880,Sedimentary,Conventional Hydrocarbon,Cisco,140000.0,33.6756881415,-97.7246475609,Texas,Montague,Bend Arch - Fort Worth Basin,West Texas and Eastern New Mexico,A. W. Rosland No. 12,,950.0,,Permian,1962-07-30,6.2,4.8912,21.4384,615.342,37.0,12000.0,86500.0,105.5733,0.0,,2100.0,38300.0,314.995,215.27700000000004,29.319999999999997,-0.1,Fort Worth,20.380898369321724
93881,Sedimentary,Conventional Hydrocarbon,Cisco,146000.0,33.6756881415,-97.7246475609,Texas,Montague,Bend Arch - Fort Worth Basin,West Texas and Eastern New Mexico,N. J. Howard A-65,,960.0,,Permian,1962-07-30,5.8,6.2636,907.212,694.053,26.0,12800.0,90800.0,83.7628,0.0,,2220.0,40000.0,4.0,984.445,30.356,0.0,Fort Worth,30.02764745468063
93882,Sedimentary,Conventional Hydrocarbon,Unknown,177000.0,33.6756881415,-97.7246475609,Texas,Montague,Bend Arch - Fort Worth Basin,West Texas and Eastern New Mexico,No. 1 Lynch,,5125.0,,,1961-06-09,3.9,10.522,310.0,162.07600000000002,112.109,13240.0,109660.0,125.869,0.0,,2318.0,51130.0,724.597,656.2810000000001,9.687,-0.2,Fort Worth,20.562201786886547
93883,Sedimentary,Conventional Hydrocarbon,Cisco,140531.0,33.6756881415,-97.7246475609,Texas,Montague,Bend Arch - Fort Worth Basin,West Texas and Eastern New Mexico,N. J. Howard B No. 64,,950.0,,Permian,1961-12-05,6.7,29.072000000000003,2.0,769.003424,176.0,11640.0,87330.0,27.36708,0.0,,1932.0,39523.0,9.0,403.1245,0.31756488,-0.1,Fort Worth,16.869278159337124
93884,Sedimentary,Conventional Hydrocarbon,Cisco,142725.0,33.6756881415,-97.7246475609,Texas,Montague,Bend Arch - Fort Worth Basin,West Texas and Eastern New Mexico,N. J. Howard A No. 53,,950.0,,Permian,1961-12-05,6.1,31.498400000000004,1334.819,747.2090000000001,73.0,11730.0,88650.0,62.78000000000001,0.0,,2005.0,40230.0,50.815000000000005,2019.0,2.18087,0.0,Fort Worth,25.645660627637977
93885,Sedimentary,Conventional Hydrocarbon,Cisco,167000.0,33.6756881415,-97.7246475609,Texas,Montague,Bend Arch - Fort Worth Basin,West Texas and Eastern New Mexico,H. C. Mc Gaughy No. 7,,1300.0,,Permian,1963-04-08,5.8,29.69,36.12939999999999,626.103,12.0,14900.0,104000.0,71.154,0.0,,2850.0,44900.0,69.779,236.04608,0.6335969199999999,0.0,Fort Worth,18.32189363409893
93886,Sedimentary,Conventional Hydrocarbon,Unknown,205000.0,33.643,-97.808,Texas,Montague,Bend Arch - Fort Worth Basin,West Texas and Eastern New Mexico,Marshall Pipe & Supply,,5600.0,,,1963-12-10,4.8,8.399,16.0,664.731,8.0,17800.0,126000.0,346.334,0.0,,3680.0,58200.0,9.0,303.39,193.141,2.3,Fort Worth,19.005066231980525
93887,Sedimentary,Conventional Hydrocarbon,Fusselman,230000.0,33.643,-97.808,Texas,Montague,Bend Arch - Fort Worth Basin,West Texas and Eastern New Mexico,Heard - Posey Unit #2,,5000.0,,Silurian,1963-12-10,4.6,34.32899999999999,2.0,1593.2,4.0,20600.0,143060.0,80.66399999999999,0.0,,2780.0,62800.0,10.0,925.713,1.28472,-0.6,Fort Worth,31.8515995178452
93888,Sedimentary,Conventional Hydrocarbon,Canyon,87929.0,33.6756881415,-97.7246475609,Texas,Montague,Bend Arch - Fort Worth Basin,West Texas and Eastern New Mexico,S. J. Hott Wf Plant,,1600.0,,Pennsylvanian,1961-12-05,6.9,11.192,3.0,346.946,541.9494000000001,7080.0,53970.0,41.108,0.0,,1981.0,23710.0,24.0,343.891,2.77480816,0.8,Fort Worth,3.8665792627634055
93889,Sedimentary,Conventional Hydrocarbon,Cisco,114900.0,33.6756881415,-97.7246475609,Texas,Montague,Bend Arch - Fort Worth Basin,West Texas and Eastern New Mexico,S. J. Hott Lease,,1600.0,,Permian,,5.39,22.127,82.946,376.22,25.0,8800.0,62000.0,37.226000000000006,327.0,,2000.0,25500.0,468.3380000000001,440.87700000000007,2.32201,-0.8,Fort Worth,6.514402393557466
93890,Sedimentary,Conventional Hydrocarbon,Foot,124300.0,33.6756881415,-97.7246475609,Texas,Montague,Bend Arch - Fort Worth Basin,West Texas and Eastern New Mexico,S. J. Hott Lease,,1800.0,,,,6.28,14.648,109.7434,281.50973,212.0,9300.0,65800.0,22.67,400.0,,2500.0,26300.0,470.0,418.788,2.43875144,-1.2,Fort Worth,5.747845035892036
93891,Sedimentary,Conventional Hydrocarbon,Cisco,118700.0,33.6756881415,-97.7246475609,Texas,Montague,Bend Arch - Fort Worth Basin,West Texas and Eastern New Mexico,S. J. Hott Lease,,1600.0,,Permian,,5.61,21.48,35.210171,366.690568,19.0,9000.0,63600.0,36.19799999999999,343.0,,2100.0,26600.0,360.12700000000007,518.173,3.28201,-0.2,Fort Worth,8.643795812998187
93892,Sedimentary,Conventional Hydrocarbon,Johns,237804.0,33.6756881415,-97.7246475609,Texas,Montague,Bend Arch - Fort Worth Basin,West Texas and Eastern New Mexico,S. J. Hott Lease,,2100.0,,,,2.56,4.833,237.072,958.06,128.3,20800.0,125000.0,155.56300000000002,749.0,,3600.0,47200.0,449.546,540.057,3.6062,-1.7,Fort Worth,22.484211550695374
93893,Sedimentary,Conventional Hydrocarbon,Canyon,101000.0,33.6756881415,-97.7246475609,Texas,Montague,Bend Arch - Fort Worth Basin,West Texas and Eastern New Mexico,H. H. No. 3,,1600.0,,Pennsylvanian,1964-02-16,4.2,20.205,41.0,319.218,47.894000000000005,8640.0,63100.0,35.78202,0.0,,2150.0,26901.0,354.814,343.186,3.191,0.0,Fort Worth,4.498561396401334
93894,Sedimentary,Conventional Hydrocarbon,Canyon,105000.0,33.6756881415,-97.7246475609,Texas,Montague,Bend Arch - Fort Worth Basin,West Texas and Eastern New Mexico,S. J. Hott No. 50,,1600.0,,Pennsylvanian,1964-01-22,4.7,20.583,56.0,395.9,6.0,9040.0,65600.0,50.152,0.0,,2210.0,28000.0,213.785,360.6041000000001,1.775,0.0,Fort Worth,4.685962638068
93895,Sedimentary,Conventional Hydrocarbon,Canyon,105000.0,33.6756881415,-97.7246475609,Texas,Montague,Bend Arch - Fort Worth Basin,West Texas and Eastern New Mexico,S. J. Hott No. 50,,1600.0,,Pennsylvanian,1964-01-27,5.0,15.919999999999998,56.0,359.88800000000003,12.0,9040.0,65600.0,45.464,0.0,,2130.0,28100.0,339.54200000000003,271.331,3.809,0.0,Fort Worth,4.2551906492767575
93896,Sedimentary,Conventional Hydrocarbon,Cisco,133000.0,33.6756881415,-97.7246475609,Texas,Montague,Bend Arch - Fort Worth Basin,West Texas and Eastern New Mexico,J. W. Rouland No. 5,,950.0,,Permian,1962-02-23,5.0,4.8912,9.9314,611.5,15.0,11100.0,83000.0,105.142,0.0,,1930.0,37400.0,152.55,283.475,28.832,0.0,Fort Worth,3.4750530171506773
93897,Sedimentary,Conventional Hydrocarbon,Cisco,163745.0,33.6756881415,-97.7246475609,Texas,Montague,Bend Arch - Fort Worth Basin,West Texas and Eastern New Mexico,R. Hunds No. 1 Injection Well,,900.0,,Permian,1961-12-05,5.3,34.89,846.0840000000001,957.288,31.0,13720.0,96040.0,69.98400000000001,0.0,,2265.0,41580.0,46.0,2577.1,3.06701,-0.6,Fort Worth,27.478205020265083
93898,Sedimentary,Conventional Hydrocarbon,Cisco,142788.0,33.6756881415,-97.7246475609,Texas,Montague,Bend Arch - Fort Worth Basin,West Texas and Eastern New Mexico,J. W. Rowland #35,,950.0,,Permian,1961-12-05,6.3,22.676,93.722,435.354,78.0,11040.0,88650.0,31.236,0.0,,1897.0,40360.0,14.0,415.5805,0.40906488,-0.8,Fort Worth,5.381951016812386
93899,Sedimentary,Conventional Hydrocarbon,Cisco,142152.0,33.6756881415,-97.7246475609,Texas,Montague,Bend Arch - Fort Worth Basin,West Texas and Eastern New Mexico,J. W. Rowland No. 10,,950.0,,Permian,1961-12-05,6.0,29.7684,583.635,788.1769999999999,62.0,11640.0,85300.0,81.96000000000001,0.0,,2009.0,40090.0,3.0,2043.83764,2.33626144,1.7,Fort Worth,25.41641691204239
93900,Sedimentary,Conventional Hydrocarbon,Unknown,163000.0,33.6756881415,-97.7246475609,Texas,Montague,Bend Arch - Fort Worth Basin,West Texas and Eastern New Mexico,N. J. Howard A No. 60,,9001.0,,,1959-06-30,4.82,18.11,136.47695000000002,340.9,24.0,11500.0,86900.0,275.988,520.0,,2200.0,38632.04,204.533,663.51352,246.94100000000003,-0.1,Fort Worth,34.3070616921118
93901,Sedimentary,Conventional Hydrocarbon,Viola,213968.0,33.2052421706,-97.1169936223,Texas,Denton,Bend Arch - Fort Worth Basin,West Texas and Eastern New Mexico,No. 1 Rupert Carroll,,8161.0,8220.0,,1959-12-10,5.65,22.848,1173.3,1373.046528,75.0,19144.0,109519.0,351.85,1469.0,,2337.0,45856.0,60.0,3108.9,36.575,1.4,Fort Worth,31.325045090195044
94132,Sedimentary,Conventional Hydrocarbon,Moran,121017.0,32.437,-99.287,Texas,Callahan,Bend Arch - Fort Worth Basin,West Texas and Eastern New Mexico,R. D. Williams #11,,2509.0,2547.0,,1955-05-27,6.15,26.475,27.997000000000003,315.004,71.43,9510.0,74770.7,33.169,0.0,,1642.93,34666.07,356.08,363.9108,0.7820514399999999,0.0,Fort Worth,4.014091241791448
94133,Sedimentary,Conventional Hydrocarbon,Moran,126771.0,32.437,-99.287,Texas,Callahan,Bend Arch - Fort Worth Basin,West Texas and Eastern New Mexico,R. D. Williams #3,,2466.0,2475.0,,1955-05-08,4.02,10.884900000000002,25.252,595.87208,215.3342,9963.0,78499.49,166.33,0.0,,1892.64,36064.54,351.13,115.671,19.700700095,0.0,Fort Worth,2.753991458698568
94243,Sedimentary,Conventional Hydrocarbon,Unknown,83828.0,33.1774881425,-99.2123491559,Texas,Throckmorton,Bend Arch - Fort Worth Basin,West Texas and Eastern New Mexico,Reynolds Land & Cattle Company #1,,4300.0,,,1955-11-23,6.62,15.0584,125.235,83.78299999999999,157.36,4258.0,51585.2,64.42,0.0,,887.12,26941.11,2575.168,77.1474,3.47475144,0.0,Fort Worth,3.263435349847267
94320,Sedimentary,Conventional Hydrocarbon,Dolomite,43475.0,31.7732074362,-99.4536349448,Texas,Coleman,Bend Arch - Fort Worth Basin,West Texas and Eastern New Mexico,Andrew Johnson #1,,4359.0,4374.0,,1956-05-06,6.96,17.7772,30.074,45.22,476.8,1020.0,26023.05,13.788,0.0,,260.54,15488.19,205.96,93.181,0.3990600000000001,0.0,Fort Worth,3.2602582991014026
94461,Sedimentary,Conventional Hydrocarbon,Grayburg,166639.0,32.30146,-99.890121,Texas,Taylor,Bend Arch - Fort Worth Basin,West Texas and Eastern New Mexico,L. Cartwright #3,,4609.0,4614.0,Permian,1956-06-13,5.0,23.0,8.4826,650.46,68.87299999999999,16398.0,103518.37,56.78,0.0,,2499.58,43795.59,427.55,191.373,2.24907144,0.0,Fort Worth,19.453730360989574
94776,Sedimentary,Conventional Hydrocarbon,Capps,154570.0,32.3014604772,-99.8901209669,Texas,Taylor,Bend Arch - Fort Worth Basin,West Texas and Eastern New Mexico,Braume Lease,,4124.6,,,1961-01-16,6.0,42.627,9.479,625.853,67.0,12400.0,96000.0,33.688,0.0,,3160.0,42340.0,600.0,177.839,1.6652577999999998,0.0,Fort Worth,18.856021099623412
94777,Sedimentary,Conventional Hydrocarbon,Capps,136800.0,32.3014604772,-99.8901209669,Texas,Taylor,Bend Arch - Fort Worth Basin,West Texas and Eastern New Mexico,R. C. Brown #1,,2078.2,,,1957-08-12,4.2,5.1233,74.868,832.5083999999999,24.0,19000.0,86000.0,179.098,0.0,,3340.0,27700.0,740.0,216.682,27.736032,-0.3,Fort Worth,20.396661501441635
94778,Sedimentary,Conventional Hydrocarbon,Capps,124400.0,32.3014604772,-99.8901209669,Texas,Taylor,Bend Arch - Fort Worth Basin,West Texas and Eastern New Mexico,Mcghee #1,,4442.0,4448.0,,1957-07-30,5.8,33.15,32.6794,551.559936,132.0,15000.0,77000.0,178.064055,0.0,,1700.0,29900.0,696.0,196.814,12.484400056999998,0.0,Fort Worth,17.933273101443984
95385,Sedimentary,Conventional Hydrocarbon,Fry,96348.0,31.7742476749,-98.9997805119,Texas,Brown,Bend Arch - Fort Worth Basin,West Texas and Eastern New Mexico,Arcadia #21,,1360.0,,,1953-03-26,6.52,7.2010000000000005,47.126,288.158,119.573,7476.0,60235.2,29.649999999999995,0.0,,2022.79,26614.77,153.977,204.731,3.9540514400000006,-0.1,Fort Worth,3.7798935129252635
95718,Sedimentary,Conventional Hydrocarbon,Unknown,244396.0,33.6151989159,-98.6876545839,Texas,Archer,Bend Arch - Fort Worth Basin,West Texas and Eastern New Mexico,"29 Wsw, Hudson Fish Wfp",,4258.8,,,1958-07-30,5.95,22.198,26.692,622.018,54.0,12081.0,153090.0,53.0,0.0,,7077.0,71988.0,366.704,321.726,3.37901,0.0,Fort Worth,20.748736409245886
95753,Sedimentary,Conventional Hydrocarbon,Unknown,137826.0,32.7398931015,-99.8787637262,Texas,Jones,Bend Arch - Fort Worth Basin,West Texas and Eastern New Mexico,#8 Rex A. Smith,,3412.0,3415.0,,1957-01-29,6.65,17.159,118.92991,197.413,246.0,6216.0,88969.0,19.0,0.0,,4298.0,42516.0,1352.161,69.64,4.47105144,0.0,Fort Worth,2.4886308060229294
95756,Sedimentary,Conventional Hydrocarbon,Unknown,136867.0,32.7358703285,-98.8361851126,Texas,Stephens,Bend Arch - Fort Worth Basin,West Texas and Eastern New Mexico,"#4, C. S. Hale",,3040.0,3092.0,,1957-03-12,5.1,21.501,38.859,450.75716,194.0,9972.0,89529.0,62.0,0.0,,4093.0,38939.0,99.399,398.495,0.69741104,0.0,Fort Worth,4.189006748152496
95757,Sedimentary,Conventional Hydrocarbon,Unknown,218193.0,32.7358703285,-98.8361851126,Texas,Stephens,Bend Arch - Fort Worth Basin,West Texas and Eastern New Mexico,"#7, J. M. Glenn",,3238.0,3260.0,,1957-03-15,5.6,29.959000000000003,156.345,189.122,57.0,12689.0,149865.0,64.0,0.0,,4855.0,66138.0,98.0,869.189,9.54962,-3.9,Fort Worth,30.510287079671073
95758,Sedimentary,Conventional Hydrocarbon,Unknown,195354.0,32.7358703285,-98.8361851126,Texas,Stephens,Bend Arch - Fort Worth Basin,West Texas and Eastern New Mexico,"#16, C. Mccauley",,3248.0,3258.0,,1957-03-12,6.6,40.8,258.06000000000006,458.134,108.0,13745.0,125989.0,45.0,0.0,,6136.0,54378.0,50.0,774.9879999999999,0.38337816,0.0,Fort Worth,30.729915054123452
95759,Sedimentary,Conventional Hydrocarbon,Caddo,195950.0,32.7358703285,-98.8361851126,Texas,Stephens,Bend Arch - Fort Worth Basin,West Texas and Eastern New Mexico,C. Mccauley #16,,3238.0,3254.0,Pennsylvanian,1955-11-09,6.7,49.841,154.38500000000005,495.088,70.0,15804.0,121844.0,5.0,0.0,,3022.0,55180.0,18.0,1540.4,0.4654081599999999,0.0,Fort Worth,29.239999620686632
95760,Sedimentary,Conventional Hydrocarbon,Unknown,193695.0,32.7358703285,-98.8361851126,Texas,Stephens,Bend Arch - Fort Worth Basin,West Texas and Eastern New Mexico,J. M. Rush #10,,3180.0,3227.0,,1958-11-10,6.38,71.289,42.0192,823.8,23.0,20145.0,124466.0,33.0,0.0,,9623.0,39383.0,11.0,386.476,1.16516492,0.0,Fort Worth,18.803262393835922
95763,Sedimentary,Conventional Hydrocarbon,Unknown,193416.0,33.324,-98.545,Texas,Young,Bend Arch - Fort Worth Basin,West Texas and Eastern New Mexico,"#5, Bagley Estate",,3276.0,3282.0,,1956-11-19,,35.546,17.115000000000002,642.1834240000001,59.0,11781.0,120192.0,54.0,0.0,,3025.0,58710.0,122.79399999999998,203.08500000000004,0.3989,0.0,Fort Worth,17.81564396603262
95764,Sedimentary,Conventional Hydrocarbon,Unknown,129887.0,33.1765995865,-98.6877205731,Texas,Young,Bend Arch - Fort Worth Basin,West Texas and Eastern New Mexico,#6 W. G. Gambell,,1200.0,1204.5,,1956-11-05,6.25,7.573599999999999,39.01499999999999,303.788,54.0,7969.0,82371.0,71.0,0.0,,2631.0,39303.0,93.853,225.973,29.226,0.0,Fort Worth,3.644213857547996
95775,Sedimentary,Conventional Hydrocarbon,Unknown,272479.0,33.643,-97.808,Texas,Montague,Bend Arch - Fort Worth Basin,West Texas and Eastern New Mexico,"#2, Hinds Clark",,5927.0,5937.0,,1950-09-25,5.65,14.194,37.795,566.149,77.0,24119.0,176193.2,166.1,0.0,,2533.0,81820.0,49.0,511.021,18.954699981,0.0,Fort Worth,19.695577873558463
95778,Sedimentary,Conventional Hydrocarbon,Unknown,85169.0,32.6825658,-99.0840452,Texas,Stephens,Bend Arch - Fort Worth Basin,West Texas and Eastern New Mexico,"#2, S.r. Nail",,4444.0,4464.0,,1957-09-04,6.9,13.415,786.619,260.502,275.0,4444.0,48206.0,8.0,0.0,,736.0,25449.0,1215.0,373.763,2.6055,0.0,Fort Worth,3.251094721757404
95784,Sedimentary,Conventional Hydrocarbon,Unknown,21928.0,33.333,-97.73,Texas,Wise,Bend Arch - Fort Worth Basin,West Texas and Eastern New Mexico,"#1, C.p. Smith",,5386.0,5402.0,,1957-08-29,6.7,33.986000000000004,19.216,52.370000000000005,185.0,1859.0,13605.0,96.0,0.0,,199.0,6392.0,27.0,45.23,0.14045,0.0,Fort Worth,3.1312539007645146
98244,Sedimentary,Conventional Hydrocarbon,Cambrian,82978.0,32.033,-100.093,Texas,Runnels,Bend Arch - Fort Worth Basin,West Texas and Eastern New Mexico,Tract 3 Well #5ws,,5730.0,5900.0,Cambrian,1961-06-30,6.57,21.907,67.83699999999999,131.707,376.03,2403.0,49921.15,14.601000000000004,0.0,,511.9,29107.95,657.26,178.346,0.6623,0.0,Fort Worth,3.2949463884623054
98245,Sedimentary,Conventional Hydrocarbon,Cambrian,80475.0,32.057,-99.705,Texas,Runnels,Bend Arch - Fort Worth Basin,West Texas and Eastern New Mexico,Bright Ws #1,,5118.0,5672.0,Cambrian,1961-06-30,6.51,38.983,35.693,76.06,310.22,2098.0,48641.76,51.524,0.0,,482.68,28550.94,390.14,98.18800000000002,0.8865000000000001,0.0,Fort Worth,3.2921380479861533
99064,Sedimentary,Conventional Hydrocarbon,Fusselman,81948.0,33.071,-97.851,Texas,Jack,Bend Arch - Fort Worth Basin,West Texas and Eastern New Mexico,Durham Gas Ut B #2,,5642.0,5649.0,Silurian,1980-01-11,5.1,30.203,24.28,255.371,36.95,5479.0,50467.24,28.51,0.0,,797.13,25022.46,91.85,430.121,1.42271,0.1,Fort Worth,4.921712008124115
99065,Sedimentary,Conventional Hydrocarbon,Swastika,160646.0,32.91504,-100.11435,Texas,Jones,Bend Arch - Fort Worth Basin,West Texas and Eastern New Mexico,H Hill #1,42253007260000.0,3570.0,3576.0,,1975-10-17,5.6,34.218,18.977,554.515912,38.9,11003.0,99145.8,16.67,0.0,,2067.39,48016.8,356.79,386.418,1.04361692,0.1,Fort Worth,4.120624464850938
99066,Sedimentary,Conventional Hydrocarbon,Swastika,112207.0,32.7398931015,-99.8787637262,Texas,Jones,Bend Arch - Fort Worth Basin,West Texas and Eastern New Mexico,Harriett Hill #2,,3568.0,3573.0,,1972-07-28,6.8,18.874,8.298,612.9167759999999,42.26,12307.0,97920.5,112.114,0.0,,1255.45,46920.85,681.66,214.673,3.9,-0.3,Fort Worth,20.531018080838336
99067,Sedimentary,Conventional Hydrocarbon,Swastika,160259.0,32.7398931015,-99.8787637262,Texas,Jones,Bend Arch - Fort Worth Basin,West Texas and Eastern New Mexico,H Hill #3,,3554.0,3562.0,,1975-10-17,5.6,33.718,41.628,468.062912,32.23,11003.0,99034.65,13.34,0.0,,2089.62,47794.5,291.21,385.99300000000005,1.15960692,0.0,Fort Worth,4.12374292840294
99068,Sedimentary,Conventional Hydrocarbon,Swastika,165407.0,32.7398931015,-99.8787637262,Texas,Jones,Bend Arch - Fort Worth Basin,West Texas and Eastern New Mexico,H Hill #4,,3570.0,3572.0,,1975-10-17,5.8,34.318,46.775,395.908,43.4,10905.0,102043.76,15.58,0.0,,2080.94,49853.44,464.04,383.8,6.443606919999999,-0.1,Fort Worth,3.2574224874056066
99069,Sedimentary,Conventional Hydrocarbon,Swastika,111909.0,32.7398931015,-99.8787637262,Texas,Jones,Bend Arch - Fort Worth Basin,West Texas and Eastern New Mexico,Harriett Hill #5,,10584.9,,,1972-07-28,6.5,57.838,28.634,616.03616,151.487,12984.0,97410.26,399.966,0.0,,1174.33,45965.06,339.97,187.171,154.461,-0.2,Fort Worth,17.98643970978575
99070,Sedimentary,Conventional Hydrocarbon,Swastika,163554.0,32.7398931015,-99.8787637262,Texas,Jones,Bend Arch - Fort Worth Basin,West Texas and Eastern New Mexico,H Hill #6,,2971.3,,,1975-10-17,5.7,42.362,24.725,607.889912,34.46,10803.0,101035.35,20.01,0.0,,2200.77,49128.3,331.23,182.095,6.36914492,0.0,Fort Worth,3.6538426017412666
99071,Sedimentary,Conventional Hydrocarbon,Swastika,162135.0,32.7398931015,-99.8787637262,Texas,Jones,Bend Arch - Fort Worth Basin,West Texas and Eastern New Mexico,J S Inzer #2,,3550.0,3555.0,,1975-10-17,5.7,32.5,12.1204,544.553,38.92,11454.0,100200.21,21.13,0.0,,2035.14,48153.93,231.32,378.4720000000001,6.045,0.0,Fort Worth,20.139310404566082
99072,Sedimentary,Conventional Hydrocarbon,Swastika,161828.0,32.7398931015,-99.8787637262,Texas,Jones,Bend Arch - Fort Worth Basin,West Texas and Eastern New Mexico,J S Inzer #5,,3544.0,3548.0,,,5.6,30.8,49.762,497.9,34.46,11228.0,100053.0,14.45,0.0,,2034.41,48247.78,215.67,397.0110000000001,0.87160692,0.0,Fort Worth,4.12374292840294
99180,Sedimentary,Conventional Hydrocarbon,KMA,217807.0,33.77188,-98.65171,Texas,Archer,Bend Arch - Fort Worth Basin,West Texas and Eastern New Mexico,Hull Silk Sike No 81,42009321180000.0,4396.0,4426.0,,1977-07-22,5.7,35.696,64.41399999999999,625.3280000000001,323.15,19435.0,134550.0,74.75,0.0,,4013.5,59340.0,70.15,719.835,0.30587144,1.0,Fort Worth,30.412691456272743
99181,Sedimentary,Conventional Hydrocarbon,KMA,214359.0,33.77188,-98.65171,Texas,Archer,Bend Arch - Fort Worth Basin,West Texas and Eastern New Mexico,Hull Silk #81,42009321180000.0,4396.0,4426.0,,1977-06-30,4.9,21.449,48.97099999999999,349.285,36.76,18034.0,133249.2,111.42,0.0,,2986.62,59847.27,93.04,273.469,2.817,-0.2,Fort Worth,19.12477947457275
99182,Sedimentary,Conventional Hydrocarbon,Unknown,136577.0,33.76,-98.626,Texas,Archer,Bend Arch - Fort Worth Basin,West Texas and Eastern New Mexico,Hull Silk Unit 4300 #36,,4355.0,4361.0,,1979-08-30,6.4,29.370000000000005,35.0,1231.9969999999998,24.06,8782.0,84543.01,188.12,0.0,,1859.29,41123.12,21.87,193.70200000000003,1.5588000000000002,-0.1,Fort Worth,3.7209872891527045
99183,Sedimentary,Conventional Hydrocarbon,Unknown,201600.0,33.76,-98.626,Texas,Archer,Bend Arch - Fort Worth Basin,West Texas and Eastern New Mexico,,,4341.0,4350.0,,1978-03-02,5.6,23.438,49.95,550.37,127.15,18051.0,124883.0,131.69,0.0,,2304.66,55970.29,81.74,208.35,12.757077679999998,0.0,Fort Worth,17.42760475503906
99184,Sedimentary,Conventional Hydrocarbon,Unknown,156098.0,33.76,-98.626,Texas,Archer,Bend Arch - Fort Worth Basin,West Texas and Eastern New Mexico,Hull-silk-sikes Ut No 45,,4334.0,4375.0,,1978-10-04,5.1,44.586,18.12,133.20499999999998,7.93,2299.0,95591.44,18.12,0.0,,1393.1,56743.26,27.18,224.088,7.056009999999999,0.0,Fort Worth,2.30877818488329
99185,Sedimentary,Conventional Hydrocarbon,Unknown,226099.0,33.76,-98.626,Texas,Archer,Bend Arch - Fort Worth Basin,West Texas and Eastern New Mexico,,,4302.0,4377.0,,1977-06-25,5.9,31.339,55.93,455.912,54.81,13981.0,139812.5,16.78,0.0,,2710.13,69458.85,8.95,275.78100000000006,6.56159692,0.0,Fort Worth,17.5610224796609
99186,Sedimentary,Conventional Hydrocarbon,Unknown,145543.0,33.76,-98.626,Texas,Archer,Bend Arch - Fort Worth Basin,West Texas and Eastern New Mexico,Hull - Silk - S U No 82,,4303.0,4413.0,,1977-05-17,6.0,35.491,34.13,260.74,41.84,9138.0,90171.9,25.32,0.0,,2091.9,44040.0,301.433,375.663,1.12401,0.0,Fort Worth,3.895587096629617
99187,Sedimentary,Conventional Hydrocarbon,Unknown,188117.0,33.76,-98.626,Texas,Archer,Bend Arch - Fort Worth Basin,West Texas and Eastern New Mexico,Hull Silk Sikes No 82,,4427.0,4459.0,,1977-07-12,5.9,28.811,112.03000000000002,364.625,22.77,14574.0,114998.6,39.85,0.0,,2879.52,55563.68,38.71,523.838,0.98401,2.1,Fort Worth,20.979742212065236
99188,Sedimentary,Conventional Hydrocarbon,Unknown,182284.0,33.76,-98.626,Texas,Archer,Bend Arch - Fort Worth Basin,West Texas and Eastern New Mexico,Hull-silk Sites #82,,4427.0,4459.0,,1977-07-13,5.2,29.442,23.65,656.1534240000001,48.42,13286.0,112600.0,82.2,0.0,,2184.44,53935.4,122.73,325.02527999999995,1.087,0.2,Fort Worth,18.79481885859572
99324,Sedimentary,Conventional Hydrocarbon,Capps,119041.0,31.9361,-100.2133,Texas,Runnels,Bend Arch - Fort Worth Basin,West Texas and Eastern New Mexico,J C Carter #1,42399032340000.0,4623.0,4650.0,,1959-08-19,6.71,27.912,80.533,230.719,93.42,9083.0,73816.26,23.201,0.0,,2700.54,32693.28,653.95,270.44800000000004,1.91102,0.0,Fort Worth,3.4705787061559805
99354,Sedimentary,Conventional Hydrocarbon,Mississippian,95539.0,33.1774881425,-99.2123491559,Texas,Throckmorton,Bend Arch - Fort Worth Basin,West Texas and Eastern New Mexico,Ee Smith No 4,,4960.0,5012.0,Mississippian,1979-01-30,6.8,16.8871,1.07,203.714,212.31,4342.0,57825.98,2.13,0.0,,981.55,31153.48,1019.96,141.799,3.0804,-0.1,Fort Worth,3.260332976672756
99355,Sedimentary,Conventional Hydrocarbon,Caddo,230181.0,33.1774881425,-99.2123491559,Texas,Throckmorton,Bend Arch - Fort Worth Basin,West Texas and Eastern New Mexico,,,4465.0,4471.0,Pennsylvanian,1971-05-03,6.45,12.414,15.094,664.207,72.997,19577.0,143561.6,108.348,0.0,,4042.6,62999.6,391.5630000000001,227.493,7.306980000000001,0.0,Fort Worth,19.456216221650497
99356,Sedimentary,Conventional Hydrocarbon,Mississippian,89177.0,31.31475,-99.23887,Texas,Throckmorton,Bend Arch - Fort Worth Basin,West Texas and Eastern New Mexico,Ee Smith #1-l,42447005460000.0,4995.0,5028.0,Mississippian,1971-04-27,7.1,17.325,87.78889999999998,199.305,243.11,3414.0,53822.44,26.168,0.0,,833.97,29943.75,919.59,142.155,2.962,0.0,Fort Worth,3.263435349847267
99398,Sedimentary,Conventional Hydrocarbon,Pennsylvanian,85239.0,33.06263,-97.82132,Texas,Wise,Bend Arch - Fort Worth Basin,West Texas and Eastern New Mexico,Womack Unit 1-1,42497020410000.0,3110.0,3153.0,Pennsylvanian,1975-07-16,5.8,41.878,139.92,243.089,112.36,4006.0,52576.0,17.064999999999998,0.0,,1261.4,27136.0,6.36,231.141,0.28307016,0.0,Fort Worth,4.093587505574666
99399,Sedimentary,Conventional Hydrocarbon,Pennsylvanian,84684.0,33.06263,-97.82132,Texas,Wise,Bend Arch - Fort Worth Basin,West Texas and Eastern New Mexico,J L Womack Unit 1-1,42497020410000.0,3110.0,3153.0,Pennsylvanian,,6.8,22.766,190.73,153.54757088000002,138.81,4238.0,52132.32,15.154000000000002,0.0,,1070.2,26913.84,1496.56,179.75600000000003,1.87750816,0.0,Fort Worth,4.054252818680604
99400,Sedimentary,Conventional Hydrocarbon,Unknown,68668.0,33.2159147284,-97.6544772192,Texas,Wise,Bend Arch - Fort Worth Basin,West Texas and Eastern New Mexico,J L Womack Unit 1-2 Wiw,,2932.0,3135.0,,1975-08-19,6.7,28.999,125.76,176.08499999999998,194.93,3961.0,42339.2,10.039,0.0,,981.98,21064.8,510.0090000000001,193.511,1.36600816,0.0,Fort Worth,4.054194231486745
99401,Sedimentary,Conventional Hydrocarbon,Unknown,102841.0,33.2159147284,-97.6544772192,Texas,Wise,Bend Arch - Fort Worth Basin,West Texas and Eastern New Mexico,Womack Unit 2-2,,3115.0,3130.0,,1979-08-25,6.4,25.473000000000003,111.999,373.438,147.84,7685.0,66849.12,22.264,0.0,,2329.01,25818.33,10.71,425.9860000000001,0.6314567200000001,-5.3,Fort Worth,5.948522075044124
99402,Sedimentary,Conventional Hydrocarbon,Atoka,113934.0,33.911,-99.181,Texas,Wise,Bend Arch - Fort Worth Basin,West Texas and Eastern New Mexico,V Gilliland No 1,,5272.0,5288.0,Pennsylvanian,1979-12-04,5.9,11.7362,176.38,247.23,50.86,8072.0,70877.55,205.6,0.0,,2088.45,32354.79,1540.158,151.50029999999998,138.352,-0.4,Fort Worth,2.6866028594490974
99403,Sedimentary,Conventional Hydrocarbon,Bend,43593.0,33.29713,-97.55334,Texas,Wise,Bend Arch - Fort Worth Basin,West Texas and Eastern New Mexico,Foxall No 2,42497310730000.0,6696.0,6706.0,Pennsylvanian,1978-03-26,5.1,10.803,66.23920000000001,132.419,66.12,4555.0,26034.12,160.13,0.0,,299.6,11157.48,1319.27,131.57739999999998,37.782400038000006,-1.7,Fort Worth,1.9635874501074033
99404,Sedimentary,Conventional Hydrocarbon,Bend,68294.0,33.29713,-97.55334,Texas,Wise,Bend Arch - Fort Worth Basin,West Texas and Eastern New Mexico,T H Foxall Unit #2,42497310730000.0,6198.0,6258.0,Pennsylvanian,1978-04-06,5.4,75.50500000000001,10.51,682.18573,53.61,9207.0,42044.0,3247.0,0.0,,939.68,12402.98,387.86,219.85700000000003,60.27300000000001,-5.2,Fort Worth,2.174695223479885
99405,Sedimentary,Conventional Hydrocarbon,Bend,41707.0,33.29713,-97.55334,Texas,Wise,Bend Arch - Fort Worth Basin,West Texas and Eastern New Mexico,T H Foxall Unit #2,42497310730000.0,6199.0,6255.0,Pennsylvanian,1978-05-01,6.5,26.425,16.48,95.933,427.37,2605.0,25230.1,529.32,0.0,,627.15,12048.66,222.44,90.14900000000002,9.398,-1.2,Fort Worth,1.3044644682160347
99606,Sedimentary,Conventional Hydrocarbon,Bend,34035.0,33.11347,-97.67357,Texas,Wise,Bend Arch - Fort Worth Basin,West Texas and Eastern New Mexico,Bula Patterson #2,42497311890000.0,5498.0,5572.0,Pennsylvanian,1978-09-14,4.9,38.136209999847,2.05,96.71,49.18,978.49,20492.0,1321.0,0.0,,146.52,10860.76,184.43,116.508,62.53000007600001,-4.4,Fort Worth,1.8567217665323485
99607,Sedimentary,Conventional Hydrocarbon,Boonesville,149480.0,33.06236,-97.82967,Texas,Wise,Bend Arch - Fort Worth Basin,West Texas and Eastern New Mexico,J T Womack #3,42497020390000.0,4677.0,5784.0,,1975-08-19,6.4,35.739999999999995,22.01,312.0870000000001,181.55,8659.0,91765.02,32.641000000000005,0.0,,1386.38,47202.87,262.97,332.97200000000004,2.0627,0.1,Fort Worth,3.2659746298522134
99608,Sedimentary,Conventional Hydrocarbon,Boonesville,67521.0,33.071,-97.851,Texas,Wise,Bend Arch - Fort Worth Basin,West Texas and Eastern New Mexico,J L Womack A #1,,5004.5,,,1975-10-27,5.8,19.872,55.47,167.499,78.5,3474.0,41550.02,73.26,0.0,,712.73,21559.96,16.75,203.444,0.5566,-0.1,Fort Worth,3.2948878012684455
99609,Sedimentary,Conventional Hydrocarbon,Boonesville,76567.0,33.071,-97.851,Texas,Wise,Bend Arch - Fort Worth Basin,West Texas and Eastern New Mexico,J L Womack A 1,,4656.0,4759.0,,1975-07-09,5.9,21.35,120.13,206.681,153.85,2887.0,46999.48,2.11,0.0,,891.51,25501.96,10.54,270.28799999999995,0.18258,0.0,Fort Worth,3.4643111369443984
99610,Sedimentary,Conventional Hydrocarbon,Boonesville,91794.0,33.071,-97.851,Texas,Wise,Bend Arch - Fort Worth Basin,West Texas and Eastern New Mexico,J L Womack A 1,,4656.0,4759.0,,1975-07-16,4.4,17.155,5.33,220.92,489.074,4059.0,56578.05,160.89,0.0,,1172.05,29727.45,90.57,118.066,16.476300038000005,-0.2,Fort Worth,1.2729534296009968
99611,Sedimentary,Conventional Hydrocarbon,Boonesville,75158.0,33.071,-97.851,Texas,Wise,Bend Arch - Fort Worth Basin,West Texas and Eastern New Mexico,J L Womack A 1,,4656.0,4759.0,,1975-08-19,7.1,17.555999999999997,157.86,122.622,163.12,3009.0,45989.88,20.205,0.0,,685.11,25152.36,2616.4839999999995,126.423,2.41055144,0.1,Fort Worth,3.263435349847267
