IDUSGS,PLAYTYPE,WELLTYPE,FORMSIMPLE,TDS,LATITUDE,LONGITUDE,STATE,COUNTY,PROVINCE,REGION,WELLNAME,API,DEPTHUPPER,DEPTHLOWER,PERIOD,DATESAMPLE,PH,B,Ba,Br,HCO3,Ca,Cl,FeTot,K,Li,Mg,Na,SO4,Sr,Zn,CHARGEBAL,BASIN_CATEGORY,Predicted_Li
46391,Sedimentary,Conventional Hydrocarbon,Unknown,19003.0,34.81361,-120.41266,California,Santa Barbara,Santa Maria Basin,Pacific Coast,34x Harris Ranch - Pyramid-harris,4083205950000.0,3670.0,3837.0,,,7.8,14.3811,20.4892,33.370999999999995,547.7,284.0,11438.7,61.015,0.0,,594.0,6255.1,158.0,15.436000000000002,2.5554999999999994,0.0,Pacific,2.7275048391708463
46392,Sedimentary,Conventional Hydrocarbon,Unknown,84891.0,34.94282,-120.55108,California,Santa Barbara,Santa Maria Basin,Pacific Coast,A. Tognazzini #4,4083205440000.0,5210.0,5287.0,,,7.4,35.5377,56.713,158.341,1955.0,87.0,49546.0,14.709000000000003,33.0,,120.5,32000.0,91.0,170.084,0.4472799999999999,-0.9,Pacific,1.3778036373534595
46393,Sedimentary,Conventional Hydrocarbon,Unknown,24916.0,34.94193,-120.55928,California,Santa Barbara,Santa Maria Basin,Pacific Coast,F. Tognazzini #1,4083204850000.0,5494.0,5505.0,,,8.0,65.25800000000001,18.228,70.37,2862.0,53.0,11595.0,6.318,22.5,,70.4,8740.0,37.0,22.45,0.1702499999999999,1.9,Pacific,1.0101275708925734
46394,Sedimentary,Conventional Hydrocarbon,Ranger,33386.0,33.77636,-118.22282,California,Los Angeles,Los Angeles Basin,Pacific Coast,Pacific Dock No. 14; M614d,4037035800000.0,3601.8,,Ordovician,,,11.864,76.0,56.557,543.0,784.0,19986.0,12.432,0.0,,553.0,11234.0,1713.8650000000002,52.981,3.0289,0.2,Pacific,3.3652481445523654
46395,Sedimentary,Conventional Hydrocarbon,Nordstron,13059.0,33.94273,-118.06579,California,Los Angeles,Los Angeles Basin,Pacific Coast,Bell No. 22,4037005800000.0,6789.6,,,1956-06-08,8.1,11.829,2.7,50.93,491.1,92.5,7446.0,0.6,0.0,,66.6,4792.94,26.0,5.814100000000001,0.04888,0.0,Pacific,1.2512507058621973
46396,Sedimentary,Conventional Hydrocarbon,Ranger,25687.0,33.764,-118.212,California,Los Angeles,Los Angeles Basin,Pacific Coast,Y - 4,4237029030000.0,3663.2,,Ordovician,1952-05-17,7.0,12.8762,55.4,20.116,1068.9,331.03,18133.0,79.048,0.0,,170.56,11444.8,1406.56,47.989,4.05571,0.0,Pacific,2.5049502044343455
46397,Sedimentary,Conventional Hydrocarbon,Terminal,30457.0,33.77126,-118.22497,California,Los Angeles,Los Angeles Basin,Pacific Coast,Union Pacific Railroad Co. No. 85,4037048750000.0,2942.0,4006.0,,,7.6,13.018,53.9,35.881,414.8,527.0,18083.0,19.2,0.0,,308.0,10677.14,2133.644,46.905,0.8348999999999999,0.0,Pacific,3.298681336460939
46398,Sedimentary,Conventional Hydrocarbon,Tar Springs,35411.0,33.76342,-118.22421,California,Los Angeles,Los Angeles Basin,Pacific Coast,Union Pacific No. 127,4037047790000.0,2851.0,3915.0,,1954-09-07,7.2,90.27,86.0,90.905,2775.5,411.0,19324.0,1.0,0.0,,565.8,12025.49,379.794,50.5348,0.95861,0.1,Pacific,3.809854342169834
46399,Sedimentary,Conventional Hydrocarbon,Ranger,33383.0,33.76352,-118.21116,California,Los Angeles,Los Angeles Basin,Pacific Coast,Y - 9,4237029060000.0,3204.1,,Ordovician,1939-08-07,7.2,12.8535,32.602999999999994,43.028,1223.9,640.67,19449.0,81.164,0.0,,437.8,11513.4,802.7529999999999,26.573200000000003,1.5081099999999998,0.0,Pacific,3.2539116504684644
46400,Sedimentary,Conventional Hydrocarbon,Terminal,21500.0,33.774,-118.213,California,Los Angeles,Los Angeles Basin,Pacific Coast,P & G No. 3,,5356.3,,,,,25.251000000000005,21.665,35.314,421.3,384.4,12700.0,11.692,0.0,,200.1,7464.0,1.5,25.940999999999995,0.05845,-0.7,Pacific,2.318993766626973
46401,Sedimentary,Conventional Hydrocarbon,Terminal,31229.0,33.773,-118.213,California,Los Angeles,Los Angeles Basin,Pacific Coast,P & G No. 2,,5007.1,,,,,40.493,25.01,52.025,903.9,492.1,18196.0,19.331,0.0,,307.0,10861.0,7.4,36.724,0.1382399999999999,-0.6,Pacific,3.3123726202408883
46402,Sedimentary,Conventional Hydrocarbon,Unknown,28800.0,34.32972,-119.3484,California,Ventura,Ventura Basin,Pacific Coast,Grubb No. A - 15,4111018740000.0,7615.0,8420.0,,,7.5,82.82399999999998,10.0,165.5,2030.0,515.0,15700.0,0.6,0.0,,175.0,10021.69,357.249,178.67630000000003,0.11061,0.0,Pacific,3.4970178706403803
46403,Sedimentary,Conventional Hydrocarbon,Unknown,32045.0,34.33024,-119.35371,California,Ventura,Ventura Basin,Pacific Coast,Grubb A - 12,4111018710000.0,6840.0,7653.0,,,7.14,13.222,4.0,118.967,795.0,765.0,17975.0,10.0,0.0,,355.0,11001.38,1250.0,42.775,0.26159,0.0,Pacific,4.426158737999172
46405,Sedimentary,Conventional Hydrocarbon,Unknown,15270.0,33.90019,-117.97629,California,Orange,Los Angeles Basin,Pacific Coast,Murphy - Coyote No. 107,4059046080000.0,3883.0,4269.0,,,7.6,18.785,11.892,42.096,1160.0,103.0,8230.0,0.94,0.0,,117.0,5439.29,12.0,19.0,0.8343999999999999,0.1,Pacific,1.9821030729355908
46406,Sedimentary,Conventional Hydrocarbon,Unknown,12435.0,33.90797,-117.97029,California,Orange,Los Angeles Basin,Pacific Coast,Murphy - Coyote No. 116,4059046170000.0,5448.0,6237.0,,,7.5,22.355,3.0,24.802,1080.0,105.0,6505.0,3.0,36.0,,65.0,4358.96,757.4359999999999,6.905999999999999,0.4447899999999999,0.0,Pacific,0.8222839232262795
46408,Sedimentary,Conventional Hydrocarbon,Santa Margarita,14176.0,35.01097,-119.82652,California,San Luis Obispo,Central Coastal,Pacific Coast,Norris Cuyama No. 3 - 25,4079009950000.0,5885.2,,,,7.7,15.173000000000002,6.012,47.018,432.0,142.0,7351.0,81.71000000000001,0.0,,56.0,4691.0,64.0,5.617999999999999,0.45869,0.0,Pacific,0.9169844287890325
46409,Sedimentary,Conventional Hydrocarbon,Unknown,30245.0,34.33223,-119.3583,California,Ventura,Ventura Basin,Pacific Coast,Grubb No. 161,4111203060000.0,12460.0,13492.0,,,7.1,113.848,35.0,78.06,1900.0,630.0,15850.0,10.1,0.0,,160.0,9962.05,260.696,130.16000000000005,0.2749,0.0,Pacific,4.185476632761031
46410,Sedimentary,Conventional Hydrocarbon,Unknown,29764.0,34.34436,-119.40517,California,Ventura,Ventura Basin,Pacific Coast,Hobson B No. 9 - 2,4111017080000.0,3855.0,5458.0,,,7.1,31.454,35.0,74.69,1775.0,473.0,16452.0,0.7,0.0,,229.0,10366.34,2.0,50.274,0.1469,0.1,Pacific,3.7640598379119763
46412,Sedimentary,Conventional Hydrocarbon,Miley,29561.0,34.34338,-119.40296,California,Ventura,Ventura Basin,Pacific Coast,Hobson No. B - 44 - W,4111017290000.0,4120.0,6244.0,,,7.5,8.546000000000001,44.0,47.511,1257.0,308.0,16594.0,0.4,0.0,,250.0,10404.86,1239.3560000000002,58.4,0.6728099999999999,0.1,Pacific,3.174799341713019
46413,Sedimentary,Conventional Hydrocarbon,Unknown,30195.0,34.31814,-119.34245,California,Ventura,Ventura Basin,Pacific Coast,Grubb No. 64,4111020860000.0,5990.0,7280.0,,,6.79,41.068,26.0,109.0,1750.0,580.0,15885.0,6.8,0.0,,150.0,10013.18,8.0,46.503,0.0688,0.0,Pacific,2.820100271572789
46416,Sedimentary,Conventional Hydrocarbon,Unknown,33800.0,34.33227,-119.35643,California,Ventura,Ventura Basin,Pacific Coast,Grubb 420,4111200710000.0,7074.0,7620.0,,,8.0,96.445,5.0,100.502,2130.0,485.0,18600.0,84.35499999999999,0.0,,185.0,11952.87,308.33900000000006,19.384,0.63732,0.0,Pacific,2.973478557929946
46417,Sedimentary,Conventional Hydrocarbon,Unknown,30400.0,34.32332,-119.35235,California,Ventura,Ventura Basin,Pacific Coast,Grubb No. 102,4111020980000.0,10407.0,11430.0,,,7.1,99.67,30.0,139.7,2900.0,410.0,14500.0,12.0,0.0,,90.0,9854.81,35.0,129.41402,0.11491,0.0,Pacific,3.9985750067625814
46418,Sedimentary,Conventional Hydrocarbon,Unknown,29400.0,34.32958,-119.35485,California,Ventura,Ventura Basin,Pacific Coast,Grubb No. 467,4111202460000.0,6629.0,7886.0,,,7.38,41.162,30.0,122.95,1795.0,590.0,15600.0,8.38,0.0,,115.0,9904.97,25.0,43.4019,0.07946,0.0,Pacific,2.821436142180834
46419,Sedimentary,Conventional Hydrocarbon,Unknown,11888.0,33.90475,-117.96589,California,Orange,Los Angeles Basin,Pacific Coast,Murphy - Coyote No. 227,4059009270000.0,4853.0,5185.0,,,7.4,12.322499999999998,7.09855,41.094,445.0,55.0,6810.0,0.72,0.0,,112.0,4305.5,155.856,4.641999999999999,0.35175,0.0,Pacific,2.3414975445856903
46420,Sedimentary,Conventional Hydrocarbon,Surf,30093.0,33.6534,-117.98537,California,Orange,Los Angeles Basin,Pacific Coast,Surf 2 No. 1,4059041850000.0,3671.35,,,,7.3,21.02,20.0,43.574,780.0,425.0,17658.0,0.2,0.0,,233.0,10803.64,325.53799999999995,39.153000000000006,2.2454,0.0,Pacific,3.1913362627284716
46421,Sedimentary,Conventional Hydrocarbon,Unknown,30813.0,33.6482,-117.96055,California,Orange,Los Angeles Basin,Pacific Coast,Oka No. 3,4059004020000.0,2389.0,2415.0,,,7.7,67.86500000000001,106.681,76.59400000000001,3807.0,437.0,15483.0,110.609,0.0,,221.3,10555.38,2198.786,48.784,3.00511,0.0,Pacific,3.7318834303530335
46422,Sedimentary,Conventional Hydrocarbon,Unknown,32925.0,33.76262,-118.20605,California,Los Angeles,Los Angeles Basin,Pacific Coast,Parcel A 1,4237010790000.0,2874.0,3160.0,,,7.1,7.983,134.0,47.104,1134.6,607.9,18934.0,215.0,0.0,,487.8,11057.71,2302.275,34.842,80.013,0.1,Pacific,3.5744906855912193
46423,Sedimentary,Conventional Hydrocarbon,Unknown,35269.0,33.76055,-118.20499,California,Los Angeles,Los Angeles Basin,Pacific Coast,Parcel A No. A34,4237011310000.0,2993.0,3812.0,,,8.2,10.902,75.5,62.20375,973.0,527.5,20710.0,1.1,0.0,,536.6,12170.16,3495.632,40.786,2.0132100000000004,0.1,Pacific,3.3994755277441775
46424,Sedimentary,Conventional Hydrocarbon,Terminal,33674.0,33.76005,-118.20464,California,Los Angeles,Los Angeles Basin,Pacific Coast,Parcel A No. 39,4237011360000.0,3273.0,4418.0,,1952-08-25,7.4,8.837,74.1,52.453,849.2,618.0,19749.0,42.874,0.0,,265.1,11893.68,1947.243,63.413,3.4019,0.0,Pacific,3.4414879124505995
46425,Sedimentary,Conventional Hydrocarbon,Unknown,31162.0,33.75835,-118.20305,California,Los Angeles,Los Angeles Basin,Pacific Coast,Parcel A No. 74,4237014370000.0,4951.0,5121.0,,1952-11-18,7.25,13.152,151.6,44.874,293.1,522.1,18604.0,12.444,0.0,,306.3,10957.5,2204.967,51.008,1.8656,0.1,Pacific,3.3560831682191714
46426,Sedimentary,Conventional Hydrocarbon,Terminal,30314.0,33.75579,-118.19912,California,Los Angeles,Los Angeles Basin,Pacific Coast,Parcel A No. 173,4237013400000.0,4295.0,4772.0,,1953-12-01,7.7,17.59,138.8,45.916,323.3,489.8,18154.0,0.1,0.0,,253.8,10804.56,3235.8020000000006,61.841,0.639,0.0,Pacific,3.3746878796698647
46427,Sedimentary,Conventional Hydrocarbon,Terminal,33057.0,33.76002,-118.20548,California,Los Angeles,Los Angeles Basin,Pacific Coast,Parcel A No. 40,4237011370000.0,9004.9,,,1952-08-25,7.5,10.9489,97.5,81.807,705.3,617.5,19598.0,6.398,0.0,,293.5,11683.0,2566.742,40.164,0.1745,0.0,Pacific,4.8654527998862225
46428,Sedimentary,Conventional Hydrocarbon,Ford,28680.0,33.75813,-118.20279,California,Los Angeles,Los Angeles Basin,Pacific Coast,Parcel A No. 79,4237013100000.0,5098.0,5914.0,,1952-11-29,7.3,69.824,31.368,131.7,2553.0,739.0,15207.0,10.986,0.0,,92.0,9816.5,42.2,67.087,0.0821,0.0,Pacific,2.8591102061868447
46429,Sedimentary,Conventional Hydrocarbon,Terminal,23896.0,33.75573,-118.19899,California,Los Angeles,Los Angeles Basin,Pacific Coast,Parcel A No. 177,4237013440000.0,4428.0,4610.0,,1952-08-13,6.7,92.007,33.831,27.60100000000001,2172.0,1034.0,12618.0,62.772000000000006,0.0,,178.2,7523.02,83.5,30.968,2.11535,0.0,Pacific,2.4049996507757023
46430,Sedimentary,Conventional Hydrocarbon,Terminal,32424.0,33.76446,-118.20764,California,Los Angeles,Los Angeles Basin,Pacific Coast,Z No. 51,4237029900000.0,3325.0,3470.0,,1952-04-01,6.4,21.1332,28.8876,38.179429,99.8,638.0,19233.0,19.893,0.0,,149.3,11666.31,369.7,53.69500000000001,3.015,0.0,Pacific,2.445087687654781
46431,Sedimentary,Conventional Hydrocarbon,Terminal,29907.0,33.75984,-118.20445,California,Los Angeles,Los Angeles Basin,Pacific Coast,Parcel A No. A46,4237011420000.0,3730.0,4005.0,,1956-08-12,8.1,14.9262,105.8,51.0,298.9,548.0,17587.0,9.2,0.0,,245.4,10388.07,2738.903,49.321000000000005,1.6802,0.0,Pacific,3.4084478758009213
46432,Sedimentary,Conventional Hydrocarbon,Ranger,35462.0,33.75934,-118.20404,California,Los Angeles,Los Angeles Basin,Pacific Coast,A No. 55,4237011480000.0,3570.0,4296.0,Ordovician,,8.3,20.867,67.0,194.305,634.4,465.8,21130.0,0.8,0.0,,611.5,12251.26,1.0,79.498,1.98031344,0.1,Pacific,3.5713736368503883
46433,Sedimentary,Conventional Hydrocarbon,Unknown,27246.0,33.7586,-118.20333,California,Los Angeles,Los Angeles Basin,Pacific Coast,Parcel A No. 69,4237013010000.0,3695.0,4406.0,,1964-08-18,7.0,23.437,144.0,118.028,897.0,685.0,156000.0,120.0,0.0,,362.0,99920.13,25.0,133.224,19.01342,0.0,Pacific,3.6720037985844534
46434,Sedimentary,Conventional Hydrocarbon,Terminal,30207.0,33.75845,-118.20315,California,Los Angeles,Los Angeles Basin,Pacific Coast,Parcel A No. 72,4237013040000.0,3349.5,,,1965-03-08,7.4,14.792000000000002,15.0,38.981,490.0,550.0,17800.0,3.5,0.0,,285.0,10629.77,170.0,27.143,4.3291,0.0,Pacific,3.2656268111051214
46435,Sedimentary,Conventional Hydrocarbon,Ford,25997.0,33.75813,-118.20279,California,Los Angeles,Los Angeles Basin,Pacific Coast,Parcel A No. 79,4237013100000.0,5098.0,5914.0,,1954-12-06,7.5,74.173,34.0,61.4,2211.3,448.7,13757.3,1.5,0.0,,118.6,9002.78,660.882,45.22,0.4905100000000001,0.0,Pacific,2.072638542095422
46436,Sedimentary,Conventional Hydrocarbon,Terminal,30361.0,33.76007,-118.20466,California,Los Angeles,Los Angeles Basin,Pacific Coast,Parcel A No. 38,4237011350000.0,3928.0,4146.0,,1956-05-07,7.5,23.647,151.3,191.026,582.6,534.3,17906.0,3.4,0.0,,391.0,10430.86,1.7,86.525,1.04452672,0.0,Pacific,3.807733104693203
46437,Sedimentary,Conventional Hydrocarbon,Terminal,31713.0,33.76002,-118.20548,California,Los Angeles,Los Angeles Basin,Pacific Coast,Parcel A No. 40,4237011370000.0,3888.0,4441.0,,1955-03-12,7.0,25.944,58.0,62.206,747.3,623.4,18650.4,0.9,0.0,,299.5,11079.54,5.0,83.777,0.16657,0.0,Pacific,3.7111707129310525
46438,Sedimentary,Conventional Hydrocarbon,Terminal,31954.0,33.75996,-118.20457,California,Los Angeles,Los Angeles Basin,Pacific Coast,Parcel A No. 42,4237011390000.0,3928.0,4077.0,,1956-08-29,7.9,26.813,75.0,163.775,298.9,575.4,18792.0,3.0,0.0,,299.5,11049.63,5.0,88.62,0.0875499999999999,0.0,Pacific,4.138694037112577
46439,Sedimentary,Conventional Hydrocarbon,Terminal,29628.0,33.75993,-118.20455,California,Los Angeles,Los Angeles Basin,Pacific Coast,Parcel A No. 43,4237011400000.0,4236.0,4442.0,,1956-08-30,7.9,20.817,107.0,64.894,180.0,596.0,17658.0,12.2,0.0,,243.4,10338.15,2957.829,41.782,2.2614,0.0,Pacific,3.40030028925829
46440,Sedimentary,Conventional Hydrocarbon,Terminal,29977.0,33.75988,-118.20451,California,Los Angeles,Los Angeles Basin,Pacific Coast,Parcel A No. 45,4237014360000.0,4785.0,4966.0,,1956-08-12,8.1,17.351999999999997,114.8,48.574,289.8,510.3,17658.0,12.1,0.0,,262.1,10439.5,2951.3680000000004,52.839,1.2216,0.0,Pacific,3.3935403456098214
46441,Sedimentary,Conventional Hydrocarbon,Ranger,34117.0,33.76059,-118.20503,California,Los Angeles,Los Angeles Basin,Pacific Coast,A No. 33,4237011300000.0,2626.0,3057.0,Ordovician,1960-05-18,8.2,11.3784,79.0,83.33500000000001,1064.0,452.1,19930.0,0.8,0.0,,509.6,11835.12,1360.64,67.174,2.6632100000000003,0.1,Pacific,3.5272375548604025
46442,Sedimentary,Conventional Hydrocarbon,Terminal,31541.0,33.76073,-118.20507,California,Los Angeles,Los Angeles Basin,Pacific Coast,A No. 31,4237011280000.0,3528.0,4139.0,,1956-05-07,8.1,10.829,104.0,41.385000000000005,680.2,455.5,18544.0,1.8,0.0,,361.9,11041.36,3622.687,21.3942,3.394,0.0,Pacific,3.3309116708555844
46443,Sedimentary,Conventional Hydrocarbon,Terminal,30314.0,33.76076,-118.20514,California,Los Angeles,Los Angeles Basin,Pacific Coast,Parcel A No. 30,4237011270000.0,3750.0,4434.0,,1960-03-22,7.8,35.925999999999995,22.0,37.654,535.3,548.0,17940.0,43.0,0.0,,349.0,10541.52,5.0,34.678,2.1110367200000004,0.0,Pacific,3.344237515637678
46444,Sedimentary,Conventional Hydrocarbon,Union Pacific,30572.0,33.76174,-118.20568,California,Los Angeles,Los Angeles Basin,Pacific Coast,Parcel A No. 16,4237010920000.0,2868.0,3431.0,,1954-03-04,7.2,28.22,57.3,42.782,1218.5,496.6,16984.0,48.4,0.0,,145.6,10619.51,24.5,68.4178,5.894316720000001,0.0,Pacific,2.444262893063969
46445,Sedimentary,Conventional Hydrocarbon,Ranger,33046.0,33.76254,-118.206,California,Los Angeles,Los Angeles Basin,Pacific Coast,Parcel A No. 2,4237010800000.0,2779.0,3359.0,Ordovician,1954-06-16,7.1,8.6702,118.0,27.29,1128.5,597.7,19005.0,165.0,0.0,,461.8,11164.13,1619.6730000000002,73.186,8.902800037999999,0.1,Pacific,3.4039132324600563
46446,Sedimentary,Conventional Hydrocarbon,Terminal,31591.0,33.75647,-118.20166,California,Los Angeles,Los Angeles Basin,Pacific Coast,Parcel A No. 304,4237012620000.0,4231.0,5139.0,,1955-02-25,8.0,26.438,74.0,56.96900000000001,640.5,500.1,18508.6,0.15,0.0,,241.3,11193.33,8.0,88.172,0.15631,0.0,Pacific,3.683796861304088
46447,Sedimentary,Conventional Hydrocarbon,Ford,28345.0,33.75648,-118.20169,California,Los Angeles,Los Angeles Basin,Pacific Coast,Parcel A No. 303,4237012610000.0,5404.0,6192.0,,1956-11-18,8.0,44.21900000000001,10.0,92.15,1659.2,441.8,15672.0,3.5,0.0,,147.7,9996.68,297.384,32.0082,0.5382999999999999,0.0,Pacific,2.3977176635646957
46448,Sedimentary,Conventional Hydrocarbon,Unknown,30050.0,33.75533,-118.19804,California,Los Angeles,Los Angeles Basin,Pacific Coast,Parcel A No. A - 201,4237013630000.0,3382.0,3597.0,,1970-02-18,7.34,11.4622,35.0,42.997,505.0,585.0,18155.0,1.95,0.0,,37.0,11210.36,1013.013,38.863,4.636800000000001,0.0,Pacific,1.6161557109889206
46449,Sedimentary,Conventional Hydrocarbon,Ranger,38243.0,33.75546,-118.19836,California,Los Angeles,Los Angeles Basin,Pacific Coast,Parcel A No. A - 194,4237004320000.0,3678.0,4230.0,Ordovician,,8.3,10.3184,52.0,63.795,120.5,602.8,23470.0,58.028,0.0,,661.4,12930.0,709.3860000000001,84.76339999999999,5.01502,-1.2,Pacific,3.1882404065269863
46450,Sedimentary,Conventional Hydrocarbon,Unknown,31400.0,33.75553,-118.19853,California,Los Angeles,Los Angeles Basin,Pacific Coast,Parcel A No. A - 161,4237013300000.0,3548.0,3854.0,,1970-07-22,7.3,25.967,55.0,50.187,375.0,500.0,18510.0,1.78,0.0,,255.0,11069.28,5.0,71.96700000000001,3.79795672,0.0,Pacific,3.3026812082836194
46451,Sedimentary,Conventional Hydrocarbon,Unknown,30950.0,33.75554,-118.19855,California,Los Angeles,Los Angeles Basin,Pacific Coast,Parcel A No. A 189,4237004310000.0,3131.0,3382.0,,1970-02-18,7.17,17.1522,51.46900000000001,57.81500000000001,845.0,50.0,17940.0,1.83,0.0,,520.0,11060.89,305.0,62.41799999999999,0.2237,0.0,Pacific,3.7387975228079067
46452,Sedimentary,Conventional Hydrocarbon,Unknown,29400.0,33.75761,-118.20212,California,Los Angeles,Los Angeles Basin,Pacific Coast,Parcel A No. A - 99,4237013270000.0,3932.0,4348.0,,1970-02-18,7.41,29.11,55.0,176.25500000000002,385.0,505.0,17445.0,10.0,0.0,,265.0,10360.26,5.0,74.672,0.99069,0.0,Pacific,3.8364246279087326
46453,Sedimentary,Conventional Hydrocarbon,Unknown,30550.0,33.7556,-118.19868,California,Los Angeles,Los Angeles Basin,Pacific Coast,Parcel A No. A - 160,4237001150000.0,3094.0,3334.0,,1970-02-18,7.03,21.717,5.0,64.18199999999999,655.0,660.0,17000.0,5.0,0.0,,305.0,10020.1,175.0,54.11800000000001,0.4291999999999999,0.0,Pacific,3.9136251301712752
46454,Sedimentary,Conventional Hydrocarbon,Ranger,26400.0,33.7575,-118.20196,California,Los Angeles,Los Angeles Basin,Pacific Coast,Parcel A No. A - 110,4237005290000.0,4222.0,4602.0,Ordovician,1962-11-14,7.34,19.947,70.0,43.4,360.0,400.0,15670.0,2.78,0.0,,210.0,9418.44,5.0,45.907,0.1646,0.0,Pacific,2.5829404227144366
46455,Sedimentary,Conventional Hydrocarbon,Terminal,29600.0,33.75615,-118.20103,California,Los Angeles,Los Angeles Basin,Pacific Coast,Parcel A No. 322,4237012760000.0,3680.0,3898.0,,1970-02-18,7.3,30.961,25.0,51.79,520.0,515.0,17585.0,3.34,0.0,,310.0,10411.95,5.0,49.17,3.79804672,0.0,Pacific,3.345571983074156
46456,Sedimentary,Conventional Hydrocarbon,Ranger,22543.0,33.77439,-118.22052,California,Los Angeles,Los Angeles Basin,Pacific Coast,Pacific Dock No. 27; M632d,4037035920000.0,2620.0,2920.0,Ordovician,1940-04-04,,20.953,96.358,51.59400000000001,427.0,465.0,12698.0,9.6285,0.0,,345.0,8520.0,1493.131,45.73,2.0677,7.2,Pacific,2.903621726988813
46460,Sedimentary,Conventional Hydrocarbon,Miocene,14545.0,34.05556,-118.39045,California,Los Angeles,Los Angeles Basin,Pacific Coast,West Pico No. 9,4037200400000.0,5835.0,6165.0,Neogene,1972-01-26,7.98,44.76899999999999,22.0,44.954,1945.0,245.0,6560.0,0.4,0.0,,45.0,4619.77,10.0,25.64,0.0288,0.0,Pacific,0.6608664968171668
46461,Sedimentary,Conventional Hydrocarbon,Tar,32110.0,33.7785,-118.23221,California,Los Angeles,Los Angeles Basin,Pacific Coast,U.p. No. 608,4037046360000.0,2692.0,2785.0,,1954-11-14,7.8,15.855,33.0,45.665,527.7,513.8,19146.7,0.2,0.0,,490.9,11099.16,188.00100000000003,40.037,0.7665,0.1,Pacific,3.3490513446703805
46462,Sedimentary,Conventional Hydrocarbon,Ranger,32971.0,33.77426,-118.23444,California,Los Angeles,Los Angeles Basin,Pacific Coast,Union Pacific No. 475,4037044000000.0,2698.0,3028.0,Ordovician,1955-05-13,7.6,15.582000000000004,80.0,83.056,1366.4,445.3,18934.0,0.3,0.0,,482.6,11358.17,766.2479999999999,106.119,1.48721,0.1,Pacific,3.5640424861083004
46463,Sedimentary,Conventional Hydrocarbon,Ranger,32622.0,33.77613,-118.23432,California,Los Angeles,Los Angeles Basin,Pacific Coast,U.p. No. 546,4037045670000.0,2735.0,3070.0,Ordovician,1955-05-15,7.8,11.274,52.5,65.054,1242.9,506.9,18863.1,0.7,0.0,,545.0,11086.34,508.14400000000006,85.76660000000001,1.75321,0.1,Pacific,3.286248772559693
46464,Sedimentary,Conventional Hydrocarbon,Ford,30043.0,33.77524,-118.23004,California,Los Angeles,Los Angeles Basin,Pacific Coast,U.p. No. 159 - R,4037042490000.0,2648.0,3234.0,,1956-11-18,6.8,16.458399999999997,39.1713,48.41775,1488.0,336.0,17019.0,22.5,0.0,,532.0,10209.54,734.4359999999999,52.828,0.31091,0.0,Pacific,3.4358078789834052
46465,Sedimentary,Conventional Hydrocarbon,Ranger,32761.0,33.77641,-118.23012,California,Los Angeles,Los Angeles Basin,Pacific Coast,U.p. No. 158 - R,4037042480000.0,2762.0,3403.0,Ordovician,1954-03-03,7.8,16.335,72.5,74.23499999999999,1131.6,493.2,18969.0,0.2,0.0,,428.5,11337.57,700.9309999999999,96.38200000000002,0.21791,0.0,Pacific,3.7511124745626074
46466,Sedimentary,Conventional Hydrocarbon,Tar Springs,33166.0,33.77585,-118.23125,California,Los Angeles,Los Angeles Basin,Pacific Coast,U.p. No. 589,4037045870000.0,2734.0,3416.0,,,7.6,19.126,43.5,77.03,701.5,596.0,18473.1,0.1,0.0,,501.3,10619.47,8.0,73.827,2.14170672,0.1,Pacific,3.3687334625792054
46467,Sedimentary,Conventional Hydrocarbon,Terminal,31924.0,33.77556,-118.23339,California,Los Angeles,Los Angeles Basin,Pacific Coast,U.p. No. 79,4037048720000.0,3203.0,3561.0,,1956-12-19,7.3,19.7725,44.5,45.397000000000006,602.4,876.8,18863.0,5.0,0.0,,249.6,10967.72,661.5469999999999,78.06800000000001,2.1957,0.0,Pacific,3.3077153905673344
46468,Sedimentary,Conventional Hydrocarbon,Tar Springs,33298.0,33.77806,-118.24205,California,Los Angeles,Los Angeles Basin,Pacific Coast,Union Pacific No. 37,4037009130000.0,2896.0,3101.0,,1953-11-11,7.6,17.957,60.5,70.25399999999999,1220.0,558.3,19253.0,1.4,0.0,,474.3,11401.73,566.539,88.45660000000001,0.21791,0.1,Pacific,3.7511124745626074
46469,Sedimentary,Conventional Hydrocarbon,Terminal,17248.0,33.76368,-118.20958,California,Los Angeles,Los Angeles Basin,Pacific Coast,Z - 8,4237029360000.0,1608.9,,,1940-03-07,,21.097,12.041,43.698,331.1,267.6,9322.0,17.075,0.0,,64.7,5757.25,17.5,23.738,6.19350672,0.1,Pacific,3.317428474812933
46470,Sedimentary,Conventional Hydrocarbon,Terminal,30985.0,33.76392,-118.20837,California,Los Angeles,Los Angeles Basin,Pacific Coast,Z No. 78,4237005720000.0,2917.0,3050.0,,1954-08-18,7.4,29.132,37.3,49.739,878.4,582.3,18012.0,0.1,0.0,,295.4,10775.07,3.0,59.984,2.1381467200000004,0.0,Pacific,3.346962204966306
46471,Sedimentary,Conventional Hydrocarbon,Terminal,29045.0,33.76404,-118.20763,California,Los Angeles,Los Angeles Basin,Pacific Coast,Z1 - 36,4237022170000.0,3010.0,3131.0,,1952-05-13,7.7,24.605,36.0,51.806,251.5,531.0,17457.0,13.011,0.0,,382.3,10077.75,214.03000000000003,3.6,1.6597000000000002,0.0,Pacific,3.458443863734521
46472,Sedimentary,Conventional Hydrocarbon,Ranger,32665.0,33.77835,-118.27318,California,Los Angeles,Los Angeles Basin,Pacific Coast,Well 731 G-14,4037015890000.0,3290.0,3555.0,Ordovician,1973-05-04,8.27,11.7415,104.0,58.356,645.0,430.0,19290.0,14.0,0.0,,445.0,11398.64,2688.581,41.108,1.7139000000000002,0.1,Pacific,3.460488307395535
46473,Sedimentary,Conventional Hydrocarbon,Ranger,32085.0,33.77165,-118.27348,California,Los Angeles,Los Angeles Basin,Pacific Coast,Apex 590 B-12; Wtu590,4037015380000.0,3732.0,3984.0,Ordovician,1973-05-04,7.23,9.232,125.0,43.611,865.0,475.0,18720.0,14.0,0.0,,355.0,11219.57,2670.125,38.8968,0.6341999999999999,0.1,Pacific,3.4343333070834725
46474,Sedimentary,Conventional Hydrocarbon,Ranger,31859.0,33.77421,-118.27372,California,Los Angeles,Los Angeles Basin,Pacific Coast,Apex D-9; Wtu 658,4037015630000.0,3570.0,3750.0,Ordovician,1956-05-12,8.1,11.723,111.5,48.99,823.5,431.6,18615.0,0.7,0.0,,386.9,11129.42,2271.594,49.0168,2.883,0.1,Pacific,3.437571312142762
46475,Sedimentary,Conventional Hydrocarbon,Ford,28965.0,33.77565,-118.24905,California,Los Angeles,Los Angeles Basin,Pacific Coast,Nelson 7a,4037038470000.0,5090.0,5250.0,,1972-05-18,7.26,26.723000000000003,44.0,48.92700000000001,575.0,310.0,16735.0,25.0,0.0,,105.0,10499.98,1089.885,76.051,0.44161,0.0,Pacific,2.2020574803877166
46476,Sedimentary,Conventional Hydrocarbon,Ranger,30615.0,33.77771,-118.25961,California,Los Angeles,Los Angeles Basin,Pacific Coast,Hall 717,4037038030000.0,3309.0,3599.0,Ordovician,1974-03-11,7.34,15.763,78.0,38.583,445.0,350.0,18155.0,2.7,0.0,,385.0,10808.95,2448.9710000000005,55.155,0.842,0.1,Pacific,3.352368965174697
46477,Sedimentary,Conventional Hydrocarbon,Unknown,27420.0,34.05907,-118.45557,California,Los Angeles,Los Angeles Basin,Pacific Coast,Sawtelle 1,4037167570000.0,9098.0,10940.0,,1971-07-19,6.8,59.587,9.0,97.144,2490.0,1210.0,13685.0,195.0,0.0,,380.0,7711.92,30.0,56.570568,102.971,0.0,Pacific,3.8113394620022976
46478,Sedimentary,Conventional Hydrocarbon,Unknown,30379.0,33.76291,-118.11452,California,Los Angeles,Los Angeles Basin,Pacific Coast,San Gabriel No. 52,4037085410000.0,7475.0,10019.0,,1965-03-03,7.0,45.847,16.0,69.28,1540.0,800.0,17020.0,0.1,0.0,,71.0,10562.8,14.0,69.15299999999999,0.20089,0.0,Pacific,2.131499529204503
46479,Sedimentary,Conventional Hydrocarbon,Unknown,25690.0,34.02447,-118.10413,California,Los Angeles,Los Angeles Basin,Pacific Coast,Baldwin No. 141,4037108570000.0,5500.0,4710.0,,1964-09-11,7.1,22.435,18.0,30.837,570.0,280.0,15175.0,2.0,0.0,,520.0,8774.48,34.0,52.0,0.0470999999999999,0.2,Pacific,3.0003569983709486
46480,Sedimentary,Conventional Hydrocarbon,Terminal,33075.0,33.76276,-118.23561,California,Los Angeles,Los Angeles Basin,Pacific Coast,Up 707 B,4037047400000.0,3186.0,3444.0,,1956-06-08,7.4,17.480999999999998,49.8,64.6,892.1,859.7,19324.0,39.2,0.0,,359.8,11185.69,323.419,71.17699999999999,0.3102,0.0,Pacific,3.7673627080037333
46481,Sedimentary,Conventional Hydrocarbon,Terminal,34475.0,33.77029,-118.23469,California,Los Angeles,Los Angeles Basin,Pacific Coast,U.p. 660b,4037046770000.0,3610.0,4187.0,,1956-12-20,7.3,33.116,97.5,54.174,642.0,589.1,20352.0,7.2,0.0,,353.6,12066.41,9.0,80.14599999999999,4.62431672,0.0,Pacific,3.2641495235763816
46482,Sedimentary,Conventional Hydrocarbon,Tar,32348.0,33.77223,-118.23012,California,Los Angeles,Los Angeles Basin,Pacific Coast,U.p. 638c,4037046600000.0,2317.0,2635.0,,1955-05-11,7.6,24.706,30.5,60.42475,817.4,650.8,19075.9,1.5,0.0,,532.5,10932.38,451.0220000000001,32.227,0.327,0.1,Pacific,3.53050805829358
46483,Sedimentary,Conventional Hydrocarbon,Unknown,36403.0,33.76194,-118.23483,California,Los Angeles,Los Angeles Basin,Pacific Coast,U. P. 604b,4037045980000.0,3142.0,3481.0,,,7.6,28.371,48.3,79.92,1595.0,1121.7,20778.0,0.75,0.0,,294.3,12219.91,0.5,69.709,0.30996344,0.0,Pacific,3.7362183371236592
46484,Sedimentary,Conventional Hydrocarbon,Terminal,31486.0,33.77298,-118.23634,California,Los Angeles,Los Angeles Basin,Pacific Coast,U. P. 544 B,4037009210000.0,3712.0,3933.0,,1956-12-01,7.2,9.744,92.0,47.013,846.4,602.8,18331.0,9.6,0.0,,349.4,10826.44,3800.22,31.974800000000005,1.1771,0.0,Pacific,3.2675234420441615
46485,Sedimentary,Conventional Hydrocarbon,Ford,20074.0,33.76445,-118.2354,California,Los Angeles,Los Angeles Basin,Pacific Coast,U.p. 417 R,4037044930000.0,5271.0,5518.0,,1958-01-29,7.1,30.85217,16.2,80.9,766.2,246.6,11490.0,36.3,0.0,,160.2,7147.35,3.5,17.258000000000003,0.05627,0.0,Pacific,2.90827312247635
46486,Sedimentary,Conventional Hydrocarbon,Tar,30630.0,33.76277,-118.24477,California,Los Angeles,Los Angeles Basin,Pacific Coast,U.p. 322,4037044480000.0,2637.0,2672.0,,1952-09-12,7.1,30.596,25.2,55.39075,436.0,578.0,18189.0,13.645,0.0,,355.8,10637.58,299.515,30.322,0.4256999999999999,0.1,Pacific,3.3529029676487054
46487,Sedimentary,Conventional Hydrocarbon,Ranger,33642.0,33.77248,-118.2319,California,Los Angeles,Los Angeles Basin,Pacific Coast,Union Pacific 166,4037048040000.0,2598.0,2941.0,Ordovician,1955-09-14,8.1,18.9915,47.3,69.125,1271.9,465.8,19430.0,0.8,0.0,,418.1,11751.29,51.307,68.999,2.14170672,0.1,Pacific,3.384097930094999
46488,Sedimentary,Conventional Hydrocarbon,Terminal,27376.0,33.76226,-118.22864,California,Los Angeles,Los Angeles Basin,Pacific Coast,Up 142-r,4037047870000.0,3046.0,3443.0,,1955-03-07,7.1,32.218,31.5,41.22,1409.1,520.6,15317.0,2.8,0.0,,257.9,9379.88,9.5,25.939,3.99914672,0.0,Pacific,3.051210237205421
46489,Sedimentary,Conventional Hydrocarbon,Ranger,32175.0,33.7728,-118.2472,California,Los Angeles,Los Angeles Basin,Pacific Coast,U.p. 623a,4037046480000.0,2558.0,3004.0,Ordovician,1972-05-18,7.87,19.101000000000003,49.0,38.072,865.0,235.0,18720.0,97.0,0.0,,380.0,11505.35,65.0,72.45779999999999,2.1190167200000003,0.1,Pacific,3.3490513446703805
46490,Sedimentary,Conventional Hydrocarbon,Tar,31073.0,33.76265,-118.24664,California,Los Angeles,Los Angeles Basin,Pacific Coast,U.p. 632a,4037046560000.0,2606.0,2784.0,,1954-08-20,7.8,18.836,33.0,61.64,519.7,376.8,18402.0,0.3,0.0,,353.6,11032.74,52.582,56.418000000000006,2.14170672,0.1,Pacific,3.3567240784680346
46491,Sedimentary,Conventional Hydrocarbon,Miocene,31070.0,33.7698,-118.24201,California,Los Angeles,Los Angeles Basin,Pacific Coast,U.p. 756-a,4037009430000.0,3915.0,4425.0,Neogene,1972-05-19,6.97,14.937,85.0,44.162,730.0,645.0,18010.0,3.0,0.0,,235.0,10744.95,1307.0210000000002,54.194,0.95891,0.0,Pacific,3.1960791395373476
46492,Sedimentary,Conventional Hydrocarbon,Terminal,33273.0,33.76246,-118.23212,California,Los Angeles,Los Angeles Basin,Pacific Coast,U.p. E-106; 3u25c,4037041070000.0,2944.0,3503.0,,1953-11-18,7.3,30.190999999999995,32.5,71.39500000000001,1120.0,691.9,19218.0,1.0,0.0,,322.4,11472.49,1.0,52.919,2.14170672,0.0,Pacific,3.334589770216486
46493,Sedimentary,Conventional Hydrocarbon,Tar,32463.0,33.767,-118.226,California,Los Angeles,Los Angeles Basin,Pacific Coast,U.p. Eu-25,4037041280000.0,2611.8,,,1955-05-11,7.6,11.585,45.0,66.375,893.7,568.6,19146.8,1.0,0.0,,599.0,10967.06,986.5580000000002,75.01660000000001,1.8525000000000005,0.1,Pacific,3.3532378285413653
46494,Sedimentary,Conventional Hydrocarbon,Ranger,38886.0,33.76317,-118.22696,California,Los Angeles,Los Angeles Basin,Pacific Coast,U.p. E-56-r,4037041010000.0,2448.0,3063.0,Ordovician,1953-10-15,7.1,82.346,22.8,155.525,3071.4,575.4,21132.0,85.0,0.0,,532.5,13210.24,14.0,57.05899999999999,1.10771344,0.1,Pacific,3.989309928806376
46495,Sedimentary,Conventional Hydrocarbon,Unknown,30680.0,33.7729,-118.24579,California,Los Angeles,Los Angeles Basin,Pacific Coast,Union Pacific 740a,4037047690000.0,3465.0,3795.0,,1972-05-19,7.67,14.765199999999998,19.0,48.949,390.0,635.0,18225.0,2.0,0.0,,280.0,10702.09,674.5279999999999,31.754,4.313000000000001,0.0,Pacific,3.2026097274496523
46496,Sedimentary,Conventional Hydrocarbon,Tar,31235.0,33.77041,-118.24727,California,Los Angeles,Los Angeles Basin,Pacific Coast,Union Pacific 563a,4037046280000.0,2359.0,2584.0,,1972-05-16,7.11,17.5115,60.0,24.265,635.0,410.0,18365.0,34.0,0.0,,400.0,10920.28,893.4119999999999,76.477,0.3577,0.1,Pacific,3.3762486930444617
46497,Sedimentary,Conventional Hydrocarbon,Tar,30785.0,33.76948,-118.24582,California,Los Angeles,Los Angeles Basin,Pacific Coast,Union Pacific 268-ra,4037044130000.0,2332.0,2558.0,,1972-05-19,7.33,23.8115,47.0,63.540000000000006,605.0,395.0,18155.0,7.0,0.0,,410.0,10771.13,257.453,59.61500000000001,0.3157,0.1,Pacific,3.429051046749234
46498,Sedimentary,Conventional Hydrocarbon,Tar,30160.0,33.76034,-118.2393,California,Los Angeles,Los Angeles Basin,Pacific Coast,Union Pacific 270-rb; 2at65,4037044150000.0,2568.0,2750.0,,1952-10-17,7.15,21.794,57.1,40.178,548.4,417.0,17877.0,12.723,0.0,,521.7,10342.48,213.83,72.91600000000001,0.4102,0.1,Pacific,3.4157238939963737
46499,Sedimentary,Conventional Hydrocarbon,Ford,26440.0,33.77167,-118.24349,California,Los Angeles,Los Angeles Basin,Pacific Coast,Union Pacific 175a,4037043610000.0,4740.0,5404.0,,1972-05-18,6.82,30.598000000000003,55.0,179.307,470.0,275.0,15245.0,25.0,0.0,,95.0,9547.74,662.511,62.716,0.59561,0.0,Pacific,2.3531579534478406
46500,Sedimentary,Conventional Hydrocarbon,Ranger,31502.0,33.75064,-118.21025,California,Los Angeles,Los Angeles Basin,Pacific Coast,Z 256,4237031020000.0,2902.0,3485.0,Ordovician,1962-06-28,6.8,9.2804,91.0,40.231,1049.0,596.0,18154.0,54.0,0.0,,312.0,10863.37,3278.8720000000003,16.428199999999997,1.81211,0.0,Pacific,3.3187208261493093
46501,Sedimentary,Conventional Hydrocarbon,Unknown,29230.0,33.75581,-118.20547,California,Los Angeles,Los Angeles Basin,Pacific Coast,Z 75,4237022350000.0,3557.0,3601.0,,1952-05-19,7.5,15.223400000000002,33.0,40.082,323.9,662.0,17357.0,24.326,0.0,,151.4,10324.67,319.035,3.0,2.7431,0.0,Pacific,2.338518772977989
46502,Sedimentary,Conventional Hydrocarbon,Ranger,28245.0,33.75689,-118.20548,California,Los Angeles,Los Angeles Basin,Pacific Coast,Z 20,4237029450000.0,2578.0,3019.0,Ordovician,1957-06-28,8.1,28.2,33.3,38.062,786.9,411.0,16523.0,2.2,0.0,,307.8,9988.09,27.4,26.477,2.1381467200000004,0.1,Pacific,3.3840412932418804
46503,Sedimentary,Conventional Hydrocarbon,Ranger,31014.0,33.75941,-118.20982,California,Los Angeles,Los Angeles Basin,Pacific Coast,Y 101,4237028840000.0,2362.0,2847.0,Ordovician,1957-06-28,7.9,17.325,87.82399999999998,46.195,1564.7,383.6,17587.0,4.4,0.0,,312.0,10981.16,3918.339,30.0364,1.04391,0.1,Pacific,3.4091028157576577
46504,Sedimentary,Conventional Hydrocarbon,Ranger,31710.0,33.76051,-118.21644,California,Los Angeles,Los Angeles Basin,Pacific Coast,Y 95,4237028100000.0,2264.0,2701.0,Ordovician,1974-04-30,6.95,19.335,51.0,56.819,1600.0,350.0,18010.0,4.4,0.0,,630.0,10731.33,115.0,66.08900000000001,0.40566672,0.0,Pacific,3.405401092324392
46505,Sedimentary,Conventional Hydrocarbon,Ranger,30346.0,33.75693,-118.21284,California,Los Angeles,Los Angeles Basin,Pacific Coast,Y 115,4237028970000.0,2470.7,,Ordovician,1958-05-28,7.1,20.688,57.0,81.088,430.1,445.3,18012.0,2.8,0.0,,341.1,10687.94,586.1949999999999,75.894,0.2227,0.1,Pacific,3.8891029395908725
46506,Sedimentary,Conventional Hydrocarbon,Ranger,32375.0,33.75259,-118.20712,California,Los Angeles,Los Angeles Basin,Pacific Coast,Z 94,4237030220000.0,2692.0,3196.0,Ordovician,1974-04-30,6.84,30.515000000000004,87.0,63.276,1875.0,335.0,18155.0,7.4,0.0,,560.0,11047.61,65.0,102.044,2.9491567200000004,0.0,Pacific,3.3751933607604876
46507,Sedimentary,Conventional Hydrocarbon,Ranger,36543.0,33.75893,-118.20449,California,Los Angeles,Los Angeles Basin,Pacific Coast,J 3,4237022400000.0,2378.0,2730.0,Ordovician,1951-06-08,7.2,24.993,111.235,65.157,1314.0,952.0,21128.0,6.3020000000000005,0.0,,247.0,12638.53,3874.38,32.058,2.1019100000000006,0.0,Pacific,3.4187981259752087
46508,Sedimentary,Conventional Hydrocarbon,Ranger,33928.0,33.75965,-118.22551,California,Los Angeles,Los Angeles Basin,Pacific Coast,W 18,4237024740000.0,2637.0,2880.0,Ordovician,1944-12-13,,39.519,53.685,188.756,1274.2,601.3,19742.0,9.309,0.0,,353.0,11929.0,4.9,85.61800000000001,0.29083344,0.0,Pacific,4.17486994802341
46509,Sedimentary,Conventional Hydrocarbon,Ford,20627.0,33.76133,-118.22798,California,Los Angeles,Los Angeles Basin,Pacific Coast,W 79,4237025320000.0,4620.0,5935.0,,,7.2,37.582,10.52,86.526,1360.0,243.5,10920.0,13.987,0.0,,49.9,7338.59,250.0,13.641,0.7870999999999999,0.0,Pacific,1.2188873189573286
46510,Sedimentary,Conventional Hydrocarbon,Ford,34618.0,33.75653,-118.2242,California,Los Angeles,Los Angeles Basin,Pacific Coast,W 37,4237024920000.0,3560.0,4001.0,,1951-06-08,11.5,24.5862,45.246,44.372,189.835,1041.0,20488.0,138.33800000000002,0.0,,27.5,12163.56,80.6,93.4713,15.0675,0.3,Pacific,1.6949915185711566
46511,Sedimentary,Conventional Hydrocarbon,Terminal,31457.0,33.75885,-118.22187,California,Los Angeles,Los Angeles Basin,Pacific Coast,Fw 181,4237021080000.0,4030.0,4213.0,,1958-07-02,7.8,14.1955,67.0,44.572,637.5,589.1,18438.0,4.1,0.0,,270.4,10992.67,4054.255,28.7218,0.8819999999999999,0.0,Pacific,3.3309116708555844
46513,Sedimentary,Conventional Hydrocarbon,Ford,27076.0,33.75482,-118.19953,California,Los Angeles,Los Angeles Basin,Pacific Coast,Fj 60,4237023140000.0,5023.0,5939.0,,1953-07-31,7.3,47.534000000000006,25.786,84.0,1778.7,400.0,14886.0,13.260000000000002,0.0,,99.2,9715.3,84.2,31.2637,0.16612,0.0,Pacific,2.9073566736672993
46514,Sedimentary,Conventional Hydrocarbon,Ford,30840.0,33.75787,-118.2035,California,Los Angeles,Los Angeles Basin,Pacific Coast,J 66,4237023200000.0,4884.0,5891.0,,1952-09-08,7.72,47.032,43.6,65.062,1452.0,474.0,17374.0,7.994,0.0,,144.2,10979.55,386.011,79.271,0.73201,0.0,Pacific,2.3515318510902583
46515,Sedimentary,Conventional Hydrocarbon,Terminal,30406.0,33.75887,-118.20498,California,Los Angeles,Los Angeles Basin,Pacific Coast,J 67,4237023210000.0,3548.0,4178.0,,1958-05-17,7.9,20.59,26.0,53.69,646.6,554.9,17941.0,1.3,0.0,,407.7,10467.28,7.5,26.522,3.79134672,0.0,Pacific,3.306453226592436
46516,Sedimentary,Conventional Hydrocarbon,Terminal,31051.0,33.75628,-118.20449,California,Los Angeles,Los Angeles Basin,Pacific Coast,Fj 53,4237023070000.0,2994.0,3172.0,,1954-08-18,7.7,27.211,38.8,78.436,469.7,780.9,18367.0,0.05,0.0,,191.4,10816.89,13.819,79.196,2.1709634400000004,0.0,Pacific,2.761303313663739
46517,Sedimentary,Conventional Hydrocarbon,Terminal,28587.0,33.75771,-118.204,California,Los Angeles,Los Angeles Basin,Pacific Coast,J No. 15,4237022500000.0,3595.0,3945.0,,1958-05-17,7.9,21.926,47.5,47.425,661.9,520.6,16807.0,2.3,0.0,,374.4,9832.6,8.5,61.224,3.79134672,0.0,Pacific,3.284815027499633
46518,Sedimentary,Conventional Hydrocarbon,Tar,30682.0,33.75952,-118.23244,California,Los Angeles,Los Angeles Basin,Pacific Coast,W 51,4237025060000.0,2742.0,3306.0,,1959-08-17,7.7,27.395,53.5,194.872,631.4,424.7,18150.0,2.7,0.0,,478.4,10616.34,0.7,74.946,0.30996344,0.1,Pacific,4.203994741426899
46519,Sedimentary,Conventional Hydrocarbon,Ranger,30836.0,33.75832,-118.23663,California,Los Angeles,Los Angeles Basin,Pacific Coast,Fw 273,4237025670000.0,4478.0,4766.0,Ordovician,1956-05-17,7.55,31.51,151.5,92.976,713.7,356.2,18012.0,9.9,0.0,,357.8,10824.05,1.7,91.033,0.13902,0.0,Pacific,3.9112600273752887
46520,Sedimentary,Conventional Hydrocarbon,Ford,76300.0,33.75254,-118.16049,OffShore-California,Los Angeles,Los Angeles Basin,Pacific Coast,8 B-625 Rp,4237205140000.0,5573.0,6935.0,,1968-06-18,7.2,113.08899999999998,18.0,98.51,3000.0,580.0,12100.0,0.3,0.0,,65.0,8206.54,45.0,37.0643,0.0504899999999999,0.0,Pacific,1.6368285360398052
46521,Sedimentary,Conventional Hydrocarbon,Unknown,16780.0,33.75889,-118.18097,California,Los Angeles,Los Angeles Basin,Pacific Coast,7 A - 403 237 P,4237213180000.0,7475.0,9723.0,,,,77.59199999999998,4.265,55.456,2300.0,440.0,7445.0,17.239,0.0,,50.0,5216.28,255.0,26.2401,0.3621,0.0,Pacific,0.8417592908936389
46522,Sedimentary,Conventional Hydrocarbon,Unknown,27305.0,33.76006,-118.18171,California,Los Angeles,Los Angeles Basin,Pacific Coast,7 A869,4037200530000.0,5820.0,6645.0,,,7.26,20.734,43.0,41.549,1005.0,570.0,15670.0,13.6,0.0,,235.0,9431.99,1355.543,49.9756,0.1639199999999999,0.0,Pacific,3.008259646479132
46523,Sedimentary,Conventional Hydrocarbon,Unknown,32030.0,33.75838,-118.20309,California,Los Angeles,Los Angeles Basin,Pacific Coast,Parcel A 73,4237013050000.0,4179.0,4824.0,,1953-11-27,8.0,24.31,173.8,86.104,716.8,508.6,18721.0,15.362,0.0,,254.8,11295.51,17.5,107.221,1.0503967200000002,0.0,Pacific,3.614077635783819
46524,Sedimentary,Conventional Hydrocarbon,Ranger,34002.0,33.75978,-118.20443,California,Los Angeles,Los Angeles Basin,Pacific Coast,A 47,4237004380000.0,2809.0,3306.0,Ordovician,1960-05-23,7.9,18.08,74.5,83.119,701.5,520.6,20140.0,0.8,0.0,,482.6,11806.57,323.044,72.48200000000001,0.2227,0.1,Pacific,3.9413624343227704
46525,Sedimentary,Conventional Hydrocarbon,Ranger,33463.0,33.76017,-118.20547,California,Los Angeles,Los Angeles Basin,Pacific Coast,J 2,4237022390000.0,2449.0,2833.0,Ordovician,1952-05-14,6.75,19.517,50.0,61.405,892.8,565.0,19347.0,3.5420000000000003,0.0,,303.7,11650.94,2560.619,3.6,0.3732,0.0,Pacific,3.7359996936677646
46526,Sedimentary,Conventional Hydrocarbon,Ranger,33837.0,33.75716,-118.20301,California,Los Angeles,Los Angeles Basin,Pacific Coast,L.b.o.d. J 19,4237021370000.0,2585.0,3015.0,Ordovician,1952-05-19,7.1,21.25,105.0,36.856750000000005,268.8,516.0,18942.0,18.412,0.0,,522.9,10790.76,3119.606,7.0,1.5617,0.1,Pacific,3.4362478618849313
46527,Sedimentary,Conventional Hydrocarbon,Ford,11810.0,33.759,-118.20449,California,Los Angeles,Los Angeles Basin,Pacific Coast,L.b.o.d. J 50,4237023040000.0,7297.0,7379.0,,1952-03-04,7.2,26.871,1.57972,26.962,888.2,295.0,5806.0,7.7946,0.0,,238.2,3621.01,649.5,14.2577,0.5221899999999999,0.0,Pacific,3.8151977980694296
46528,Sedimentary,Conventional Hydrocarbon,Unknown,27570.0,33.73973,-118.13996,OffShore-California,,Los Angeles Basin,Pacific Coast,16 C - 609 237,4237208020000.0,9182.0,10220.0,,,,80.39099999999999,7.481800000000002,125.468,2245.0,960.0,13830.0,12.919999999999998,0.0,,75.0,8606.04,80.0,50.3863,0.2275999999999999,0.0,Pacific,2.4248961494819885
46529,Sedimentary,Conventional Hydrocarbon,Ford,29850.0,33.73971,-118.13996,OffShore-California,Los Angeles,Los Angeles Basin,Pacific Coast,16 C-608,4237202630000.0,5596.0,7410.0,,1971-04-15,7.75,43.162,40.0,70.20599999999999,1700.0,910.0,15955.0,0.37,0.0,,95.0,9753.47,15.0,72.70500000000001,0.2654999999999999,0.0,Pacific,2.635135311305574
46531,Sedimentary,Conventional Hydrocarbon,Unknown,29600.0,33.73898,-118.13887,OffShore-California,,Los Angeles Basin,Pacific Coast,16 C - 403 Up-fp,4237210700000.0,5728.0,6697.0,,,6.82,40.778000000000006,28.0,101.15,1353.0,975.0,16170.0,9.5,0.0,,100.0,9687.47,25.0,39.91199999999999,0.2110199999999999,0.0,Pacific,2.838778348677874
46532,Sedimentary,Conventional Hydrocarbon,Ford,29990.0,33.73919,-118.13857,OffShore-California,Los Angeles,Los Angeles Basin,Pacific Coast,16 C-323,4237206530000.0,7050.0,7580.0,,1970-02-26,7.17,29.014,40.0,125.7,805.0,425.0,17300.0,9.5,0.0,,135.0,10767.68,5.0,44.966,0.06837,0.0,Pacific,2.7611215743396462
46533,Sedimentary,Conventional Hydrocarbon,Ford,30500.0,33.74007,-118.13804,OffShore-California,Los Angeles,Los Angeles Basin,Pacific Coast,16 C-201,4237202910000.0,6135.0,7095.0,,1970-03-20,7.8,44.767,45.0,80.106,1330.0,665.0,16805.0,1.03,0.0,,100.0,10437.13,15.0,74.5,0.54459,0.0,Pacific,2.4867321368778783
46534,Sedimentary,Conventional Hydrocarbon,Ranger,32020.0,33.74029,-118.1381,OffShore-California,Los Angeles,Los Angeles Basin,Pacific Coast,C-127 Island Chaffee,4237201670000.0,2659.0,3261.0,Ordovician,1973-12-25,7.09,18.713,120.0,66.405,1060.0,535.0,18510.0,5.4,0.0,,455.0,10902.09,3195.7870000000003,38.5218,1.03191,0.1,Pacific,3.562219573253941
46535,Sedimentary,Conventional Hydrocarbon,Unknown,31462.0,33.7447,-118.1903,California,Los Angeles,Los Angeles Basin,Pacific Coast,13 J - 417 R1,4237008900000.0,3576.0,4250.0,,,7.4,21.835,47.89999999999999,68.78299999999999,964.0,617.0,18300.0,0.9,0.0,,366.0,10839.06,12.0,80.71900000000001,3.80160672,0.0,Pacific,3.2490192973305057
46536,Sedimentary,Conventional Hydrocarbon,Unknown,30535.0,33.74236,-118.19036,California,Los Angeles,Los Angeles Basin,Pacific Coast,13 J-558,4237213320000.0,4828.0,5423.0,,1974-05-29,7.45,19.015,61.0,69.244,275.0,420.0,18010.0,1.5,0.0,,430.0,10584.32,220.0,67.89700000000002,1.61052,0.1,Pacific,3.245397913663031
46537,Sedimentary,Conventional Hydrocarbon,Unknown,30582.0,33.74441,-118.19055,California,Los Angeles,Los Angeles Basin,Pacific Coast,13 J-443,4237010360000.0,3704.0,4505.0,,1965-11-15,7.4,11.24,7.4,40.202,738.0,384.0,17870.0,0.6,0.0,,266.0,10925.68,849.132,40.123000000000005,1.2772,0.0,Pacific,3.6743417464824475
46538,Sedimentary,Conventional Hydrocarbon,Ranger,30140.0,33.75191,-118.19487,California,Los Angeles,Los Angeles Basin,Pacific Coast,12 J-181,4237003440000.0,3094.0,3709.0,Ordovician,1973-11-09,7.58,23.520000000000003,65.0,82.556,1355.0,495.0,17265.0,0.8,0.0,,545.0,10101.38,20.0,92.364,0.32041344,0.0,Pacific,3.7112238121281
46539,Sedimentary,Conventional Hydrocarbon,Unknown,30570.0,33.7523,-118.19622,California,Los Angeles,Los Angeles Basin,Pacific Coast,12 J-141,4237006180000.0,4289.0,4985.0,,1966-04-25,7.8,31.229,18.0,63.55,293.0,617.0,18230.0,7.0,0.0,,245.0,10763.93,712.789,40.388,1.41351,0.0,Pacific,3.284802425478055
46540,Sedimentary,Conventional Hydrocarbon,Unknown,30719.0,33.75246,-118.19641,California,Los Angeles,Los Angeles Basin,Pacific Coast,12 J-129,4237010010000.0,3587.0,3813.0,,1966-04-25,7.7,20.851,49.123000000000005,65.815,878.0,486.0,17940.0,1.0,0.0,,499.0,10483.09,12.0,63.288,3.80160672,0.1,Pacific,3.369503959473331
46541,Sedimentary,Conventional Hydrocarbon,Ranger,21727.0,33.75203,-118.19556,California,Los Angeles,Los Angeles Basin,Pacific Coast,12 J-174,4237010120000.0,3458.0,4143.0,Ordovician,1966-04-26,8.0,13.495,26.576,20.172,1250.0,288.0,12200.0,1.3,0.0,,304.0,7493.55,531.563,18.18,2.52621,0.1,Pacific,2.7406042742322385
46542,Sedimentary,Conventional Hydrocarbon,Unknown,30457.0,33.74939,-118.19279,California,Los Angeles,Los Angeles Basin,Pacific Coast,12 J-320,4237008820000.0,3272.0,3608.0,,1966-04-26,7.8,16.648,35.4209,54.135000000000005,440.0,555.0,18010.0,3.6,0.0,,395.0,10476.11,535.292,36.3654,0.3267,0.1,Pacific,3.4358078789834052
46543,Sedimentary,Conventional Hydrocarbon,Unknown,32351.0,33.75224,-118.19615,California,Los Angeles,Los Angeles Basin,Pacific Coast,12 J-146,4237010070000.0,3353.0,3982.0,,1966-04-25,7.8,10.74,43.0246,64.14099999999999,939.0,295.0,19010.0,0.6,0.0,,724.0,10987.6,889.006,91.0168,3.20321,0.1,Pacific,3.3532378285413653
46544,Sedimentary,Conventional Hydrocarbon,Unknown,26375.0,33.75229,-118.19586,California,Los Angeles,Los Angeles Basin,Pacific Coast,12 J - 154 Rp,4237010090000.0,3731.0,4455.0,,,6.6,47.03157,48.0,22.959,1500.0,1200.0,14960.0,48.0,0.0,,499.0,7941.21,15.0,42.825,2.19738672,0.0,Pacific,3.001251327101649
46545,Sedimentary,Conventional Hydrocarbon,Unknown,20032.0,33.75239,-118.19597,California,Los Angeles,Los Angeles Basin,Pacific Coast,12 J - 136 - R1,4237010030000.0,2885.0,3255.0,,,7.4,16.26,15.1362,92.52,1775.0,343.0,11060.0,0.5,0.0,,998.0,5621.86,115.0,19.1587,0.60896672,0.0,Pacific,3.085711176316094
46546,Sedimentary,Conventional Hydrocarbon,Ranger,26643.0,33.75226,-118.19583,California,Los Angeles,Los Angeles Basin,Pacific Coast,12 J-156,4237010100000.0,3498.0,4274.0,Ordovician,1966-01-17,7.6,18.81,18.0,51.85,1769.0,384.0,14820.0,5.1,0.0,,412.0,9064.13,5.0,24.011,3.8445967200000006,0.1,Pacific,2.932978967929882
46547,Sedimentary,Conventional Hydrocarbon,Ranger,30070.0,33.75219,-118.15876,OffShore-California,Los Angeles,Los Angeles Basin,Pacific Coast,8 B 403,4237203970000.0,3698.0,4690.0,Ordovician,1968-05-12,7.1,25.092,40.0,49.869,420.0,950.0,17845.0,3.0,0.0,,400.0,9864.71,10.0,56.16,2.19345672,0.0,Pacific,3.3661002732338585
46548,Sedimentary,Conventional Hydrocarbon,Unknown,29300.0,33.73987,-118.1399,OffShore-California,,Los Angeles Basin,Pacific Coast,16 C - 618 Up - Fp,4237205160000.0,5583.0,7455.0,,,7.06,46.8747,35.0,98.99,2075.0,1030.0,15390.0,5.13,0.0,,105.0,9372.72,15.0,125.15,0.2373,0.0,Pacific,2.769402285463241
46549,Sedimentary,Conventional Hydrocarbon,Ford,28290.0,33.73992,-118.13989,OffShore-California,Los Angeles,Los Angeles Basin,Pacific Coast,16 C-621,4237202720000.0,4968.0,6465.0,,1969-05-16,6.85,42.733700000000006,25.0,97.524,2000.0,975.0,15460.0,6.85,0.0,,125.0,9418.69,15.0,51.575,0.3287,0.0,Pacific,2.3462666048018823
46550,Sedimentary,Conventional Hydrocarbon,Ford,36500.0,33.74,-118.13986,OffShore-California,Los Angeles,Los Angeles Basin,Pacific Coast,16 C-626,4237203800000.0,5294.0,6923.0,,1969-04-29,6.69,20.9085,10.0,58.06028799999999,990.0,2470.0,20800.0,46.0,0.0,,290.0,10515.42,105.0,81.668,0.25448,0.0,Pacific,3.5790662336190717
46551,Sedimentary,Conventional Hydrocarbon,Ford,29200.0,33.74183,-118.16181,OffShore-California,Los Angeles,Los Angeles Basin,Pacific Coast,17 D-104,4237202770000.0,5923.0,6980.0,,1969-02-26,7.14,43.325,40.0,76.506,1220.0,855.0,15850.0,3.88,0.0,,100.0,9556.79,10.0,68.001,0.18272,0.0,Pacific,2.5624987113216013
46552,Sedimentary,Conventional Hydrocarbon,Ford,30300.0,33.74141,-118.16176,OffShore-California,Los Angeles,Los Angeles Basin,Pacific Coast,17 D-206,4237202540000.0,4583.0,6580.0,,1970-02-26,6.89,77.683,35.0,104.05,2140.0,1320.0,15745.0,2.63,0.0,,110.0,9283.4,15.0,38.069,0.2554499999999999,0.0,Pacific,2.955493786410254
46553,Sedimentary,Conventional Hydrocarbon,Ranger,30800.0,33.74078,-118.16337,OffShore-California,Los Angeles,Los Angeles Basin,Pacific Coast,17 D-517,4237200350000.0,3528.0,4290.0,Ordovician,1968-05-28,8.0,18.944000000000003,40.0,40.104,425.0,590.0,18000.0,2.24,0.0,,40.0,11069.99,5.0,54.79200000000001,5.98435672,0.0,Pacific,1.5656612210201117
46554,Sedimentary,Conventional Hydrocarbon,Ranger,36300.0,33.74195,-118.16292,OffShore-California,Los Angeles,Los Angeles Basin,Pacific Coast,17 D-613,4237202820000.0,2565.0,3082.0,Ordovician,1968-05-28,8.2,22.661,40.0,53.335,560.0,690.0,21300.0,0.4,0.0,,210.0,12820.71,5.0,62.028,3.99914672,0.0,Pacific,2.466656956601905
46555,Sedimentary,Conventional Hydrocarbon,Unknown,28300.0,33.74163,-118.16171,OffShore-California,Los Angeles,Los Angeles Basin,Pacific Coast,17 D - 118 237 P,4237204210000.0,7770.0,9057.0,,,8.08,21.040000000000003,55.0,98.68,1045.0,420.0,16310.0,0.34,0.0,,445.0,9637.02,929.852,92.731,0.07662,0.0,Pacific,3.7198302309918208
46556,Sedimentary,Conventional Hydrocarbon,Unknown,12250.0,33.74188,-118.16301,OffShore-California,,Los Angeles Basin,Pacific Coast,17 D - 605 - 237p,4237200370000.0,8697.0,9631.0,,,7.99,124.4,6.0,79.73600000000002,3940.0,30.0,3190.0,2.75,0.0,,20.0,3506.28,55.0,84.691,2.1791,0.0,Pacific,1.7472053194331565
46557,Sedimentary,Conventional Hydrocarbon,Ford,38250.0,33.74186,-118.16187,OffShore-California,Los Angeles,Los Angeles Basin,Pacific Coast,17 D-102,4237203710000.0,5075.0,6430.0,,1969-07-07,6.66,34.452,25.0,161.252,1090.0,3560.0,22350.0,5.5,0.0,,625.0,9631.33,30.0,117.402,0.14048,0.0,Pacific,4.262026368366024
46558,Sedimentary,Conventional Hydrocarbon,Unknown,30000.0,33.7404,-118.16224,OffShore-California,Los Angeles,Los Angeles Basin,Pacific Coast,17 D-412,4237200320000.0,8720.0,10365.0,,1968-10-11,7.9,42.807,70.0,76.85,1340.0,440.0,16200.0,13.905,0.0,,85.0,10325.19,10.0,116.196,0.06992,0.0,Pacific,3.58977540572171
46559,Sedimentary,Conventional Hydrocarbon,Unknown,14121.0,33.99159,-118.36456,California,Los Angeles,Los Angeles Basin,Pacific Coast,L.a.i. 213,4037081800000.0,990.0,1936.0,,1964-02-05,8.5,20.766,31.2952,22.256,1850.0,62.0,7100.0,0.5,0.0,,470.0,4424.5,2082.216,6.025,0.4707999999999999,0.8,Pacific,6.177829551619596
46560,Sedimentary,Conventional Hydrocarbon,Unknown,31030.0,34.00368,-118.36986,California,Los Angeles,Los Angeles Basin,Pacific Coast,L.a. Inv. 1-139,4037080430000.0,1350.0,3549.0,,1965-01-11,7.3,17.265,76.917,61.02175,1270.0,320.0,17870.0,0.94,0.0,,410.0,10926.16,3324.575,32.077,0.4279099999999999,0.0,Pacific,12.676729759590813
46562,Sedimentary,Conventional Hydrocarbon,Tar,33219.0,33.76687,-118.24492,California,Los Angeles,Los Angeles Basin,Pacific Coast,Isco A-12,4037031750000.0,2480.0,2679.0,,1952-11-19,7.43,22.53,41.18300000000001,33.79,633.86,450.56,18944.0,4.194,143.36,,447.49,11126.76,46.08,87.04,2.8952,0.3,Pacific,1.5112954897452995
46563,Sedimentary,Conventional Hydrocarbon,Tar,32883.0,33.76635,-118.24767,California,Los Angeles,Los Angeles Basin,Pacific Coast,Terminal 10,4037035580000.0,2538.0,2644.0,,1952-11-25,7.65,30.69,42.224,29.67,498.2,401.02,19743.9,13.1,102.3,,410.22,11722.7,57.29,92.07,2.05732,0.2,Pacific,1.5112963246702542
46564,Sedimentary,Conventional Hydrocarbon,Tar,32822.0,33.76614,-118.24637,California,Los Angeles,Los Angeles Basin,Pacific Coast,Terminal 12,4037035600000.0,2505.0,2600.0,,1952-11-01,7.75,24.55,39.98800000000001,18.41,531.96,405.11,19437.0,11.336,112.53,,425.57,11512.22,46.04,85.93,2.89925,0.2,Pacific,1.5557651573475046
46565,Sedimentary,Conventional Hydrocarbon,Tar,32672.0,33.76666,-118.24458,California,Los Angeles,Los Angeles Basin,Pacific Coast,Terminal 13,4037035610000.0,2491.0,2581.0,,1953-12-02,7.9,16.37,83.759,1.02,1021.98,323.27,17595.6,11.357,153.45,,447.05,10518.98,34.78,76.73,2.89925,0.2,Pacific,1.424327030335769
46566,Sedimentary,Conventional Hydrocarbon,Terminal,27512.0,33.77412,-118.21364,California,Los Angeles,Los Angeles Basin,Pacific Coast,Proctor & Gamble No. 4,4237012960000.0,2893.0,4310.0,,1940-07-12,,29.009000000000004,83.856,88.436,560.4,423.8,16216.0,6.621,0.0,,243.3,9662.0,1.0,70.96900000000001,2.99753344,-0.6,Pacific,3.5912281467188794
46567,Sedimentary,Conventional Hydrocarbon,Miocene,16379.0,33.97089,-118.0041,California,Los Angeles,Los Angeles Basin,Pacific Coast,Murphy - Whittier 247,4037004790000.0,5059.0,6399.0,Neogene,1964-06-05,7.6,15.957999999999998,13.095999999999998,45.37,186.0,178.0,9575.0,0.1,0.0,,83.0,5933.08,43.0,12.949000000000002,0.4591200000000001,0.0,Pacific,1.6989837331097202
46568,Sedimentary,Conventional Hydrocarbon,Unknown,24893.0,33.9487,-118.06987,California,Los Angeles,Los Angeles Basin,Pacific Coast,Bell No. 21; W-203-c,4037000940000.0,4352.0,4430.0,,,6.7,81.92699999999999,15.5,40.440000000000005,2188.4,904.2,13226.0,187.5,0.0,,31.2,8307.35,27.0,35.188,19.840800019,0.0,Pacific,1.1855273399555468
46569,Sedimentary,Conventional Hydrocarbon,Buckbee,18114.0,33.94548,-118.06711,California,Los Angeles,Los Angeles Basin,Pacific Coast,Bell No. 59; 426e,4037090580000.0,7830.6,,,1956-06-08,8.1,20.654,6.6,150.81199999999998,959.2,161.0,10141.0,1.8,0.0,,93.6,6573.56,306.685,11.295,0.10457,0.0,Pacific,2.2353886356719808
46570,Sedimentary,Conventional Hydrocarbon,Ranger,34024.0,33.77607,-118.22047,California,Los Angeles,Los Angeles Basin,Pacific Coast,Richfield Pac. Dock 23; M617d,4037035810000.0,2738.0,3245.0,Ordovician,1940-04-29,,20.42,71.0,45.477,482.0,785.0,20474.0,19.32,0.0,,551.0,11543.0,128.738,69.45700000000002,0.4684567200000001,0.2,Pacific,3.328010488085031
46571,Sedimentary,Conventional Hydrocarbon,Terminal,22552.0,33.77537,-118.2222,California,Los Angeles,Los Angeles Basin,Pacific Coast,Richfield Pacific Dock 12; 73-w,4037035850000.0,2665.0,3687.0,,1940-03-24,,18.422,102.0,40.146,300.0,456.0,13390.0,12.423,0.0,,179.0,7940.0,3136.6420000000003,33.89,3.467,0.2,Pacific,2.308396048421072
46572,Sedimentary,Conventional Hydrocarbon,Unknown,26910.0,34.05555,-118.39023,California,Los Angeles,Los Angeles Basin,Pacific Coast,West Pico 28 Q,4037210060000.0,5722.0,6084.0,,,7.4,32.225,45.0,136.148,1460.0,690.0,14395.0,4.2,0.0,,215.0,8675.62,2543.1330000000003,40.2554,0.3653099999999999,0.0,Pacific,3.626794662820941
46573,Sedimentary,Conventional Hydrocarbon,Unknown,24400.0,34.05554,-118.39036,California,Los Angeles,Los Angeles Basin,Pacific Coast,West Pico 15,4037202520000.0,6611.0,7384.0,,,7.36,31.89099999999999,60.0,205.76000000000005,1080.0,225.0,13685.0,1.18,0.0,,140.0,8741.91,10.0,45.34199999999999,0.05916,0.0,Pacific,2.8497692763431344
46574,Sedimentary,Conventional Hydrocarbon,Unknown,25555.0,34.05554,-118.39046,California,Los Angeles,Los Angeles Basin,Pacific Coast,West Pico 4,4037009980000.0,6148.0,6583.0,,1967-06-23,7.3,102.49070000000002,29.359,98.464,4690.0,835.0,11135.0,0.1,0.0,,210.0,7866.92,500.0,85.061,0.5665000000000001,0.0,Pacific,2.5960933705839104
46575,Sedimentary,Conventional Hydrocarbon,Unknown,26100.0,34.0319,-118.27814,California,Los Angeles,Los Angeles Basin,Pacific Coast,St. James 20,4037201250000.0,3090.0,3866.0,,1967-10-13,7.3,14.092000000000002,21.72916,41.164,1610.0,1380.0,14100.0,0.2,0.0,,360.0,7520.34,80.0,30.5572,2.54519672,0.0,Pacific,2.783351629926051
46576,Sedimentary,Conventional Hydrocarbon,Unknown,51300.0,34.03189,-118.27812,California,Los Angeles,Los Angeles Basin,Pacific Coast,St. James 19,4037201650000.0,3692.0,3998.0,,1967-10-13,6.7,12.612000000000002,273.7452,500.96621743,1230.0,11100.0,31400.0,0.8,0.0,,1080.0,6050.17,85.0,1342.991,5.21581344,-0.1,Pacific,3.9478847883473205
46577,Sedimentary,Conventional Hydrocarbon,Unknown,47900.0,34.03187,-118.27808,California,Los Angeles,Los Angeles Basin,Pacific Coast,St. James 16,4037202030000.0,3095.0,3754.0,,1967-10-13,6.9,24.888,124.035,276.18288508,1230.0,8970.0,28900.0,0.5,0.0,,625.0,7747.69,105.0,512.8199999999999,2.38566016,-0.1,Pacific,3.9986548200371668
46578,Sedimentary,Conventional Hydrocarbon,Miocene,49900.0,34.03183,-118.27801,California,Los Angeles,Los Angeles Basin,Pacific Coast,St. James 11,4037051770000.0,3470.0,3973.0,Neogene,1967-10-13,6.9,21.542,22.488,303.288,1270.0,8120.0,30500.0,3.4,0.0,,1500.0,8114.96,80.0,133.3279,1.94475672,-0.1,Pacific,3.7857186116988455
46579,Sedimentary,Conventional Hydrocarbon,Unknown,41800.0,34.03177,-118.2779,California,Los Angeles,Los Angeles Basin,Pacific Coast,St. James 3,4037063330000.0,5012.0,5818.0,,1967-10-13,6.9,14.258300000000002,8.983999999999998,363.048,1120.0,7280.0,25300.0,0.4,0.0,,750.0,7073.2,90.0,120.333,2.46949,-0.1,Pacific,4.221319242545118
46581,Sedimentary,Conventional Hydrocarbon,Deep Zone,29956.0,33.72225,-118.12502,OffShore-California,Orange,Los Angeles Basin,Pacific Coast,State Prc 186.5 No. 13,4259002260000.0,8137.4,,,1961-11-06,5.7,57.374,31.822000000000003,116.074,2182.44,499.61,16448.0,11.31,0.0,,108.97,10701.48,5.14,93.442,0.1212399999999999,0.0,Pacific,2.7864058184377734
46582,Sedimentary,Conventional Hydrocarbon,Miocene,31178.0,33.71841,-118.11432,OffShore-California,Orange,Los Angeles Basin,Pacific Coast,State Surfside 3095 No. 432,4259002840000.0,6367.0,,Neogene,1966-09-22,7.7,23.024,6.0,146.867,586.0,671.0,18370.0,3.9,0.0,,291.0,10660.0,45.0,41.037,0.0616399999999999,-0.7,Pacific,4.433447411289153
46583,Sedimentary,Conventional Hydrocarbon,Miocene,27452.0,33.71846,-118.11454,OffShore-California,Orange,Los Angeles Basin,Pacific Coast,State Surfside 3095 No. 421,4259002830000.0,6909.0,6941.0,Neogene,,6.7,83.2997,11.0,104.49,2202.0,377.0,14680.0,2.1,0.0,,204.0,9430.0,103.0,119.088,0.15823,-0.7,Pacific,3.1862492545237133
46584,Sedimentary,Conventional Hydrocarbon,Miocene,30497.0,33.71869,-118.11361,OffShore-California,Orange,Los Angeles Basin,Pacific Coast,State 3095 No. 322,4259003020000.0,6714.0,6758.0,Neogene,,10.3,36.716,23.307,64.55,287.0,459.0,17090.0,4.3,0.0,,58.0,10750.0,750.0,32.45,1.27991,-0.7,Pacific,1.3616504506711165
46585,Sedimentary,Conventional Hydrocarbon,Miocene,28070.0,33.71878,-118.11432,OffShore-California,Orange,Los Angeles Basin,Pacific Coast,State 3095 No. 304,4259002970000.0,6300.0,6400.0,Neogene,1965-10-21,7.6,20.234,15.0,37.002,1702.0,370.0,15320.0,182.0,0.0,,154.0,9760.0,74.0,13.511,19.6075,-0.6,Pacific,1.99872423304047
46587,Sedimentary,Conventional Hydrocarbon,Vaqueros,17691.0,34.38894,-119.59601,OffShore-California,Santa Barbara,Ventura Basin,Pacific Coast,Shss 1824 No. 49,4283006300000.0,5069.2,,,,7.3,18.894170000000003,26.037,48.98799999999999,262.0,960.0,10350.0,0.1,0.0,,50.0,5608.69,5.0,56.6813,0.16738,-0.1,Pacific,0.8935276660712818
46588,Sedimentary,Conventional Hydrocarbon,Rincon,21803.0,34.38841,-119.89816,OffShore-California,Santa Barbara,Ventura Basin,Pacific Coast,State 3242 No. 1,4283039360000.0,8900.1,,,1972-12-01,7.0,50.0,7.65228,203.2,860.0,228.0,12450.0,27.0,0.0,,41.3,8076.0,30.0,20.2939,0.05804,0.0,Pacific,2.1565370240427386
46589,Sedimentary,Conventional Hydrocarbon,Sacate,18599.0,34.44564,-120.45853,California,Santa Barbara,Ventura Basin,Pacific Coast,State 2879 No. 10-6,4283038240000.0,5015.9,,,,,35.9,20.004,32.886,266.0,961.0,11759.4,35.0,0.0,,210.3,6680.3,949.0,35.533,2.1906,0.0,Pacific,2.876332121469789
46590,Sedimentary,Conventional Hydrocarbon,Deep Zone,30778.0,33.72207,-118.12557,OffShore-California,Orange,Los Angeles Basin,Pacific Coast,State Prc 186.5 No. 25,4259002380000.0,5763.75,,,1961-11-06,6.9,44.479,41.462,73.65599999999999,1343.27,637.42,17671.95,9.19,0.0,,114.41,11008.71,3.06,74.30199999999999,0.14601,0.0,Pacific,2.6193999730127713
46591,Sedimentary,Conventional Hydrocarbon,Shallow Zone,34004.0,33.72189,-118.12576,OffShore-California,Orange,Los Angeles Basin,Pacific Coast,State Prc 186.5 No. 106,4259002470000.0,3755.0,,,1961-11-06,7.4,14.816400000000002,35.927,47.825,1107.97,619.52,19865.6,32.46375,0.0,,474.11,11762.69,175.1,59.614,0.7821399999999998,0.0,Pacific,3.2712525562815253
46595,Sedimentary,Conventional Hydrocarbon,Sisquoc,14369.0,34.8622,-120.32685,California,Santa Barbara,Santa Maria Basin,Pacific Coast,United California #24,4083017170000.0,6793.9,,,1966-10-15,7.7,15.778,5.821000000000001,50.3,1586.0,180.0,7384.0,16.946,0.0,,67.0,5082.24,70.0,7.494999999999999,0.10446,0.0,Pacific,1.3341395550904198
46596,Sedimentary,Conventional Hydrocarbon,Miocene,29800.0,34.8395,-120.2669,California,Santa Barbara,Santa Maria Basin,Pacific Coast,Mcnee #4,4083003620000.0,3490.0,5170.0,Neogene,1972-02-29,7.8,82.237,44.18,79.67999999999999,4200.0,68.0,14200.0,429.331,0.0,,78.0,10800.0,480.0,49.739,10.17031,0.0,Pacific,2.5573245262696855
46597,Sedimentary,Conventional Hydrocarbon,Sisquoc,43079.0,34.8622,-120.32685,California,Santa Barbara,Santa Maria Basin,Pacific Coast,United California #24,4083017170000.0,2602.6,,,,4.1,15.648,119.22399999999998,136.839,568.211,734.0,16168.0,134.13100000000003,0.0,,1681.0,11496.0,13000.0,87.446,8.41,-3.7,Pacific,5.167913758050844
46598,Sedimentary,Conventional Hydrocarbon,Grubb,36200.0,34.31657,-119.3451,California,Ventura,Ventura Basin,Pacific Coast,Grubb 303,4111055140000.0,9315.0,9634.0,,1958-06-12,7.9,18.9071,223.7557,216.07175,73.0,391.0,17600.0,444.565,362.0,,1300.0,10000.0,2800.0,99.3034,271.4,1.3,Pacific,3.3291366559425675
46599,Sedimentary,Conventional Hydrocarbon,Miocene,18300.0,34.86191,-120.33369,California,Santa Barbara,Santa Maria Basin,Pacific Coast,Security Fees #12,4083202520000.0,5126.0,7112.0,Neogene,1973-07-01,8.1,18.869,10.0,48.67,1840.0,128.0,9570.0,12.113,0.0,,54.0,6650.0,327.776,12.488,0.7946099999999999,0.0,Pacific,0.7972794782450049
46600,Sedimentary,Conventional Hydrocarbon,Sisquoc,13800.0,34.8622,-120.32685,California,Santa Barbara,Santa Maria Basin,Pacific Coast,United California #24,4083017170000.0,6757.7,,,1965-10-15,7.3,15.55,4.891,96.424,1260.0,188.0,7310.0,20.125,0.0,,66.0,4900.0,48.0,13.273,0.0792799999999999,0.0,Pacific,1.8944074900614036
46601,Sedimentary,Conventional Hydrocarbon,Sisquoc,33673.0,34.86005,-120.31823,California,Santa Barbara,Santa Maria Basin,Pacific Coast,California #20,4083017360000.0,2925.0,,,,2.6,14.656,198.89668,130.152,1310.431,663.0,11913.0,7.694,0.0,,715.0,10382.0,12000.0,89.936,1.46231,-3.8,Pacific,5.265195313197536
46602,Sedimentary,Conventional Hydrocarbon,Miocene,12400.0,34.844,-120.32231,California,Santa Barbara,Santa Maria Basin,Pacific Coast,Bradley #2,4083003010000.0,7226.3,,Neogene,,8.0,16.852999999999998,3.001,14.091,1810.0,100.0,6030.0,27.516,0.0,,29.0,4420.0,156.07999999999998,5.4910000000000005,0.5605800000000001,0.0,Pacific,0.851257259162112
46603,Sedimentary,Conventional Hydrocarbon,Culver,23954.0,34.01018,-118.38766,California,Los Angeles,Los Angeles Basin,Pacific Coast,Mgm No. 1,4037074580000.0,8660.0,8808.0,,1960-04-08,7.36,75.3127,59.3481543,139.4,4060.0,291.0,10962.0,6.151,182.0,,130.0,8120.0,835.0409999999999,79.686,0.45431,1.0,Pacific,1.4513030192338883
46604,Sedimentary,Conventional Hydrocarbon,Pliocene,31300.0,33.76162,-118.11121,California,Los Angeles,Los Angeles Basin,Pacific Coast,Bixby A No. 28,4037070010000.0,4675.0,4690.0,Neogene,1961-01-20,7.12,12.202569999695,17.2376,59.583000000000006,292.0,580.0,18200.0,159.733,71.0,,251.0,10900.0,256.427,43.0282,18.071100076000004,0.7,Pacific,1.4596260876529972
46605,Sedimentary,Conventional Hydrocarbon,Lane McGrath,31000.0,33.76009,-118.11072,California,Los Angeles,Los Angeles Basin,Pacific Coast,Bixby A No 30,4037070030000.0,11598.0,,,1962-04-05,6.7,110.01399999999998,95.0,81.78,1460.0,928.0,17700.0,8.605,0.0,,98.0,10700.0,153.21200000000002,172.03,0.37231,-0.2,Pacific,3.4639359239762015
46606,Sedimentary,Conventional Hydrocarbon,McGrath,22000.0,33.76209,-118.1074,California,Los Angeles,Los Angeles Basin,Pacific Coast,Bixby No. 67,4037071390000.0,10754.4,,,1968-05-04,6.9,92.357,8.0,77.884,1430.0,480.0,12200.0,24.171,0.0,,39.0,7830.0,7.0,87.624,0.09391,0.0,Pacific,1.7897743043858658
46607,Sedimentary,Conventional Hydrocarbon,Wason,29400.0,33.75879,-118.11082,California,Los Angeles,Los Angeles Basin,Pacific Coast,Bixby A No. 5,4037069780000.0,5483.0,5580.0,,1962-04-05,6.9,35.7665,140.0,63.5,1140.0,592.0,17000.0,6.531000000000001,0.0,,146.0,10400.0,2661.7,69.125,0.3111,-0.2,Pacific,2.4617543177322725
46608,Sedimentary,Conventional Hydrocarbon,Pacific Ocean,34800.0,34.32,-119.35,California,Ventura,Ventura Basin,Pacific Coast,San Mig. Injection System,,4296.8,,,1957-02-21,3.8,23.4043,33.1923,221.22575,42.0,429.0,19300.0,71.72800000000001,414.0,,1200.0,8000.0,336.0,113.2603,3.119,-7.1,Pacific,1.806748277192923
46609,Sedimentary,Conventional Hydrocarbon,Unknown,56500.0,34.32081,-119.34674,California,Ventura,Ventura Basin,Pacific Coast,Grubb #56,4111020800000.0,5850.0,7229.0,,1969-03-03,1.0,14.91,464.227,112.076,663.52,1280.0,32600.0,7.816,0.0,,1130.0,15500.0,2300.0,225.134,0.10323,-7.6,Pacific,3.769244804006911
46610,Sedimentary,Conventional Hydrocarbon,Modelo,12100.0,34.4565014973,-119.083627764,California,Ventura,Ventura Basin,Pacific Coast,Continental - Engman No. 1,,1213.0,,,1957-12-09,7.66,56.395,17.528,14.258,4400.0,141.0,4500.0,396.28,38.0,,120.0,4100.0,718.278,6.292,31.780310000000004,-0.7,Pacific,4.242558977081823
46611,Sedimentary,Conventional Hydrocarbon,Louisiana Miocene,13194.0,34.51613,-118.73735,California,Los Angeles,Ventura Basin,Pacific Coast,Engman No. 1,4037000160000.0,575.0,995.0,,1957-11-25,7.28,84.984,19.425,38.228,4300.0,116.0,4400.0,458.747,57.0,,133.0,4100.0,62.0,8.267,39.33431,0.2,Pacific,3.7568681195942877
46612,Sedimentary,Conventional Hydrocarbon,Unknown,27800.0,34.32018,-119.34905,California,Ventura,Ventura Basin,Pacific Coast,Grubb 323,4111021530000.0,6782.0,8682.0,,,7.25,34.58200000000001,20.533,46.34,249.0,732.0,15600.0,9.175,47.0,,295.0,8400.0,36.0,41.226,0.05135,-2.0,Pacific,1.600335483162161
46613,Sedimentary,Conventional Hydrocarbon,Shallow Gas,28360.0,35.45,-119.27,California,Kern,San Joaquin Basin,Pacific Coast,,,3920.25,,,,7.0,21.575,19.477,42.3,130.7,1461.0,17441.0,21.2,0.0,,540.3,8720.0,120.5,58.17,1.25879,0.0,Pacific,3.0020314654573292
46614,Sedimentary,Conventional Hydrocarbon,Vedder,22346.0,35.45,-119.27,California,Kern,San Joaquin Basin,Pacific Coast,,,7366.3,,,1968-04-02,7.6,43.4,10.507,160.74,682.0,287.9,12544.0,0.1,0.0,,43.0,8347.0,442.872,22.158,0.4713,2.1,Pacific,1.2274206134158103
46615,Sedimentary,Conventional Hydrocarbon,Osborne,25787.0,35.45,-119.27,California,Kern,San Joaquin Basin,Pacific Coast,,,5793.7,,,,7.2,38.8,19.496,128.85,808.0,208.0,14523.0,0.1,0.0,,37.3,9804.0,811.8,34.67,0.7134,0.0,Pacific,1.5847650521272365
46616,Sedimentary,Conventional Hydrocarbon,Vedder,22139.0,35.45,-119.27,California,Kern,San Joaquin Basin,Pacific Coast,,,7964.7,,,,7.5,36.9,6.853,205.24,759.6,218.7,12759.0,0.1,0.0,,29.3,8383.0,268.0,27.287,0.20687,0.0,Pacific,1.8624715023071132
46618,Sedimentary,Conventional Hydrocarbon,Phacoides,11135.0,35.31,-119.63,California,Kern,San Joaquin Basin,Pacific Coast,,,5187.1,,,,8.2,24.129,4.97555,15.4,1170.0,35.9,5941.0,0.1,0.0,,16.8,4338.0,87.2,7.129,0.26476,0.9,Pacific,1.5018129028810665
46619,Sedimentary,Conventional Hydrocarbon,Rio Bravo,20095.0,35.45,-119.27,California,Kern,San Joaquin Basin,Pacific Coast,,,2892.4,,,,7.4,0.1,16.347199999999997,45.102,835.9,181.0,11627.0,548.0,0.0,,23.6,7682.0,163.2,21.3994,151.498,0.0,Pacific,0.9092208339028262
46620,Sedimentary,Conventional Hydrocarbon,Agua,16484.0,35.64,-119.97,California,Kern,San Joaquin Basin,Pacific Coast,,,4031.5,,,,7.3,55.771,5.264,32.372,3447.0,194.0,8296.0,0.1,0.0,,272.8,5952.0,19.4,17.887,0.14598,0.0,Pacific,3.5696956667951136
46621,Sedimentary,Conventional Hydrocarbon,Phacoides,13298.0,35.31,-119.63,California,Kern,San Joaquin Basin,Pacific Coast,,,7271.9,,,,8.4,56.3,8.207999999999998,21.198,1973.0,24.0,6272.0,9.285999999999998,0.0,,14.8,4867.0,9.7,3.426,0.03899,1.1,Pacific,1.0190276165319556
46622,Sedimentary,Conventional Hydrocarbon,Tulare,15267.0,35.29736,-119.65726,California,Kern,San Joaquin Basin,Pacific Coast,,4029292860000.0,5853.0,6263.0,,,7.3,25.244,6.619999999999999,98.12,1135.8,235.0,8354.0,3.043,0.0,,64.2,5463.3,15.5,14.135,0.0695099999999999,0.0,Pacific,1.5379185022236261
46624,Shale,Conventional Hydrocarbon,Monterey,21574.0,34.94185,-120.52919,California,Santa Barbara,Santa Maria Basin,Pacific Coast,Le Roy No. 5,4083025870000.0,5056.0,5517.0,Neogene,,,92.27,27.863000000000007,25.844,2343.0,51.2,11818.0,0.1,0.0,,32.2,8435.0,13.6,17.424,0.0354,0.0,Pacific,1.0154089002289566
46625,Sedimentary,Conventional Hydrocarbon,Oil Sand,27669.0,34.89228,-120.38241,California,Santa Barbara,Santa Maria Basin,Pacific Coast,Bradley F11 - 5,4083024150000.0,4375.0,4599.0,,,7.5,21.85,9.878,35.58200000000001,591.7,175.0,16348.0,1.5,0.0,,107.0,10526.0,215.4,25.933,0.6603,0.0,Pacific,2.2234948460319446
46628,Sedimentary,Conventional Hydrocarbon,Kinsey,30139.0,36.13107,-120.21477,California,Fresno,San Joaquin Basin,Pacific Coast,Dessel 24-2,4019048100000.0,4023.3,,,,7.12,28.607,48.147,48.132,385.0,570.0,17780.0,28.0,0.0,,535.0,10800.0,22.0,87.81400000000001,0.16435,3.2,Pacific,3.3625523127613772
46629,Sedimentary,Conventional Hydrocarbon,Stevens,32476.0,35.3826,-119.25788,California,Kern,San Joaquin Basin,Pacific Coast,Sturdevant 61 - 26,4029042690000.0,8754.0,8810.0,,,7.15,101.561,17.2428948,164.278,3408.0,620.0,14400.0,1.0,350.0,,98.0,10200.0,62.0,137.37802000000002,0.10423,3.0,Pacific,3.674581902014134
46630,Sedimentary,Conventional Hydrocarbon,Unknown,16370.0,35.07756,-119.38853,California,Kern,San Joaquin Basin,Pacific Coast,Ethyl D No. 101,4029196890000.0,2708.0,2828.0,,1950-10-15,7.52,69.72200000000001,18.154,26.269,4720.0,128.0,7680.0,30.0,61.0,,106.0,5800.0,145.0,5.918,4.4506,-5.0,Pacific,1.1501492779019942
46633,Sedimentary,Conventional Hydrocarbon,Obispo,17956.0,35.08,-119.39,California,Kern,San Joaquin Basin,Pacific Coast,Ethel D Lease,,7085.1,,,1951-02-25,6.9,71.59,3.5475699999999994,66.23400000000001,4802.0,320.0,8370.0,35.0,150.0,,136.0,6250.0,1341.4969999999998,17.2257,0.5603,-1.9,Pacific,1.2343223886330033
46634,Sedimentary,Conventional Hydrocarbon,Unknown,11421.0,35.08065,-119.40425,California,Kern,San Joaquin Basin,Pacific Coast,No. 348,4029195170000.0,3035.0,3270.0,,1957-10-01,6.8,61.355,9.584,19.764000000000003,2596.0,190.0,5400.0,16.330000000000002,0.0,,47.0,4240.0,88.0,11.285,4.32175672,0.3,Pacific,1.8063684047447495
46635,Sedimentary,Conventional Hydrocarbon,Unknown,10132.0,35.78628,-120.02249,California,Kern,San Joaquin Basin,Pacific Coast,Alferitz 32 - 3,4029175150000.0,3828.0,3830.0,,1956-08-17,7.5,13.527,10.741,16.824,1132.0,112.0,4970.0,170.84239999999997,0.0,,34.0,3520.0,31.0,6.962000000000001,12.3065,0.7,Pacific,1.6333038810362264
46636,Sedimentary,Conventional Hydrocarbon,Unknown,14917.0,35.1,-119.5,California,Kern,San Joaquin Basin,Pacific Coast,,,3300.0,3500.0,,1957-10-14,7.2,32.461,10.602999999999998,36.762,2016.0,162.0,8100.0,16.174,0.0,,8.0,5850.0,140.0,6.057,2.6336,-0.2,Pacific,1.089161931734958
46637,Sedimentary,Conventional Hydrocarbon,Unknown,18607.0,35.09287,-119.39485,California,Kern,San Joaquin Basin,Pacific Coast,Fried Lease No. 4,4029193830000.0,3038.0,3080.0,,1959-01-10,7.1,18.165170000000003,2.32516,75.0,1456.0,204.0,10700.0,217.14300000000003,174.0,,177.0,6860.0,107.0,17.1154,56.145877718,-0.2,Pacific,0.9418360123791336
46638,Sedimentary,Conventional Hydrocarbon,Unknown,17487.0,35.08,-119.42,California,Kern,San Joaquin Basin,Pacific Coast,,,2630.0,2771.0,,1959-12-01,6.9,61.314,20.16,47.074,2585.0,101.0,9380.0,12.272,65.0,,31.0,6640.0,19.0,12.266,4.28126,-1.5,Pacific,1.009329007181974
46641,Sedimentary,Conventional Hydrocarbon,Unknown,26450.0,35.1,-119.5,California,Los Angeles,San Joaquin Basin,Pacific Coast,Unit No. 9,,3040.0,3072.0,,1958-11-11,7.85,27.810400000000005,73.474,56.0,1756.0,276.0,14000.0,12.412,230.0,,270.0,8450.0,260.0,202.0,4.1381000000000006,-1.9,Pacific,1.017239624348882
46644,Sedimentary,Conventional Hydrocarbon,Unknown,11615.0,35.08274,-119.41037,California,Los Angeles,San Joaquin Basin,Pacific Coast,Unit No. 35 - 220,4029194950000.0,3093.0,3300.0,,1957-09-07,8.4,32.051,13.508,15.188999999999998,1967.0,51.0,5200.0,9.444,0.0,,51.0,4180.0,336.0,6.997,2.6781,0.7,Pacific,1.7521424368529916
46670,Sedimentary,Conventional Hydrocarbon,Unknown,27186.0,33.67638,-118.0273,California,Orange,Los Angeles Basin,Pacific Coast,State S - 48,4259029610000.0,4625.0,5300.0,,,8.2,31.886199999999995,20.449,35.8,1157.0,91.0,15295.0,19.208,0.0,,59.0,10248.0,73.0,21.216,0.17692,0.4,Pacific,1.4795040564719206
46679,Sedimentary,Conventional Hydrocarbon,Paloma,17688.0,35.17,-119.19,California,Kern,San Joaquin Basin,Pacific Coast,,,11265.0,11700.0,,,6.8,89.58500000000001,2.882,75.25399999999999,2089.7,128.5,8934.9,99.856,0.0,,52.3,5398.8,91.3,61.8813,0.3868,-8.0,Pacific,1.4684163216445973
46680,Sedimentary,Conventional Hydrocarbon,Ia Zone,10792.0,35.51802,-119.85559,California,Kern,San Joaquin Basin,Pacific Coast,66 - 6,4029134790000.0,1758.0,2200.0,,,8.4,94.445,11.366,26.73,2401.0,14.5,4339.2,12.800999999999998,0.0,,15.2,3821.7,29.1,3.478,5.97801672,1.8,Pacific,4.2820548914991186
46681,Sedimentary,Conventional Hydrocarbon,Tulare,32904.0,35.44,-119.72,California,Kern,San Joaquin Basin,Pacific Coast,,,1791.762472,,,,7.3,86.316,45.269,281.1,3284.0,262.8,17345.0,12.834,0.0,,319.1,11620.0,73.3,64.423,1.14821344,0.0,Pacific,14.093107151238016
46682,Sedimentary,Conventional Hydrocarbon,Tulare,14382.0,35.44,-119.72,California,Kern,San Joaquin Basin,Pacific Coast,13 - 23,,3997.0,,,,7.8,16.848599999999998,5.818,35.286,1323.0,130.3,8091.0,30.335,0.0,,180.7,4596.0,1.0,10.308,2.47494,-6.1,Pacific,2.405417441383189
46683,Sedimentary,Conventional Hydrocarbon,Frac,34858.0,35.44663,-119.71053,California,Kern,San Joaquin Basin,Pacific Coast,75b - 33,4029334190000.0,1178.0,2700.0,,,7.2,78.38117,28.408,102.04,7568.5,82.8,14845.0,8.798,0.0,,74.1,12260.0,28.2,26.957000000000004,3.2861334399999995,0.0,Pacific,11.36848898118347
46684,Sedimentary,Conventional Hydrocarbon,Frac,33123.0,35.44663,-119.71053,California,Kern,San Joaquin Basin,Pacific Coast,75b - 33,4029334190000.0,1178.0,2700.0,,,7.4,83.17217000000001,7.803999999999999,98.75,7604.0,199.0,13770.0,9.562,0.0,,70.3,11383.1,29.6,20.021,3.28007344,-0.3,Pacific,11.350069661146934
46686,Sedimentary,Conventional Hydrocarbon,Santa Margarita,13000.0,34.96228,-119.78015,California,Santa Barbara,Central Coastal,Pacific Coast,Russell A No. 15 - 9,4083031050000.0,7070.5,,,1967-01-31,7.8,13.0,55.41,114.06199999999998,235.0,515.0,7673.0,15.68,0.0,,2.0,4473.0,5.0,33.531299999999995,0.09576,0.0,Pacific,1.3104297845137058
46687,Sedimentary,Conventional Hydrocarbon,Painted Rocks,22005.0,35.00586,-119.82469,California,San Luis Obispo,Central Coastal,Pacific Coast,Cuyama No. 2,4079009920000.0,1643.0,1736.0,,1974-11-15,8.1,18.0,52.271,33.768,251.0,320.0,13150.0,411.657,0.0,,56.0,8170.0,35.0,45.889,83.64800000000001,0.0,Pacific,4.414899798220834
46688,Sedimentary,Conventional Hydrocarbon,Vaqueros,21426.0,34.42388,-119.9027,California,Santa Barbara,Ventura Basin,Pacific Coast,Luton - Bell No. 23,4083201760000.0,8819.9,,,1970-08-04,7.55,38.620000000000005,16.733,116.796,185.0,1280.0,12750.0,0.5,0.0,,39.0,6900.0,210.0,44.414,2.5381,0.0,Pacific,1.2931124378802845
46689,Sedimentary,Conventional Hydrocarbon,E Late Miocene,31199.0,33.71938,-118.11432,OffShore-California,Orange,Los Angeles Basin,Pacific Coast,Surfside 3095 No. 104,4259002690000.0,11667.0,,,1966-07-01,8.5,60.36,23.53,87.606,243.47,560.6,18720.9,2.05,0.0,,352.94,10802.88,528.452,59.32160000000001,2.6213,-0.5,Pacific,4.4553952685112925
46690,Sedimentary,Conventional Hydrocarbon,Unknown,23727.0,34.84431,-120.51243,California,Santa Barbara,Santa Maria Basin,Pacific Coast,Casmalia Fee No. 8,4083008590000.0,1380.0,2045.0,,1968-07-05,8.1,13.18,114.783,32.689,6854.64,5.07,8700.12,997.235,0.0,,228.15,7807.8,4014.969,19.148,151.38631,0.1,Pacific,9.522003698924406
46691,Sedimentary,Conventional Hydrocarbon,Refugian,37273.0,35.01,-119.01,California,Kern,San Joaquin Basin,Pacific Coast,,,10370.9,,,1970-07-28,6.6,95.54338,24.7884759,153.82,874.0,5500.0,22250.0,11.3236,0.0,,49.0,8361.0,144.0,306.54234,0.34709,-0.2,Pacific,1.6363167628597353
46692,Sedimentary,Conventional Hydrocarbon,Refugian,41020.0,35.01,-119.01,California,Kern,San Joaquin Basin,Pacific Coast,,,11265.35,,,1970-07-28,6.6,90.6267,19.8841987,161.551584,1474.0,6720.0,24200.0,32.905,0.0,,73.0,8444.0,78.0,597.38,0.18997,0.0,Pacific,2.4247288102827436
46693,Sedimentary,Conventional Hydrocarbon,Etchegoin,20188.0,35.02391,-119.24406,California,Kern,San Joaquin Basin,Pacific Coast,Como,4029392840000.0,9354.0,9392.0,,1956-02-03,7.6,42.76,11.660999999999998,75.66,372.0,337.0,11979.0,8.168000000000001,0.0,,74.0,7390.84,36.0,22.2973,0.06046,0.0,Pacific,2.3027673870685357
46695,Sedimentary,Conventional Hydrocarbon,Miocene,25911.0,35.01,-119.01,California,Kern,San Joaquin Basin,Pacific Coast,Gordon,,4756.6,,Neogene,1956-06-02,7.8,38.36,18.48955,62.42,2845.22,153.44,13754.8,27.4,302.5,,193.99,9090.22,10.96,22.341,0.15738,-0.9,Pacific,2.057333161115808
46697,Sedimentary,Conventional Hydrocarbon,Miocene,22307.0,35.01,-119.01,California,Kern,San Joaquin Basin,Pacific Coast,Ragood,,5100.0,5173.0,Neogene,1957-07-27,7.6,40.0,27.861,54.81,1169.0,189.0,12505.0,37.3,163.0,,124.0,7479.0,7.0,37.778000000000006,0.0475199999999999,-3.2,Pacific,1.7524084752688367
46698,Sedimentary,Conventional Hydrocarbon,Miocene,16070.0,35.01,-119.01,California,Kern,San Joaquin Basin,Pacific Coast,Kcl Co.,,3924.85,,Neogene,1962-04-02,7.3,24.22,13.945159999999996,46.14800000000001,718.41,791.06,9181.9,29.26,60.54,,83.75,5080.32,14.13,42.0583,2.15182,-0.4,Pacific,1.0089090608879963
46700,Sedimentary,Conventional Hydrocarbon,Reserve,23286.0,34.99,-118.96,California,Kern,San Joaquin Basin,Pacific Coast,L,,5584.5,,,1966-09-28,7.2,27.0,22.69,89.804,546.0,171.0,13630.0,12.665,0.0,,5.0,8841.0,206.569,20.377,0.6271100000000001,0.0,Pacific,1.1191080705374978
46701,Sedimentary,Conventional Hydrocarbon,Olcese,37242.0,35.01,-119.01,California,Kern,San Joaquin Basin,Pacific Coast,Kcl L Well,,7731.8,,,1966-09-28,7.45,64.0,122.965,119.838,1202.0,353.0,21547.0,15.207999999999998,0.0,,4.0,14016.0,2017.541,73.136,0.4447,0.0,Pacific,1.898229615051541
46702,Sedimentary,Conventional Hydrocarbon,Sandstone,33900.0,35.23628,-119.41282,California,Kern,San Joaquin Basin,Pacific Coast,82,4029410120000.0,4324.0,4336.0,,1967-05-15,7.09,23.5376,24.897599999999997,38.304,168.02,1354.0,20703.1,169.208,0.0,,419.02,11147.58,12.29,40.199,19.9761,0.0,Pacific,3.2476655508282923
46706,Sedimentary,Conventional Hydrocarbon,Mulinia,30461.0,35.28506,-119.3932,California,Kern,San Joaquin Basin,Pacific Coast,17-27s,4029273640000.0,3340.0,3438.0,,1966-08-23,7.19,13.169600000000004,32.279,30.479,193.18,1024.0,18914.98,148.836,0.0,,994.5,9298.04,34.75,69.905,11.2404,0.0,Pacific,3.172947054229401
46707,Sedimentary,Conventional Hydrocarbon,Unknown,18986.0,35.2,-119.4,California,Kern,San Joaquin Basin,Pacific Coast,,,3142.0,3421.0,,1948-09-18,7.2,68.7,8.11,34.949,3225.0,73.3,8160.2,12.308,0.0,,35.2,6787.7,60.3,36.169,4.09273672,3.0,Pacific,1.174059957025463
46708,Sedimentary,Conventional Hydrocarbon,Unknown,17715.0,35.28479,-119.51975,California,Kern,San Joaquin Basin,Pacific Coast,387 - 29r,4029272010000.0,6616.0,6630.0,,1949-07-12,7.86,114.48,2.89,59.574,4252.99,43.56,7147.42,162.115,0.0,,8.1,6201.19,59.77,5.276999999999999,15.605100038,0.0,Pacific,0.9365611792803027
46709,Sedimentary,Conventional Hydrocarbon,Stevens,33599.0,35.2797,-119.42645,California,Kern,San Joaquin Basin,Pacific Coast,322 - 323,4029275440000.0,6880.0,6930.0,,1949-07-15,7.95,97.11,19.270000000000003,118.5,2765.05,167.64,18048.99,2.897,0.0,,54.18,12487.2,69.51,60.231,0.14821,0.0,Pacific,1.8790089976615763
46710,Sedimentary,Conventional Hydrocarbon,Stevens,27992.0,35.26679,-119.42641,California,Kern,San Joaquin Basin,Pacific Coast,321 - 50,4029291080000.0,7020.0,7380.0,,1949-04-01,7.08,104.97,42.936,137.8,1989.28,161.02,15315.03,10.12,0.0,,52.99,10417.24,42.8,208.46734,0.21705,0.0,Pacific,1.8447395248011755
46711,Sedimentary,Conventional Hydrocarbon,Stevens,34392.0,35.37879,-119.18236,California,Kern,San Joaquin Basin,Pacific Coast,Kcl 55 - 83 - 28,4029067040000.0,7565.3,,,1964-02-17,7.68,73.127,21.197,113.223,2022.6,145.42,19099.47,595.6030000000001,0.0,,1.02,13023.48,98.31,77.03299999999999,102.273,0.0,Pacific,1.7639399104111007
46713,Sedimentary,Conventional Hydrocarbon,Jewett,39628.0,35.41887,-119.23282,California,Kern,San Joaquin Basin,Pacific Coast,K.c.l. 12-21; 115,4029085360000.0,10550.0,10580.0,,1950-03-10,6.82,98.382,33.965,163.94444800000002,3427.77,843.33,21254.82,15.844,0.0,,124.29,13884.66,23.63,110.969,0.2825,0.0,Pacific,3.6964571549252607
46714,Sedimentary,Conventional Hydrocarbon,Jewett,38430.0,35.41887,-119.23282,California,Kern,San Joaquin Basin,Pacific Coast,K.c.l. 12 #21; 115,4029085360000.0,10550.0,10580.0,,1950-03-28,6.74,90.35,21.888,113.774,3340.88,899.39,20567.88,23.969,0.0,,134.5,13329.65,37.99,85.54799999999999,0.2825,0.0,Pacific,3.7861415440949555
46715,Sedimentary,Conventional Hydrocarbon,Rio Bravo,18390.0,35.4081,-119.23515,California,Kern,San Joaquin Basin,Pacific Coast,K.c.l. 11-42,4029085950000.0,11421.0,11480.0,,1958-10-14,7.58,44.61,5.647,68.83,1033.06,123.68,10065.01,18.176,0.0,,13.18,6879.65,273.73,128.007,0.31791,0.0,Pacific,1.31299016245935
46716,Sedimentary,Conventional Hydrocarbon,Rio Bravo,19374.0,35.42,-119.24,California,Kern,San Joaquin Basin,Pacific Coast,Hammar #6,,3915.7,,,1960-12-13,7.22,19.29,11.13,111.994,1093.48,147.22,10601.76,48.464,0.0,,15.23,7224.87,290.38,13.136,2.72821,0.0,Pacific,1.142112884349526
46717,Sedimentary,Conventional Hydrocarbon,Main Vedder,21813.0,35.43041,-119.23739,California,Kern,San Joaquin Basin,Pacific Coast,Camden #1,4029085660000.0,11380.0,11500.0,,1962-10-16,7.81,52.0,7.728999999999999,112.09,1113.51,221.27,11776.52,5.267,0.0,,30.59,8079.08,285.52,30.168,0.3578,1.2,Pacific,1.6621415448011052
46718,Sedimentary,Conventional Hydrocarbon,Rio Bravo,19001.0,35.42537,-119.25049,California,Kern,San Joaquin Basin,Pacific Coast,Lewis #6,4029085830000.0,11634.0,11644.0,,1961-04-05,6.81,319.41,24.735,392.400352,1127.57,138.92,10353.95,32.407000000000004,0.0,,20.28,7075.69,277.84,414.251,0.1249899999999999,0.0,Pacific,1.8962638390043365
46719,Sedimentary,Conventional Hydrocarbon,Rio Bravo,19682.0,35.41521,-119.23873,California,Kern,San Joaquin Basin,Pacific Coast,R. A. Moore #3,4029080180000.0,11462.0,11494.0,,1960-12-05,7.5,28.43,5.873,120.0,1177.75,148.23,10727.66,18.896,0.0,,17.26,7329.45,280.22,125.5,0.25471,0.0,Pacific,1.4474750608075424
46720,Sedimentary,Conventional Hydrocarbon,Vedder,20221.0,35.41903,-119.23962,California,Kern,San Joaquin Basin,Pacific Coast,Sullivan #3,4029085920000.0,11414.0,11509.0,,1956-08-08,7.89,33.49,8.064,119.15,1039.16,153.23,11081.62,17.817,0.0,,29.43,7490.24,294.29,16.73,0.25671,0.0,Pacific,1.725326585779887
46721,Sedimentary,Conventional Hydrocarbon,D,34280.0,35.60661,-119.71707,California,Kern,San Joaquin Basin,Pacific Coast,Chan #10,4029039240000.0,7615.8,,,1949-04-12,7.97,58.21100000000001,46.38,138.574,5724.4,46.2,16087.4,11.051,0.0,,134.5,12285.0,2.0,95.657,0.10942,0.0,Pacific,2.756567256350028
46722,Sedimentary,Conventional Hydrocarbon,Miocene Chert,35016.0,35.59869,-119.71517,California,Kern,San Joaquin Basin,Pacific Coast,Cahn 152,4029050720000.0,13718.5,,Neogene,1950-12-28,7.53,166.98,74.715,191.24272,3599.74,33.81,18226.12,1810.0716,0.0,,58.39,13042.66,15.37,477.321,199.41,0.0,Pacific,2.3403686572540856
46723,Sedimentary,Conventional Hydrocarbon,Miocene Chert,41382.0,35.6023,-119.71743,California,Kern,San Joaquin Basin,Pacific Coast,Cahn #148,4029039690000.0,12130.9,,Neogene,1952-04-24,7.8,156.42,16.47,254.33248000000003,5450.11,23.67,20578.91,1843.5716,0.0,,79.24,15221.42,9.26,1997.7,101.32,0.0,Pacific,3.201790791618178
46731,Sedimentary,Conventional Hydrocarbon,Bloemer,13829.0,35.7682,-119.87425,California,Kern,San Joaquin Basin,Pacific Coast,S.f. And F.l. #4-2,4029036450000.0,12444.0,12470.0,,1949-08-08,7.45,62.96,2.9690000000000003,65.756,745.75,241.51,7649.49,13.818,0.0,,44.46,4965.6,180.88,17.381999999999998,0.65598,0.0,Pacific,1.1839639614374775
46732,Sedimentary,Conventional Hydrocarbon,Unknown,28743.0,35.31707,-119.61674,California,Kern,San Joaquin Basin,Pacific Coast,Spreckles #45 - 162,4029052650000.0,4217.0,4411.0,,1949-04-23,7.22,197.65,51.041,93.96,2784.38,154.86,15170.95,44.681,0.0,,164.03,10416.21,21.39,26.78,2.05042,0.0,Pacific,2.9505882834904678
46733,Sedimentary,Conventional Hydrocarbon,Unknown,22046.0,35.32067,-119.25568,California,Kern,San Joaquin Basin,Pacific Coast,Kcl 58 73 14 Sec 14,4029043160000.0,9375.0,9431.0,,1965-01-11,7.71,43.699,13.425,92.674,1256.79,449.07,12184.89,8.346,0.0,,45.72,7880.1,226.57,21.6573,0.3738,0.0,Pacific,1.355159083991454
46734,Sedimentary,Conventional Hydrocarbon,Antelope,27491.0,35.1,-119.5,California,Kern,San Joaquin Basin,Pacific Coast,523 -26b,,2147.0,,,1956-08-26,7.51,12.23,14.27,34.452000000000005,1428.92,262.95,15603.95,129.211,0.0,,96.82,10170.6,8.15,19.09,9.20534,0.0,Pacific,10.908575643800802
46735,Sedimentary,Conventional Hydrocarbon,Antelope,25610.0,35.1,-119.5,California,Kern,San Joaquin Basin,Pacific Coast,532 - 26b,,10733.7,,,1956-08-25,,121.14,14.25,112.49,1829.35,189.35,14040.26,4.978,0.0,,70.24,9448.06,17.31,95.52,0.0718,0.0,Pacific,3.165573708142253
46736,Sedimentary,Conventional Hydrocarbon,Mulinia,37190.0,35.1,-119.5,California,Kern,San Joaquin Basin,Pacific Coast,32 - 15b,,8247.7,,,1961-03-01,7.14,32.84,6.16,90.693,321.26,1402.0,22526.4,15.918,178.59,,436.22,12197.74,26.69,108.3461,0.13154,0.0,Pacific,2.4565973994016423
46737,Sedimentary,Conventional Hydrocarbon,Mulinia,37374.0,35.1,-119.5,California,Kern,San Joaquin Basin,Pacific Coast,12-15b,,7117.1,,,1961-03-01,6.65,34.9,7.19,74.47275,248.44,1332.0,22699.15,14.099,130.38,,444.52,12379.77,37.98,68.856,0.15819,0.0,Pacific,2.3063509890305682
46739,Sedimentary,Conventional Hydrocarbon,Sandstone,16074.0,35.15,-119.35,California,Kern,San Joaquin Basin,Pacific Coast,,,1657.3,,,1967-05-05,7.14,20.272,20.828,47.016000000000005,341.04,501.41,9571.45,21.096,0.0,,207.06,5394.73,54.81,28.017,3.99892672,0.0,Pacific,4.480904222564479
46740,Sedimentary,Conventional Hydrocarbon,Sandstone,36291.0,35.15782,-119.35918,California,Kern,San Joaquin Basin,Pacific Coast,25 - 11d,4029097080000.0,3081.0,3122.0,,1963-05-09,7.31,29.77,9.24,39.581,281.26,1224.0,22128.26,274.257,0.0,,467.06,12167.1,10.27,81.546,65.726,0.0,Pacific,3.660180336870954
46741,Sedimentary,Conventional Hydrocarbon,Sandstone,34334.0,35.16526,-119.36262,California,Kern,San Joaquin Basin,Pacific Coast,33 - 11d,4029097100000.0,3095.0,3186.0,,1964-01-24,6.9,25.239,14.34,57.788,340.03,1112.0,20699.08,18.987,0.0,,419.92,11495.62,45.06,54.896,2.2241567200000003,0.0,Pacific,3.3695358684734558
46742,Sedimentary,Conventional Hydrocarbon,Sandstone,28265.0,35.16526,-119.36563,California,Kern,San Joaquin Basin,Pacific Coast,35 - 11d,4029097110000.0,2985.0,3065.0,,1963-04-26,7.59,24.51,4.08,60.799,609.66,810.83,16873.29,7.032000000000001,0.0,,320.66,9637.06,8.17,63.843,2.13315672,0.0,Pacific,3.796545337642281
46743,Sedimentary,Conventional Hydrocarbon,Sandstone,42372.0,35.16445,-119.37859,California,Kern,San Joaquin Basin,Pacific Coast,29-10d,4029096960000.0,2608.0,2673.0,,1966-05-10,7.11,21.652,8.23,190.48200000000003,196.5,1417.0,26042.01,15.794,0.0,,728.39,13960.82,16.46,68.736,0.1923234399999999,0.0,Pacific,4.411242732126733
46744,Sedimentary,Conventional Hydrocarbon,Olcese,18054.0,35.37015,-118.882,California,Kern,San Joaquin Basin,Pacific Coast,Edison Grove 78-29,4029063940000.0,3551.0,3589.0,,,7.31,31.428000000000004,5.931,108.878,431.92,677.29,10708.81,9.922,0.0,,121.67,6103.68,9.13,25.81,4.172013440000001,0.0,Pacific,2.0629526963619202
46745,Sedimentary,Conventional Hydrocarbon,Etchegoin,23064.0,35.31,-119.63,California,Kern,San Joaquin Basin,Pacific Coast,Weston,,2905.0,3075.0,,1945-12-14,,97.2,6.608000000000001,133.91,2922.8,60.7,11346.1,11.831,0.0,,133.8,8316.5,43.2,59.5212,4.36671344,0.9,Pacific,2.3423293126461098
46746,Sedimentary,Conventional Hydrocarbon,Tulare,12034.0,35.37475,-119.67494,California,Kern,San Joaquin Basin,Pacific Coast,Weston 3-8 - 25w,4029032090000.0,1217.0,1400.0,,1946-12-11,7.22,44.38,12.099,19.282,2941.08,121.03,4905.83,11.864,0.0,,131.12,3906.56,4.03,5.318,4.13401672,0.0,Pacific,5.0248210737373995
46747,Sedimentary,Conventional Hydrocarbon,Carneros,19891.0,35.31,-119.65,California,Kern,San Joaquin Basin,Pacific Coast,61-19w,,1625.0,1816.0,,1950-01-08,7.99,143.0,41.147000000000006,87.4109408,2542.6,48.68,10011.17,291.451,0.0,,134.89,7142.0,2.03,50.28463,96.22400000000002,0.0,Pacific,3.6375378437510237
46748,Sedimentary,Conventional Hydrocarbon,Carneros,20579.0,35.31,-119.65,California,Kern,San Joaquin Basin,Pacific Coast,71-19w,,1915.0,2048.0,,1950-01-08,7.49,126.85,80.604,85.798,3263.6,206.0,9894.3,6.891,0.0,,244.57,6952.39,6.09,40.2432,4.06364344,0.0,Pacific,5.246888356346784
46749,Sedimentary,Conventional Hydrocarbon,Vedder,10723.0,35.3317,-118.88414,California,Kern,San Joaquin Basin,Pacific Coast,Jeppi-camp 65-8,4029064100000.0,5805.0,5820.0,,1955-01-05,7.57,33.27,8.375,31.535000000000004,110.9,972.91,6489.78,797.908,0.0,,12.1,3115.34,13.11,1.01,22.894,0.0,Pacific,1.6706784879890917
46751,Sedimentary,Conventional Hydrocarbon,Lerdo,15936.0,35.43877,-119.13116,California,Kern,San Joaquin Basin,Pacific Coast,Acl 31 - 72 - 1,4029168330000.0,4010.0,4138.0,,1961-07-30,8.5,24.3,3.04,70.88000000000001,147.83,521.44,9848.59,179.23700000000002,0.0,,540.68,4841.78,5.06,18.558,12.0325,0.1,Pacific,3.4918279006444557
46752,Sedimentary,Conventional Hydrocarbon,Lerdo,12768.0,35.43,-119.13,California,Kern,San Joaquin Basin,Pacific Coast,,,5977.295,,,1961-10-01,7.3,15.15,5.05,37.056,1229.29,681.82,7019.18,155.445,0.0,,467.68,3350.5,11.11,15.9525,8.3058,0.0,Pacific,3.6433937545219646
46753,Sedimentary,Conventional Hydrocarbon,Kernway,29561.0,35.42974,-119.13558,California,Kern,San Joaquin Basin,Pacific Coast,Kcl 31 - 57 - 1,4029168270000.0,4842.0,4880.0,,1958-06-04,6.74,67.47,15.33,68.205,925.18,1305.0,17616.27,27.44,0.0,,652.23,9038.15,6.13,46.574000000000005,0.3669,0.0,Pacific,3.344648561528298
46754,Sedimentary,Conventional Hydrocarbon,Coulter,29510.0,35.31919,-119.19317,California,Kern,San Joaquin Basin,Pacific Coast,Kcl 66 - 34 - 16,4029166740000.0,10105.0,10300.0,,1966-06-07,6.7,93.568,8.894,100.964,3848.95,200.0,14686.62,5.747,0.0,,35.71,10698.89,47.96,101.321,0.086,0.0,Pacific,3.0156527538808553
46756,Sedimentary,Conventional Hydrocarbon,Unknown,25096.0,35.31,-119.65,California,Kern,San Joaquin Basin,Pacific Coast,Anderson #5,,3810.0,3850.0,,1945-10-05,7.83,80.41,17.410999999999998,43.07,2616.76,63.1,13045.14,46.798,0.0,,35.62,9314.91,16.28,22.328,4.01335672,0.0,Pacific,1.1812651586076823
46763,Sedimentary,Conventional Hydrocarbon,Chanac,18467.0,35.22255,-118.85241,California,Kern,San Joaquin Basin,Pacific Coast,Tupman #2,4029041650000.0,6545.0,7503.0,Neogene,1948-07-02,7.6,27.732000000000006,24.208,151.009,654.98,1950.0,10827.44,39.17075,0.0,,50.7,4948.85,31.43,103.013,0.15526,0.0,Pacific,1.4491830968132837
46764,Sedimentary,Conventional Hydrocarbon,Chanac,18664.0,35.22255,-118.85241,California,Kern,San Joaquin Basin,Pacific Coast,Tupman #2,4029041650000.0,7418.0,7532.0,Neogene,1948-01-29,7.5,28.37,17.791999999999998,170.82999999999998,315.07,1846.0,11206.91,35.30275,0.0,,61.8,5174.91,48.63,147.206,0.21178,0.0,Pacific,1.5311320627228113
46771,Sedimentary,Conventional Hydrocarbon,Stevens,24603.0,35.26499,-119.49365,California,Kern,San Joaquin Basin,Pacific Coast,42 - 3b,4029278940000.0,6767.0,7000.0,,1945-11-23,,104.84,61.326,105.274,4297.57,156.76,11357.73,6.9510000000000005,0.0,,72.27,8982.97,8.14,89.20902,0.09422,1.7,Pacific,2.007499792173441
46772,Sedimentary,Conventional Hydrocarbon,Stevens,20738.0,35.2725,-119.37325,California,Kern,San Joaquin Basin,Pacific Coast,326 - 242,4029277730000.0,6122.0,6255.0,,1947-09-29,8.35,73.929,8.222000000000001,105.01,4359.8,99.7,12473.0,10.517,0.0,,69.2,9629.7,40.9,18.744,0.45926,0.6,Pacific,1.9345705661151622
46773,Sedimentary,Conventional Hydrocarbon,Unknown,38071.0,35.4104886,-119.4230816,California,Kern,San Joaquin Basin,Pacific Coast,67 - 80,,3344.0,3388.0,,1947-08-05,,23.6,34.161,56.708000000000006,295.49,1283.0,23281.99,207.551,0.0,,679.21,12465.9,7.18,50.815,19.841177756,0.0,Pacific,3.2288964322900777
46774,Sedimentary,Conventional Hydrocarbon,Stevens,27337.0,35.38942,-119.20998,California,Kern,San Joaquin Basin,Pacific Coast,Fleishaver 3 #1,4029085550000.0,7759.0,7680.0,,1956-08-08,7.8,74.41,35.20792,146.99,3212.83,230.36,13823.75,13.001,0.0,,51.98,9844.4,34.66,205.65834,0.215,0.1,Pacific,1.8371818445711565
46775,Sedimentary,Conventional Hydrocarbon,Unknown,31387.0,35.40253,-119.19285,California,Kern,San Joaquin Basin,Pacific Coast,K.c. 12 #4,4029085420000.0,7572.0,7616.0,,1938-02-23,,68.441,8.496,113.8,3264.39,216.54,16268.86,10.947,0.0,,77.63,11430.49,72.52,110.03302,0.2827,0.0,Pacific,2.776566620820235
46776,Sedimentary,Conventional Hydrocarbon,Unknown,28502.0,35.40438,-119.19549,California,Kern,San Joaquin Basin,Pacific Coast,K. C. 12 - #2,4029085400000.0,7580.0,7711.0,,1937-10-08,,102.456,10.838,150.9,2797.39,251.99,14719.45,5.486000000000001,0.0,,63.25,10336.67,290.76,180.55400000000003,0.1898,0.0,Pacific,1.8720799775767887
46777,Sedimentary,Conventional Hydrocarbon,Stevens,30936.0,35.39338,-119.2087,California,Kern,San Joaquin Basin,Pacific Coast,Kcl 11 - 4,4029085580000.0,7704.0,7804.0,,1947-07-16,7.55,91.39,32.253,110.0,3941.17,202.06,15486.09,17.240000000000002,0.0,,41.84,11231.62,30.62,63.474,0.07062,0.0,Pacific,1.9457542866700341
46778,Sedimentary,Conventional Hydrocarbon,Vedder,34967.0,35.42612,-119.23278,California,Kern,San Joaquin Basin,Pacific Coast,Kcl 51 - 111 - 7,4029085340000.0,11506.0,11550.0,,1963-11-17,7.04,67.75158,10.1668948,68.534448,1120.47,902.32,20125.53,14.345,0.0,,103.44,12392.82,320.57,113.89302,0.20751,0.0,Pacific,3.7116608187330327
46779,Sedimentary,Conventional Hydrocarbon,Vedder,15630.0,35.37698,-119.22427,California,Kern,San Joaquin Basin,Pacific Coast,Kc 12 - #6,4029085650000.0,11913.0,11941.0,,1939-08-07,7.21,62.342,7.294,59.786,936.01,92.28,8483.96,18.058,0.0,,14.2,5842.23,248.45,22.833,0.3046099999999999,0.0,Pacific,1.6024565461947735
46780,Sedimentary,Conventional Hydrocarbon,Rio Bravo,22147.0,35.41831,-119.22713,California,Kern,San Joaquin Basin,Pacific Coast,K.c.l. 12 - 17,4029086080000.0,11240.0,11510.0,,1949-02-09,7.29,69.20558000000001,13.963,89.374,1027.79,291.48,12401.49,4.765,0.0,,49.76,8120.74,251.87,102.71302,0.06532,0.0,Pacific,1.942195466578199
46781,Sedimentary,Conventional Hydrocarbon,Vedder,10825.0,35.405,-119.22,California,Kern,San Joaquin Basin,Pacific Coast,K.c. 11 #38,,11400.0,,,1945-08-26,7.15,45.63,14.131,104.373,939.06,248.45,10965.46,15.62,0.0,,31.44,7329.91,436.06,21.189,0.4387999999999999,0.0,Pacific,1.539042596894062
46782,Sedimentary,Conventional Hydrocarbon,Main Cherts,37988.0,35.60062,-119.71706,California,Kern,San Joaquin Basin,Pacific Coast,Cahn #59,4029050670000.0,8651.6,,,1949-02-02,7.78,69.7,11.196,140.6,4808.77,173.43,19058.59,12.373,0.0,,92.36,13816.76,37.97,49.987,0.08201,0.0,Pacific,3.471679682419794
46783,Sedimentary,Conventional Hydrocarbon,Miocene Chert,35803.0,35.60062,-119.71706,California,Kern,San Joaquin Basin,Pacific Coast,Cahn 59,4029050670000.0,14692.9,,Neogene,1952-04-16,8.05,200.74,77.07000000000001,212.460352,3755.74,19.46,18534.95,1556.0716,0.0,,69.65,13338.16,25.61,477.321,199.41,0.2,Pacific,3.0542588745498893
46784,Sedimentary,Conventional Hydrocarbon,Calitroteum,34799.0,35.12719,-119.42196,California,Kern,San Joaquin Basin,Pacific Coast,Murvale 46 - 20d,4029072790000.0,3421.0,3510.0,,1957-02-27,6.68,29.83,4.11,38.212,544.18,914.51,20840.43,131.552,0.0,,910.4,11989.5,4.11,81.762,5.066340038,3.7,Pacific,3.7192431672928317
46789,Sedimentary,Conventional Hydrocarbon,Stevens,15468.0,35.28094,-119.55507,California,Kern,San Joaquin Basin,Pacific Coast,Flickinear #1,4029375720000.0,6117.0,6863.0,,1946-06-23,8.0,91.02,7.942,26.0,4491.18,16.18,5572.26,12.938,0.0,,11.12,5301.23,69.78,3.647,0.45898,0.0,Pacific,1.0285387809779665
46793,Sedimentary,Conventional Hydrocarbon,Etchegoin,35163.0,35.1,-119.5,California,Kern,San Joaquin Basin,Pacific Coast,83 - 2c,,5278.0,,,1946-08-09,7.28,93.12,24.429,158.3,2353.59,243.55,19447.82,2584.4,0.0,,309.04,12668.45,28.65,145.671,74.637,0.1,Pacific,3.889894920970898
46794,Sedimentary,Conventional Hydrocarbon,Etchegoin,36745.0,35.1,-119.5,California,Kern,San Joaquin Basin,Pacific Coast,306 - 25b,,3465.0,3517.0,,1945-05-06,7.4,83.04,83.636,335.7,2095.51,298.33,20638.3,1902.9,0.0,,330.11,13238.41,20.5,180.475,75.12500000000001,0.1,Pacific,4.173871470091362
46795,Sedimentary,Conventional Hydrocarbon,Pyramid Hill,19010.0,35.32635,-118.8908,California,Kern,San Joaquin Basin,Pacific Coast,Jappi Comp 38 - 8,4029064020000.0,6083.0,6115.0,,1955-07-24,7.1,33.45,32.875,148.598,317.23,1603.0,11441.4,14.632,0.0,,86.15,5534.72,9.12,53.6503,2.4822,0.0,Pacific,1.9384800160483056
46803,Sedimentary,Conventional Hydrocarbon,Chanac,10806.0,35.22794,-118.86147,California,Kern,San Joaquin Basin,Pacific Coast,Jewett 2 #8,4029080120000.0,3983.7,,Neogene,1950-05-13,7.02,12.8,22.27,46.74,36.9,1432.0,6672.7,223.556,0.0,,49.5,2607.3,7.3,40.5553,151.51617768,0.0,Pacific,1.4889480476971217
46807,Sedimentary,Conventional Hydrocarbon,Nazu,21679.0,35.30965,-118.94385,California,Kern,San Joaquin Basin,Pacific Coast,Wible #3,4029146360000.0,5536.0,5602.0,,,8.2,38.443,12.2,91.224,1624.53,63.03,11714.28,10.121,0.0,,48.8,8112.47,10.17,17.292,0.06032,0.4,Pacific,1.6077907879298157
46809,Sedimentary,Conventional Hydrocarbon,Nazu,22636.0,35.30783,-118.9332,California,Kern,San Joaquin Basin,Pacific Coast,Wible #1,4029002360000.0,7293.0,7342.0,,1955-03-25,7.78,108.69,9.14,115.7,1946.27,26.41,12101.23,10.854,0.0,,17.27,8518.5,3.05,102.519,0.0988,0.0,Pacific,1.5961737783046577
46810,Sedimentary,Conventional Hydrocarbon,Miocene,44942.0,35.00783,-119.2677,California,Kern,San Joaquin Basin,Pacific Coast,Kcl 45 - 56,4029036910000.0,1980.0,2300.0,Neogene,1960-02-15,7.71,45.35,244.527,234.793824,672.98,3830.0,25052.86,83.091,7987.0,,358.65,9938.08,133.98,402.15952,4.1773,8.7,Pacific,11.94890063224674
46811,Sedimentary,Conventional Hydrocarbon,Pioneer,51847.0,35.00783,-119.2677,California,Kern,San Joaquin Basin,Pacific Coast,Kcl 45 #56,4029036910000.0,3175.0,3220.0,,1960-02-19,6.61,70.65,54.032,154.92000000000002,215.07,7703.0,31836.0,113.085,0.0,,217.15,11603.55,269.1,448.2469200000001,2.93425672,0.0,Pacific,4.185486049682795
46812,Sedimentary,Conventional Hydrocarbon,Pioneer,43844.0,34.99558,-119.25202,California,Kern,San Joaquin Basin,Pacific Coast,K.c.l. 44 #45,4029094100000.0,3445.0,4320.0,,1960-12-21,6.58,57.84,35.160000000000004,124.343,222.05,4946.0,27061.43,934.33,0.0,,660.99,10784.5,166.28,93.627,2.103,0.0,Pacific,3.89704919575534
46813,Sedimentary,Conventional Hydrocarbon,Pioneer,43603.0,34.99558,-119.25202,California,Kern,San Joaquin Basin,Pacific Coast,Kcl 44 - 45,4029094100000.0,3445.0,4320.0,,1959-11-17,6.52,67.07,61.763580000000005,240.41,343.59,5235.0,26575.04,749.545,0.0,,489.07,10602.78,563.36,386.656,10.305,-0.3,Pacific,4.117875758861707
46814,Sedimentary,Conventional Hydrocarbon,Miocene,33620.0,34.99558,-119.25202,California,Kern,San Joaquin Basin,Pacific Coast,Kcl 44 - 45,4029094100000.0,2490.0,2700.0,Neogene,1957-09-15,8.15,50.18,51.67,261.737,621.57,958.46,20027.39,368.956,0.0,,256.0,11689.98,29.7,82.492,60.597,0.1,Pacific,4.443910017838275
46815,Sedimentary,Conventional Hydrocarbon,Pioneer,58777.0,34.999,-119.25166,California,Kern,San Joaquin Basin,Pacific Coast,K.c.l. 44 #43,4029094090000.0,3960.0,5848.0,,1957-12-21,7.05,55.35,39.946000000000005,347.861776,439.65,13613.0,36309.27,157.542,0.0,,176.49,8011.87,288.23,149.38100000000003,18.288500038,0.2,Pacific,3.2651266930137632
46816,Sedimentary,Conventional Hydrocarbon,Pioneer,53205.0,34.99719,-119.25383,California,Kern,San Joaquin Basin,Pacific Coast,Kcl 44 - 34,4029094080000.0,2995.0,3995.0,,1959-07-24,6.55,50.86,33.654999999999994,235.688,284.38,4937.0,32627.42,20.4406,0.0,,473.28,14762.05,118.32,124.7949,0.51821344,0.0,Pacific,4.1487588743097215
46817,Sedimentary,Conventional Hydrocarbon,Pioneer,49687.0,35.00091,-119.2546,California,Kern,San Joaquin Basin,Pacific Coast,Kcl 44 #32,4029094070000.0,4512.0,4750.0,,1960-01-26,7.49,101.71,71.514,350.97887369,296.84,11295.0,30661.64,17.491,0.0,,39.44,7148.02,243.91,619.612,1.3567,0.2,Pacific,1.9279950880014551
46818,Sedimentary,Conventional Hydrocarbon,Pioneer,19133.0,35.00091,-119.25902,California,Kern,San Joaquin Basin,Pacific Coast,Kcl 44 #12,4029094040000.0,3530.0,3850.0,,1960-01-28,7.21,25.35,25.334,52.673,241.28,2325.0,11416.4,48.503,0.0,,98.34,4771.96,278.8,63.014,7.282999999999999,0.0,Pacific,1.9107184785291347
46819,Sedimentary,Conventional Hydrocarbon,Pioneer,53903.0,35.00091,-119.25902,California,Kern,San Joaquin Basin,Pacific Coast,K.c.l. #44 - 12,4029094040000.0,5065.0,5350.0,,1960-01-25,10.93,94.69,64.845,324.269,813.641,11798.0,32881.92,138.567,0.0,,16.65,8363.3,317.38,622.838,9.6398,1.0,Pacific,1.6578458764402935
46820,Sedimentary,Conventional Hydrocarbon,Pioneer,62433.0,35.00091,-119.25902,California,Kern,San Joaquin Basin,Pacific Coast,Kcl 44 #12,4029094040000.0,4205.0,4450.0,,1960-01-19,9.52,54.37,33.139,350.565776,273.485,12881.0,38578.46,329.897,0.0,,4762.197,10526.06,256.17,237.755,31.066000000000003,0.3,Pacific,4.270133416877642
46821,Sedimentary,Conventional Hydrocarbon,Oligocene,19890.0,35.31702,-119.59695,California,Kern,San Joaquin Basin,Pacific Coast,55 - 15z,4029094460000.0,4310.0,4400.0,Paleogene,1964-03-02,7.38,46.48400000000001,10.642,51.39,2384.08,128.84,10060.8,107.778,0.0,,57.83,7193.82,62.9,11.223,2.0881,0.0,Pacific,1.1410683553349226
46824,Sedimentary,Conventional Hydrocarbon,Miocene,17141.0,35.07549,-119.39421,California,Kern,San Joaquin Basin,Pacific Coast,Maricopa 10a 1f,4029078990000.0,1224.0,1450.0,Neogene,1960-01-28,7.99,57.75,6.659000000000001,38.488,4031.12,190.46,6965.06,164.75,0.0,,90.17,5696.66,110.43,11.1056,15.228,0.0,Pacific,5.596679947820502
46825,Sedimentary,Conventional Hydrocarbon,Finhors,26673.0,35.09196,-119.38668,California,Kern,San Joaquin Basin,Pacific Coast,206 - 25l,4029092620000.0,2199.0,2258.0,,1957-03-07,7.25,41.8,5.1,56.08800000000001,1431.38,380.27,15695.2,4.516,0.0,,596.41,9146.99,4.08,27.256,2.13789672,0.0,Pacific,13.558200133820772
46826,Sedimentary,Conventional Hydrocarbon,Wilhelm,34848.0,35.07608,-119.35155,California,Kern,San Joaquin Basin,Pacific Coast,232 - 5k,4029077190000.0,2632.0,2753.0,,1961-05-24,6.3,74.77,7.17,303.900448,601.26,931.09,20999.17,16.582,0.0,,523.42,11782.52,2.05,145.61499999999998,0.28371344,0.0,Pacific,5.128707954805755
46831,Sedimentary,Conventional Hydrocarbon,Helbling,15259.0,35.46,-119.27,California,Kern,San Joaquin Basin,Pacific Coast,Osborn 1 - 164,,13345.6,,,1960-04-06,7.7,111.51399999999998,7.0997900000000005,96.4,1820.2,78.5,7464.8,429.548,70.6,,2.2,5529.0,170.0,16.451,128.4,0.5,Pacific,1.0914953220930914
46832,Sedimentary,Conventional Hydrocarbon,H 1,39479.0,35.45457,-119.26546,California,Kern,San Joaquin Basin,Pacific Coast,Kernco 61 - X,4029080170000.0,5159.0,5724.0,,1960-04-06,6.7,21.181,0.4,116.3,100.0,1982.0,24081.4,153.579,145.0,,333.2,12696.6,2.0,182.0632,8.876800038,0.1,Pacific,1.5788965285833978
46833,Sedimentary,Conventional Hydrocarbon,I 1,41097.0,35.45798,-119.268,California,Kern,San Joaquin Basin,Pacific Coast,Fink 5 G,4029165770000.0,5544.0,5565.0,,1960-04-06,6.55,14.598000000000004,0.4,116.61999999999998,136.6,1865.0,24960.5,275.60900000000004,140.0,,359.9,13416.1,359.9,69.1386,137.531000076,-0.3,Pacific,1.5171666766025442
46834,Sedimentary,Conventional Hydrocarbon,Rio Bravo,17474.0,35.43899,-119.25072,California,Kern,San Joaquin Basin,Pacific Coast,Ruhl No. 2,4029167000000.0,11474.0,11521.0,,1960-04-06,7.6,92.674,4.514530000000001,49.474,1512.8,126.1,9073.9,7.834,85.0,,18.2,6376.3,175.0,18.964,0.4770999999999999,0.5,Pacific,1.2804098226199812
46835,Sedimentary,Conventional Hydrocarbon,Vedder,24757.0,35.44807,-119.26222,California,Kern,San Joaquin Basin,Pacific Coast,Kernco 85,4029166740000.0,11319.0,11399.0,,1960-04-06,7.25,75.70756,1.0,131.8,961.4,433.2,13788.1,14.588,187.0,,67.6,8799.3,354.0,133.31302,0.7290000000000001,0.3,Pacific,1.516645798572703
46836,Sedimentary,Conventional Hydrocarbon,H 1,40654.0,35.45812,-119.27214,California,Kern,San Joaquin Basin,Pacific Coast,Burner 6 G,4029165760000.0,5164.0,5167.0,,1960-04-13,6.0,23.609,2.8,87.09799999999998,65.9,2372.0,24833.0,38.883,157.0,,300.1,12787.2,2.0,134.31300000000002,1.83568,0.1,Pacific,1.552635366397271
46837,Sedimentary,Conventional Hydrocarbon,Osborne,23751.0,35.45894,-119.27101,California,Kern,San Joaquin Basin,Pacific Coast,Burner #2,4029165900000.0,11203.0,11440.0,,1960-04-06,7.3,68.22999999999999,1.42,120.3,1183.4,201.0,12880.7,12.846,140.0,,18.1,8727.9,425.0,79.0,0.54769,0.4,Pacific,1.6249514690659925
46867,Sedimentary,Conventional Hydrocarbon,Miocene,28828.0,33.72225,-118.12538,OffShore-California,Orange,Los Angeles Basin,Pacific Coast,Texas State No. 10,4259002900000.0,7873.5,,Neogene,1961-09-05,6.8,42.268,25.401,152.9,1311.18,484.57,16491.6,7.13,0.0,,109.94,10420.25,11.2,51.534000000000006,0.0699999999999999,0.0,Pacific,2.7516572284799787
46868,Sedimentary,Conventional Hydrocarbon,Unknown,29865.0,35.10135,-119.42085,California,Kern,San Joaquin Basin,Pacific Coast,G. P. Midway #3,4029191640000.0,2367.0,2370.0,,1937-02-08,,33.2332,44.366400000000006,198.129,2044.0,466.0,16801.0,8.971999999999998,0.0,,409.0,10355.43,85.242,66.95,0.30271344,0.0,Pacific,4.4455789060523765
46870,Shale,Conventional Hydrocarbon,Temblor,10877.0,36.13641,-120.21038,California,Fresno,San Joaquin Basin,Pacific Coast,Dessel #41,4019048130000.0,8209.0,8210.0,Neogene,1970-08-31,7.83,40.411,2.75514,26.342,294.76,416.48,6183.88,79.852,42.25,,179.07,3424.42,319.91,17.1,1.2921,0.0,Pacific,1.1137758493629681
46871,Sedimentary,Conventional Hydrocarbon,Sisquoc,26627.0,34.84911,-120.31777,California,Santa Barbara,Santa Maria Basin,Pacific Coast,Porter No. 18,4083003700000.0,3555.0,3869.0,,1962-07-24,8.4,70.535,12.32,48.768,3454.41,20.38,13145.1,2.04,0.0,,15.29,9863.92,22.42,13.707,4.14371672,0.4,Pacific,1.5639264069192989
46873,Sedimentary,Conventional Hydrocarbon,Painted Rocks,21317.0,35.00586,-119.82469,California,San Luis Obispo,Central Coastal,Pacific Coast,Cuyama No. 2,4079009920000.0,1643.0,1736.0,,,7.7,18.9672,23.135,40.358,812.0,326.0,11888.0,20.1484,0.0,,151.0,7509.0,328.0,30.1697,2.7410000000000005,0.0,Pacific,3.739898422991389
46875,Sedimentary,Conventional Hydrocarbon,San Grabriel,31700.0,33.76207,-118.11031,California,Orange,Los Angeles Basin,Pacific Coast,Bixby A - 47,4037070200000.0,1106.5,,,,7.5,9.2086,110.0,57.163,220.0,720.0,19300.0,45.882000000000005,0.0,,382.0,11000.0,19.0,94.528,4.421756719999999,-0.1,Pacific,12.649431312976237
46876,Sedimentary,Conventional Hydrocarbon,Unknown,14825.0,33.90324,-117.97271,California,Orange,Los Angeles Basin,Pacific Coast,Murphy - Coyote 99a,4059046000000.0,3988.0,4165.0,,,7.78,21.5843,3.5,26.164,1330.0,175.0,7590.0,0.35,40.0,,54.0,5104.39,20.0,7.140000000000001,0.4836,0.0,Pacific,0.5595742656964114
46877,Sedimentary,Conventional Hydrocarbon,Ford,29720.0,33.76133,-118.22798,California,Los Angeles,Los Angeles Basin,Pacific Coast,W 79,4237025320000.0,4620.0,5935.0,,,7.2,26.125,21.5,43.376,1086.0,630.0,16950.0,27.0,0.0,,58.2,10559.88,8.0,28.476,0.15304,0.0,Pacific,1.397093433871248
46878,Sedimentary,Conventional Hydrocarbon,C Late Miocene,31037.0,33.71938,-118.11432,OffShore-California,Orange,Los Angeles Basin,Pacific Coast,Surfside 104 - C,4259002690000.0,7348.5,,,1966-09-22,7.4,33.83,5.13,87.663,631.4,3300.0,18757.5,145.2234,0.0,,576.05,7277.5,10.25,75.67699999999999,7.349359999999999,-1.0,Pacific,3.5450310351068097
46879,Sedimentary,Conventional Hydrocarbon,Ford,29700.0,33.73919,-118.13857,OffShore-California,Los Angeles,Los Angeles Basin,Pacific Coast,16 C-323,4237206530000.0,7050.0,7524.0,,,7.33,28.985,45.0,125.855,795.0,425.0,16950.0,3.5,0.0,,110.0,10585.01,10.0,37.819,0.0772,0.0,Pacific,2.7542038497547443
46880,Sedimentary,Conventional Hydrocarbon,Unknown,29660.0,33.7404,-118.16224,OffShore-California,Los Angeles,Los Angeles Basin,Pacific Coast,17 D-412,4237200320000.0,6918.0,8198.0,,,7.21,43.972,10.0,75.35499999999999,1475.0,1475.0,16700.0,4.5,0.0,,100.0,9494.16,10.0,135.824,0.2307,0.0,Pacific,2.5576814790237785
46881,Sedimentary,Conventional Hydrocarbon,Unknown,56000.0,34.4565014973,-119.083627764,California,Ventura,Ventura Basin,Pacific Coast,Grubb #56,,4500.0,,,1969-03-03,1.0,15.618400000000005,531.316,150.628,588.05,1280.0,32300.0,17.064999999999998,0.0,,1120.0,15300.0,2200.0,285.865,0.10323,-7.6,Pacific,4.213083391639901
46882,Sedimentary,Conventional Hydrocarbon,Unknown,29801.0,35.10479,-119.42084,California,Kern,San Joaquin Basin,Pacific Coast,G. P. Midway #5,4029191660000.0,2993.0,3072.0,,1937-02-11,,20.181,145.8721,82.921,1963.0,474.0,17053.0,8.773,0.0,,394.0,10508.1,2533.469,48.145,1.01301,0.0,Pacific,3.688067561012419
46883,Sedimentary,Conventional Hydrocarbon,Unknown,29103.0,35.10371,-119.42104,California,Kern,San Joaquin Basin,Pacific Coast,G. P. Midway #6,4029191670000.0,3055.0,3065.0,,1937-02-08,,24.476000000000003,57.373000000000005,32.547,1806.0,456.0,16768.0,7.184,0.0,,375.0,10320.6,208.085,81.797,1.22541,0.0,Pacific,3.3688061096274877
46884,Sedimentary,Conventional Hydrocarbon,Unknown,30020.0,35.10224,-119.42214,California,Kern,San Joaquin Basin,Pacific Coast,G. P. Midway #7,4029191680000.0,2367.0,2370.0,,1937-02-08,,12.57,91.124,48.729,1869.0,490.0,16911.0,8.907,0.0,,400.0,10350.72,1508.181,57.138,1.52321,0.0,Pacific,3.2539075606530705
46886,Sedimentary,Conventional Hydrocarbon,Ford,29485.0,33.74183,-118.16181,OffShore-California,Los Angeles,Los Angeles Basin,Pacific Coast,17 D-104,4237202770000.0,5923.0,6870.0,,,7.11,38.048,30.0,102.1,1600.0,910.0,15740.0,3.55,0.0,,115.0,9542.11,15.0,39.3199,0.22945,0.0,Pacific,2.7978339799861227
46887,Sedimentary,Conventional Hydrocarbon,Unknown,22347.0,34.38019,-119.86753,OffShore-California,Santa Barbara,Ventura Basin,Pacific Coast,Richfield-honolulu Signal-state 308 No. 3,4283037660000.0,5538.0,5598.0,,1972-05-24,7.05,38.0,13.316,54.325,239.0,2320.0,13500.0,39.367,0.0,,97.0,6040.0,76.0,70.517,0.1524499999999999,0.0,Pacific,1.9361530294349931
46891,Sedimentary,Conventional Hydrocarbon,Unknown,16630.0,39.54,-122.08,California,Glenn,Sacramento Basin,Pacific Coast,,,6248.0,6271.0,,1958-06-01,,14.465,8.0,62.2,205.0,198.0,9735.0,5.630999999999999,27.0,,46.0,5790.0,3.4,12.0,0.46013,-2.2,Pacific,0.36347125957118187
46892,Sedimentary,Conventional Hydrocarbon,Unknown,16700.0,39.03,-122.08,California,Colusa,Sacramento Basin,Pacific Coast,,,6600.0,,,1958-06-01,,13.915,8.0,44.6,350.0,167.0,9830.0,159.98200000000003,27.0,,51.0,6080.0,24.8,11.0,16.21236,-1.1,Pacific,0.3093793279753009
46893,Sedimentary,Conventional Hydrocarbon,Chico,19712.0,38.99205,-122.06581,California,Colusa,Sacramento Basin,Pacific Coast,,4011000120000.0,5411.0,5442.0,,1958-06-01,,27.998,10.0,58.4,225.0,244.0,11720.0,47.86,0.0,,97.0,7000.0,749.35,15.0,3.2915000000000005,-1.5,Pacific,1.7227960343052513
46898,Sedimentary,Conventional Hydrocarbon,Sespe,34510.0,34.19,-119.13,California,Ventura,Ventura Basin,Pacific Coast,,,6500.0,,,1958-03-01,,48.87,6.0,57.8,28.0,4950.0,17610.0,333.005,69.0,,24.0,5950.0,98.1,157.0,115.732,1.3,Pacific,1.0012890091591522
46899,Sedimentary,Conventional Hydrocarbon,Sespe,32790.0,34.19965,-119.15195,California,Ventura,Ventura Basin,Pacific Coast,,4111011520000.0,6473.0,6530.0,,1958-02-01,,38.75,9.0,51.7,13.0,2980.0,18520.0,92.203,100.0,,86.0,8760.0,10.4,106.0,1.5087100000000002,1.7,Pacific,1.094841245691126
46905,Sedimentary,Conventional Hydrocarbon,Unknown,13140.0,39.53,-122.05,California,Glenn,Sacramento Basin,Pacific Coast,,,6265.0,6296.0,,1958-06-01,,13.815569999695,4.0,59.4,342.0,108.0,7870.0,246.99140000000003,23.0,,41.0,4810.0,8.6,6.0,88.382000076,-2.2,Pacific,0.47553857434988905
46906,Sedimentary,Conventional Hydrocarbon,Unknown,16200.0,39.49,-122.06,California,Glenn,Sacramento Basin,Pacific Coast,,,5685.0,5717.0,,1958-06-01,,16.943170000000002,5.0,59.0,320.0,169.0,9700.0,5.868,25.0,,59.0,5830.0,7.2,11.0,0.4757599999999999,-2.2,Pacific,0.3200688934272515
46907,Sedimentary,Conventional Hydrocarbon,Unknown,18420.0,39.424,-122.046,California,Glenn,Sacramento Basin,Pacific Coast,,,5598.0,5616.0,,1958-06-01,,22.29,6.0,70.9,357.0,196.0,10990.0,14.245,29.0,,76.0,6660.0,507.001,14.0,0.5098,-1.6,Pacific,0.37133569597617294
46908,Sedimentary,Conventional Hydrocarbon,Chico,18400.0,39.4248,-122.03615,California,Glenn,Sacramento Basin,Pacific Coast,,4021000330000.0,5065.0,5104.0,,1958-06-01,,22.229000000000003,8.0,56.0,312.0,196.0,11000.0,18.798,28.0,,77.0,6690.0,549.619,14.0,0.6466100000000001,-1.3,Pacific,0.38395742054655674
46910,Sedimentary,Conventional Hydrocarbon,Unknown,22890.0,39.58,-122.11,California,Glenn,Sacramento Basin,Pacific Coast,,,5631.0,5649.0,,1958-06-01,,31.13317,9.0,87.7,342.0,246.0,13650.0,23.379,38.0,,94.0,8180.0,19.6,14.0,0.0668899999999999,-1.9,Pacific,1.5532505933465242
46911,Sedimentary,Conventional Hydrocarbon,Unknown,16200.0,39.52,-122.05,California,Glenn,Sacramento Basin,Pacific Coast,,,4460.0,4515.0,,1958-06-01,,18.581569999695,6.0,61.1,332.0,150.0,9890.0,178.701575,21.0,,75.0,5780.0,179.688,10.0,12.3235,-3.5,Pacific,0.3899894510387843
46913,Sedimentary,Conventional Hydrocarbon,Vedder,19679.0,35.028,-118.966,California,Kern,San Joaquin Basin,Pacific Coast,,,10000.0,,,1958-06-01,,30.620950000000004,9.0,42.3,461.0,3950.0,11590.0,409.9075000000001,80.0,,80.0,3280.0,158.0,21.0,154.1,1.6,Pacific,1.8094844753668196
46923,Sedimentary,Conventional Hydrocarbon,Stevens,26565.0,35.29369,-119.58363,California,Kern,San Joaquin Basin,Pacific Coast,Cal Fed A #32,4029358810000.0,5653.0,5983.0,,1972-05-02,7.9,92.819,16.47052,66.97999999999999,2230.44,96.71,14163.43,13.093,74.31,,29.52,9867.47,431.388,21.38,0.6364,0.3,Pacific,1.5219564150942062
46924,Sedimentary,Conventional Hydrocarbon,Stevens,22802.0,35.28991,-119.58378,California,Kern,San Joaquin Basin,Pacific Coast,Cal Fed A #34,4029015330000.0,5650.0,5970.0,,1972-05-02,7.9,30.75,27.49,61.58,648.47,81.44,13259.45,7.263000000000001,76.35,,26.47,8641.8,1169.386,27.49,0.26171,0.1,Pacific,2.006946498414208
46925,Sedimentary,Conventional Hydrocarbon,Stevens,23592.0,35.2918,-119.58394,California,Kern,San Joaquin Basin,Pacific Coast,Cal Fed A #33,4029358820000.0,5779.0,5783.0,,1972-05-02,7.7,33.233000000000004,5.452999999999999,41.04,405.16,148.63,13962.89,16.584,65.15,,19.34,8951.27,9.16,29.52,0.0521499999999999,0.0,Pacific,1.2753894866057993
46926,Sedimentary,Conventional Hydrocarbon,Stevens,24471.0,35.29181,-119.5817,California,Kern,San Joaquin Basin,Pacific Coast,Cal Fed A #43,4029358850000.0,5632.0,5950.0,,1972-05-02,7.85,27.297000000000004,21.51,41.706,439.19,121.26,14464.71,19.049000000000003,57.06,,19.36,9318.76,8.15,42.8,0.05696,0.0,Pacific,1.5020038332389014
46927,Sedimentary,Conventional Hydrocarbon,Stevens,24871.0,35.28999,-119.5818,California,Kern,San Joaquin Basin,Pacific Coast,Cal Fed A #44,4029358860000.0,5625.0,5790.0,,1972-05-02,7.8,37.39617,14.658999999999995,58.456,472.82,124.32,14665.45,23.206,77.44,,27.51,9445.11,9.17,35.67,0.15721,0.1,Pacific,1.9578692340081683
46928,Sedimentary,Conventional Hydrocarbon,Gusher,34791.0,35.21356,-119.5642,California,Kern,San Joaquin Basin,Pacific Coast,Band Fee No 2,4029415620000.0,2295.0,2430.0,,1972-04-15,7.1,18.901,1.02,108.359,391.81,1054.0,21094.26,188.241575,126.85,,492.06,11607.98,7.16,15.35,13.767100057000002,0.0,Pacific,1.5569141513921765
46929,Sedimentary,Conventional Hydrocarbon,Gusher,33428.0,35.21954,-119.55981,California,Kern,San Joaquin Basin,Pacific Coast,Band Govt No 11,4029256190000.0,2418.0,2500.0,,1972-04-14,7.02,31.445,1.02,75.81,868.87,908.69,19889.08,11.422,149.07,,560.53,11031.91,5.11,13.27,2.10525,0.0,Pacific,1.2720346629751873
46930,Sedimentary,Conventional Hydrocarbon,Unknown,20791.0,35.21311,-119.56996,California,Kern,San Joaquin Basin,Pacific Coast,Band Fee No 13,4029255940000.0,1054.0,1448.0,,1972-04-12,7.31,63.573,4.05,67.3549408,2602.86,270.2,10547.06,118.57199999999996,113.34,,229.72,7009.11,7.08,7.08,12.68785,0.0,Pacific,2.1381364393898323
46931,Sedimentary,Conventional Hydrocarbon,Etchegoin,29799.0,35.19567,-119.55543,California,Kern,San Joaquin Basin,Pacific Coast,Visalia No 15,4029431880000.0,2238.0,3158.0,,1972-04-17,7.52,29.861170000000005,1.02,69.682,980.33,389.89,17377.26,189.549,154.74,,243.3,10635.05,3.05,14.25,14.363100095000002,0.0,Pacific,10.718448399829668
46932,Sedimentary,Conventional Hydrocarbon,Etchegoin,22517.0,35.19723,-119.55935,California,Kern,San Joaquin Basin,Pacific Coast,Visalia No 16,4029432240000.0,2236.0,3002.0,,1972-04-17,7.48,23.831,1.01,60.047,1517.96,313.33,12556.36,144.436,101.4,,227.14,7845.32,300.736,5.07,9.190100076,-0.1,Pacific,7.178719631588284
46933,Sedimentary,Conventional Hydrocarbon,Etchegoin,26377.0,35.19551,-119.56068,California,Kern,San Joaquin Basin,Pacific Coast,Visalia No 12,4029416280000.0,2103.0,2650.0,,1972-04-12,7.2,30.977,1.02,53.98199999999999,838.01,422.06,15469.59,26.299,147.47,,330.53,9149.95,7.12,11.19,2.10169,0.0,Pacific,10.402094470256067
46934,Sedimentary,Conventional Hydrocarbon,Etchegoin,29238.0,35.19495,-119.55614,California,Kern,San Joaquin Basin,Pacific Coast,Visalia No 13,4029419890000.0,2186.0,3078.0,,1972-04-17,7.5,37.926,1.02,52.48299999999999,1203.11,449.51,16876.1,8.34,145.43,,278.66,10264.58,5.09,15.26,3.98169,0.0,Pacific,10.488449740496986
46935,Sedimentary,Conventional Hydrocarbon,Etchegoin,27783.0,35.19562,-119.55762,California,Kern,San Joaquin Basin,Pacific Coast,Visalia No 14,4029430460000.0,2207.0,2995.0,,1972-04-17,7.5,33.015,1.02,45.166,1095.31,400.7,16071.65,175.467,169.84,,265.44,9768.29,157.348,11.19,12.221800038,0.0,Pacific,10.739077473231022
46936,Sedimentary,Conventional Hydrocarbon,Tar,16381.0,35.21326,-119.56781,California,Kern,San Joaquin Basin,Pacific Coast,Band Fee No 21,4029256020000.0,1050.0,1545.0,,1972-04-12,7.4,60.5,1.01,50.05799999999999,2825.42,167.33,7634.59,13.674,94.75,,142.13,5501.66,9.07,5.04,4.28126,0.0,Pacific,3.273692965040757
46937,Sedimentary,Conventional Hydrocarbon,Potter,27975.0,35.21,-119.56,California,Kern,San Joaquin Basin,Pacific Coast,Band Govt,,1849.9,,,1975-04-16,7.0,20.658,71.97155000000001,43.699,1591.2,638.52,15912.0,4.4687,0.0,,387.6,9445.2,764.4,71.757,0.21191,0.0,Pacific,12.414986153300557
46938,Sedimentary,Conventional Hydrocarbon,Unknown,29650.0,35.0427,-119.35239,California,Kern,San Joaquin Basin,Pacific Coast,Hazelton No 2,4029257270000.0,3146.0,3282.0,,1972-04-14,7.4,69.031,2.04,102.73,4021.99,254.75,14665.45,2528.4,185.46,,123.3,10387.69,125.914,9.17,13.180310076,0.0,Pacific,1.607626234468738
46939,Sedimentary,Conventional Hydrocarbon,Unknown,24793.0,35.1965,-119.55881,California,Kern,San Joaquin Basin,Pacific Coast,Visalia No 11,4029256400000.0,2517.0,2531.0,,1972-04-12,7.42,29.612,1.01,83.03800000000001,1521.0,308.26,13862.39,143.523,146.02,,200.77,8740.68,3.04,10.14,13.205600038,0.0,Pacific,1.101211958648801
46940,Sedimentary,Conventional Hydrocarbon,Unknown,30046.0,35.04047,-119.35534,California,Kern,San Joaquin Basin,Pacific Coast,Hazelton No 8,4029257330000.0,2892.0,2982.0,,1972-04-14,7.5,94.13317,3.06,89.78999999999999,3819.21,113.11,15066.93,6.351,203.8,,151.83,10670.97,6.11,11.21,3.22251672,0.0,Pacific,1.6237121816166542
46941,Sedimentary,Conventional Hydrocarbon,Unknown,29859.0,35.04151,-119.35441,California,Kern,San Joaquin Basin,Pacific Coast,Hazelton #7,4029257320000.0,2925.0,3131.0,,1972-04-20,7.65,88.004,7.834,89.406,3210.87,227.24,15469.44,12.388000000000002,203.8,,201.76,10489.59,16.3,23.44,2.12455672,0.1,Pacific,1.7043697826674904
46942,Sedimentary,Conventional Hydrocarbon,Unknown,30408.0,35.0416,-119.35274,California,Kern,San Joaquin Basin,Pacific Coast,Hazelton No 6,4029257310000.0,3053.0,3179.0,,1972-04-14,7.2,103.234,3.06,80.19,3616.92,129.54,15469.32,10.488,233.58,,194.82,10739.58,9.18,12.24,2.92551672,0.0,Pacific,1.6386605766893492
46943,Sedimentary,Conventional Hydrocarbon,Unknown,30146.0,35.04271,-119.35439,California,Kern,San Joaquin Basin,Pacific Coast,Hazelton No 3,4029257280000.0,2886.0,3152.0,,1972-04-14,7.4,98.80817,3.06,81.63,3751.15,329.78,15198.61,14.688,234.83,,51.05,10783.8,4.08,12.25,3.22280672,0.6,Pacific,1.600096478857489
46944,Sedimentary,Conventional Hydrocarbon,Unknown,26144.0,35.1951,-119.56129,California,Kern,San Joaquin Basin,Pacific Coast,Visalia No 2,4029256310000.0,2054.0,2148.0,,1972-04-17,7.15,16.185,2.04,127.082,952.85,470.32,15267.96,246.654,159.83,,388.88,8890.19,5.09,7.13,35.572000076,0.0,Pacific,11.137801129910438
46945,Sedimentary,Conventional Hydrocarbon,Unknown,31226.0,35.19653,-119.56223,California,Kern,San Joaquin Basin,Pacific Coast,Visalia No 7,4029256360000.0,2116.0,2311.0,,1972-04-14,7.4,31.02,5.11,59.289,628.94,757.58,18684.3,15.53,148.05,,466.6,10512.22,10.21,13.27,2.10525,0.0,Pacific,10.882478257498303
46946,Sedimentary,Conventional Hydrocarbon,Unknown,26209.0,35.19581,-119.56226,California,Kern,San Joaquin Basin,Pacific Coast,Visalia No 10,4029256390000.0,2045.0,2579.0,,1972-04-14,7.1,26.389,1.02,48.942,919.48,413.51,15268.45,193.665,131.06,,262.13,9197.85,4.06,11.18,15.651877718,0.0,Pacific,10.671506398713683
46947,Sedimentary,Conventional Hydrocarbon,Hazelton,30828.0,35.03,-119.35,California,Kern,San Joaquin Basin,Pacific Coast,Hazelton,,7717.0,,,1975-04-16,7.2,85.258,10.21,155.3,3880.56,320.66,15624.36,13.84,0.0,,254.28,10722.6,15.32,235.55724000000004,0.1137,-0.1,Pacific,4.062223507324322
46949,Sedimentary,Conventional Hydrocarbon,Modelo,16083.0,34.40244,-118.64019,California,Los Angeles,Ventura Basin,Pacific Coast,#72-5,4037132510000.0,7098.0,9590.0,,1972-06-03,7.1,17.473000000000003,8.379,39.996,1148.5,392.27,8815.92,22.895000000000003,0.0,,14.15,5637.34,7.08,3.03,0.04807,-0.3,Pacific,1.0061285706522745
46950,Sedimentary,Conventional Hydrocarbon,Modelo,11374.0,34.40256,-118.6397,California,Los Angeles,Ventura Basin,Pacific Coast,Rancho San Francisco #52-33a,4037128650000.0,7770.0,8138.0,,1974-04-30,8.2,117.873,5.256,17.652,3123.87,32.25,4292.8,7.610000000000001,0.0,,11.08,3909.88,4.03,3.213,0.05463,0.1,Pacific,1.3498792559227217
46952,Sedimentary,Conventional Hydrocarbon,Unknown,20022.0,34.39469,-118.62541,California,Los Angeles,Ventura Basin,Pacific Coast,Rancho San Francisco # 78-5,4037132570000.0,8618.0,9415.0,,1978-08-10,7.8,44.22,6.08,189.65,955.03,264.65,11863.8,1.01,0.0,,132.83,7331.22,569.0580000000001,23.517000000000003,0.20417,1.3,Pacific,2.578772110088501
46953,Sedimentary,Conventional Hydrocarbon,Unknown,10237.0,34.40971,-118.65975,California,Los Angeles,Ventura Basin,Pacific Coast,Rancho Sand Francisco No 67-33a,4037132460000.0,7610.0,7770.0,,1974-09-20,7.9,55.95,1.913,24.023000000000003,2003.13,41.27,3684.16,25.85,0.0,,24.16,3513.03,971.37,9.018,2.31179,0.0,Pacific,1.592310902022907
46955,Sedimentary,Conventional Hydrocarbon,Unknown,17438.0,34.39982,-118.63396,California,Los Angeles,Ventura Basin,Pacific Coast,Rancho San Francisco #61rd,4037128730000.0,7445.0,7717.0,,1979-01-31,8.4,79.636,2.02,61.554,2596.73,9.09,8325.7,7.07,0.0,,25.26,6375.62,29.3,8.317000000000002,1.45445,0.3,Pacific,0.910923832955647
46956,Sedimentary,Conventional Hydrocarbon,Unknown,10074.0,34.40736,-118.65572,California,Los Angeles,Ventura Basin,Pacific Coast,Rancho San Francisco 86-3a,4037132650000.0,7010.0,7200.0,,1979-06-05,8.0,110.969,1.0,33.9,2862.54,34.15,3605.8,119.088,0.0,,18.08,3414.96,137.6,5.39,19.14439,0.1,Pacific,1.4554017109374653
46959,Sedimentary,Conventional Hydrocarbon,Unknown,19370.0,34.39469,-118.62541,California,Los Angeles,Ventura Basin,Pacific Coast,R S F No 78-5,4037132570000.0,8618.0,9415.0,,1978-08-10,7.8,33.315,22.29,156.98,350.53,272.52,11549.34,18.818,0.0,,116.51,7051.18,8.1,22.431,0.05995,-0.2,Pacific,2.5460360683493746
46960,Sedimentary,Conventional Hydrocarbon,Unknown,15216.0,34.40192,-118.63784,California,Los Angeles,Ventura Basin,Pacific Coast,R S F No 115-3,4037132940000.0,7512.0,7682.0,,1978-08-09,7.8,94.778,1.01,68.50399999999999,2471.53,104.96,7021.0,18.655,0.0,,19.17,5424.45,173.58,7.287999999999999,0.5850799999999999,0.1,Pacific,0.8834500053920723
46961,Sedimentary,Conventional Hydrocarbon,Unknown,10849.0,34.40736,-118.65572,California,Los Angeles,Ventura Basin,Pacific Coast,R S F 86-3,4037132650000.0,7010.0,7200.0,,1978-05-15,8.4,110.39,2.912,27.343,3319.47,50.3,3731.89,24.506,0.0,,9.05,3661.48,332.323,9.888,3.0651,0.9,Pacific,1.344097404650481
46963,Sedimentary,Conventional Hydrocarbon,Unknown,10925.0,34.40777,-118.65801,California,Los Angeles,Ventura Basin,Pacific Coast,R S F No 62,4037128750000.0,7055.0,7781.0,,1978-05-10,8.2,110.969,1.01,37.43,2835.79,79.44,4273.8,92.038,0.0,,14.08,3720.72,354.053,9.492,0.8486800000000001,0.0,Pacific,1.344097404650481
46964,Sedimentary,Conventional Hydrocarbon,Unknown,17981.0,34.40573,-118.64537,California,Los Angeles,Ventura Basin,Pacific Coast,R S F No 124,4037128780000.0,9915.0,11362.0,,1978-05-15,7.5,85.762,1.0,168.91259199999996,3274.0,798.0,8272.0,1642.065,0.0,,65.0,5565.0,5.0,601.5,152.70999999999998,0.0,Pacific,1.152446141190742
46965,Sedimentary,Conventional Hydrocarbon,Unknown,11956.0,34.40672,-118.64239,California,Los Angeles,Ventura Basin,Pacific Coast,Rsf 154-7,4037126560000.0,11675.0,12230.0,,1977-06-07,7.1,76.535,6.05,75.36094080000001,2542.43,365.22,5135.3,40.565,0.0,,8.07,3874.18,25.22,75.902,0.1618,0.1,Pacific,2.027167365094492
46967,Sedimentary,Conventional Hydrocarbon,Unknown,18764.0,34.39907,-118.64553,California,Los Angeles,Ventura Basin,Pacific Coast,Rancho San Francisco #95-5,4037132750000.0,9251.0,9694.0,,1977-06-07,7.5,73.54799999999999,7.09,76.553,3738.71,143.87,8237.32,13.470000000000002,0.0,,16.21,6575.67,45.59,12.407,0.06275,0.0,Pacific,1.6329616492390306
46968,Sedimentary,Conventional Hydrocarbon,Unknown,14191.0,34.36,-118.62,California,Los Angeles,Ventura Basin,Pacific Coast,Rancho San Francisco,,6000.0,14000.0,,1973-06-13,7.9,87.85199999999999,2.02,41.926,3589.05,241.63,5580.72,11.919,0.0,,15.17,4701.15,61.67,13.866,0.04292,0.1,Pacific,0.8471913971181548
46969,Sedimentary,Conventional Hydrocarbon,Unknown,19720.0,34.39907,-118.64553,California,Los Angeles,Ventura Basin,Pacific Coast,R S F #95 5th Zone,4037132750000.0,9257.0,9654.0,,1975-04-04,8.0,66.896,6.025999999999999,66.893,4317.51,106.42,8351.24,17.446999999999996,0.0,,30.41,6881.67,32.43,14.376,0.15375,0.0,Pacific,1.6060227301913481
46970,Sedimentary,Conventional Hydrocarbon,Unknown,13640.0,34.40192,-118.63784,California,Los Angeles,Ventura Basin,Pacific Coast,R S F #115 - 6th Zone,4037132940000.0,10074.0,10433.0,,1975-04-02,7.7,99.624,13.154000000000002,42.542,3745.62,312.98,5159.06,9.255000000000004,0.0,,37.36,4351.38,33.32,25.7063,0.06279,0.1,Pacific,1.7093790024035729
46971,Sedimentary,Conventional Hydrocarbon,Ranger,12077.0,33.78448,-118.23863,California,Los Angeles,Los Angeles Basin,Pacific Coast,N W U 4-10,4037018600000.0,3097.0,3310.0,Ordovician,1980-04-23,6.5,12.907,9.07,53.69,609.9,156.26,6865.16,196.58,0.0,,116.94,4123.13,210.258,5.611,77.35757767999999,-1.7,Pacific,2.4404523692490527
46972,Sedimentary,Conventional Hydrocarbon,Ranger,27566.0,33.79176,-118.242,California,Los Angeles,Los Angeles Basin,Pacific Coast,North Wilm Unit 29-23,4037038800000.0,3448.0,3677.0,Ordovician,1980-03-11,6.9,15.136,60.06,28.052,744.16,401.09,16288.0,1.02,0.0,,340.01,9732.08,2949.2760000000003,47.812,2.3530000000000006,0.1,Pacific,3.4022181705184407
46973,Sedimentary,Conventional Hydrocarbon,Ranger,24735.0,33.7846,-118.22912,California,Los Angeles,Los Angeles Basin,Pacific Coast,Nwu 3-5,4037017140000.0,3155.0,3598.0,Ordovician,,7.0,23.565,36.65,35.69,849.1,625.11,14457.02,7.13,0.0,,258.6,8501.14,461.91399999999993,25.594,2.106700000000001,0.1,Pacific,2.8802669861825922
46974,Sedimentary,Conventional Hydrocarbon,Ranger,12914.0,33.78654,-118.24154,California,Los Angeles,Los Angeles Basin,Pacific Coast,North Wilm Unit 21-10,4037038710000.0,3246.0,3495.0,Ordovician,1980-03-11,7.1,18.869,13.09,26.908,1047.59,138.0,7030.95,1.01,0.0,,129.94,4553.0,152.36100000000002,6.212,2.4832,0.1,Pacific,2.03969977529657
46975,Sedimentary,Conventional Hydrocarbon,Ranger,32483.0,33.7863,-118.23104,California,Los Angeles,Los Angeles Basin,Pacific Coast,Lacy,4037017090000.0,3170.0,3365.0,Ordovician,1974-10-24,7.3,36.447,41.92,176.61399999999998,747.37,620.6,19323.36,15.895999999999995,0.0,,399.76,11348.64,1.02,70.95600000000002,0.29083344,0.1,Pacific,4.206658020450275
46976,Sedimentary,Conventional Hydrocarbon,Ranger,31980.0,33.78619,-118.23256,California,Los Angeles,Los Angeles Basin,Pacific Coast,Lacy No 2; Nwu 8-2,4037017100000.0,3198.0,3474.0,Ordovician,1974-08-19,7.4,35.535999999999994,39.86,200.015,677.65,657.21,19113.27,15.89,0.0,,334.665,11038.68,2.04,65.68500000000002,0.29083344,-3.5,Pacific,4.515879499907275
46977,Sedimentary,Conventional Hydrocarbon,Ranger,28394.0,33.78247,-118.23087,California,Los Angeles,Los Angeles Basin,Pacific Coast,Dhc #25; Nwu 3-25,4037017240000.0,2987.0,3273.0,Ordovician,1974-09-10,7.4,19.21,39.76,44.19,1029.8,585.25,16619.48,2.04,0.0,,390.51,9726.98,132.052,46.984,0.3639667199999999,-0.1,Pacific,3.413822970866555
46978,Sedimentary,Conventional Hydrocarbon,Ranger,27067.0,33.78261,-118.22888,California,Los Angeles,Los Angeles Basin,Pacific Coast,Dhc #22; Nwu 3-22,4037017220000.0,3042.0,3283.0,Ordovician,1974-09-10,7.6,38.979000000000006,29.55,56.495000000000005,946.65,509.5,15896.4,4.08,0.0,,445.3,9232.14,3.06,45.323,2.13214672,0.0,Pacific,3.039565852050577
46979,Sedimentary,Conventional Hydrocarbon,Ranger,30029.0,33.78505,-118.23217,California,Los Angeles,Los Angeles Basin,Pacific Coast,"Dhc #9, Nwu 3-9",4037017170000.0,3124.0,3230.0,Ordovician,1974-08-19,6.9,35.294,39.8,192.737,647.0,586.79,17858.75,26.53,0.0,,358.2,10511.15,1.02,64.245,0.29083344,0.2,Pacific,4.314691526071954
46980,Sedimentary,Conventional Hydrocarbon,Ranger,31534.0,33.78438,-118.23596,California,Los Angeles,Los Angeles Basin,Pacific Coast,Ptc No 20; Nwu 4-20,4037018650000.0,3058.0,3375.0,Ordovician,1974-08-14,7.3,27.314,41.89,53.94500000000001,903.27,640.67,18596.76,11.734,0.0,,417.92,10933.26,215.965,61.382000000000005,0.4047,0.3,Pacific,3.4434446446671556
46981,Sedimentary,Conventional Hydrocarbon,Ranger,27750.0,33.78211,-118.23501,California,Los Angeles,Los Angeles Basin,Pacific Coast,Pacific Terminal Community No 15; Nwu 4-15,4037018620000.0,3018.0,3265.0,Ordovician,1974-09-04,7.3,33.585,29.58,42.595,1060.8,535.5,16218.0,2.765,0.0,,418.2,9486.0,2.04,38.06,2.1381467200000004,-0.1,Pacific,3.203004331514969
46982,Sedimentary,Conventional Hydrocarbon,Ranger,33182.0,33.771,-118.206,California,Los Angeles,Los Angeles Basin,Pacific Coast,Jc No 1,,3087.0,3387.0,Ordovician,1974-09-26,6.9,22.522,55.23,42.135000000000005,1053.48,668.91,19535.48,14.32,0.0,,398.89,11455.36,409.621,87.95600000000002,0.31091,-0.3,Pacific,3.444437666817155
46983,Sedimentary,Conventional Hydrocarbon,Ranger,28553.0,33.78307,-118.23807,California,Los Angeles,Los Angeles Basin,Pacific Coast,Steu #46,4037003630000.0,3115.7,,Ordovician,1975-05-30,7.0,42.432,39.78,177.065,1007.76,513.06,16728.0,14.542999999999996,0.0,,409.02,9853.2,2.04,65.298,0.29083344,0.0,Pacific,4.277303885834032
46984,Sedimentary,Conventional Hydrocarbon,Ranger,31617.0,33.78448,-118.23863,California,Los Angeles,Los Angeles Basin,Pacific Coast,Ptc No 10; Nwu 4-10,4037018600000.0,3112.0,3385.0,Ordovician,1974-10-21,7.1,17.8334,55.16,17.037,1093.01,667.04,18489.15,81.72,0.0,,403.49,10827.9,1192.172,63.7866,0.18291,-0.1,Pacific,3.3559179682032387
46985,Sedimentary,Conventional Hydrocarbon,Ranger,32081.0,33.78626,-118.23265,California,Los Angeles,Los Angeles Basin,Pacific Coast,Lacy No 3; Nwu 8-3,4037017110000.0,3135.0,3485.0,Ordovician,1974-08-20,7.4,42.223,37.81,61.964,819.64,625.46,19009.2,14.979,0.0,,446.61,11139.8,2.04,59.828,2.12257672,0.3,Pacific,3.3425586331215498
46986,Sedimentary,Conventional Hydrocarbon,Ranger,28528.0,33.78541,-118.23982,California,Los Angeles,Los Angeles Basin,Pacific Coast,Watson 7-2; Nwu 7-2,4037018700000.0,3217.0,3510.0,Ordovician,1974-10-18,7.8,38.233,55.03,60.370000000000005,855.96,477.91,16813.5,16.500999999999998,0.0,,364.8,9955.63,5.1,75.468,2.9425767200000004,-0.1,Pacific,3.363397764164051
46987,Sedimentary,Conventional Hydrocarbon,Ranger,27422.0,33.78138,-118.24441,California,Los Angeles,Los Angeles Basin,Pacific Coast,Stevenson No 25; Nwu 31-25,4037038820000.0,3011.0,3623.0,Ordovician,1974-10-14,7.5,26.005000000000003,29.54,43.295,1059.34,484.85,15992.02,2.04,0.0,,412.53,9432.24,9.17,40.19199999999999,2.1314467200000005,0.0,Pacific,3.144659561802978
46988,Sedimentary,Conventional Hydrocarbon,Ranger,31737.0,33.78125,-118.24704,California,Los Angeles,Los Angeles Basin,Pacific Coast,Stevenson No 22; Nwu 28-22,4037038790000.0,3540.0,3650.0,Ordovician,1974-09-26,6.1,34.038,24.505000000000003,42.139,267.69,669.21,19207.96,43.93,0.0,,261.56,11238.7,13.28,75.135,3.73632672,-0.2,Pacific,3.322703906667316
46989,Sedimentary,Conventional Hydrocarbon,Ranger,31699.0,33.79073,-118.24317,California,Los Angeles,Los Angeles Basin,Pacific Coast,Securities No 1; Nwu 52-1,4037018710000.0,3400.0,3566.0,Ordovician,1974-09-25,7.0,21.094,79.69,199.0,458.74,397.44,19003.62,4.09,0.0,,311.62,11443.04,1.02,76.77000000000001,2.82666344,0.1,Pacific,3.896621898843167
46990,Sedimentary,Conventional Hydrocarbon,Ranger,27967.0,33.78298,-118.24156,California,Los Angeles,Los Angeles Basin,Pacific Coast,Ptc #22; Nwu 4-22,4037018660000.0,3131.0,3140.0,Ordovician,1974-09-11,7.2,39.865,39.74,175.998,1080.14,448.36,16304.0,7.13,0.0,,413.71,9670.31,4.08,64.791,0.29083344,0.0,Pacific,4.277303885834032
46991,Sedimentary,Conventional Hydrocarbon,Ranger,28670.0,33.78324,-118.23511,California,Los Angeles,Los Angeles Basin,Pacific Coast,Ptc #19; Nwu 4-19,4037018640000.0,3052.0,3359.0,Ordovician,1974-09-11,7.1,24.825,34.68,49.945,1101.6,487.56,16728.0,5.1,0.0,,398.82,9914.4,256.254,24.294,0.53991,-0.1,Pacific,3.39180803178016
46992,Sedimentary,Conventional Hydrocarbon,Ranger,32561.0,33.78505,-118.23217,California,Los Angeles,Los Angeles Basin,Pacific Coast,"Dhc #9, Nwu 3-9",4037017170000.0,3124.0,3200.0,Ordovician,1974-06-03,6.9,49.58,29.66,45.576,1124.86,1032.0,19020.36,327.23,0.0,,388.59,10635.04,2.05,45.813,60.597,-0.8,Pacific,3.6409152923397574
46993,Sedimentary,Conventional Hydrocarbon,Ranger,31449.0,33.78518,-118.23028,California,Los Angeles,Los Angeles Basin,Pacific Coast,Dhc No 7,4037017150000.0,3162.0,3290.0,Ordovician,1974-10-08,7.3,40.32199999999999,34.72,45.976,743.51,670.99,18689.79,17.36,0.0,,360.52,10927.91,4.09,44.495,2.1190167200000003,0.0,Pacific,3.280138196069968
46994,Sedimentary,Conventional Hydrocarbon,Ranger,30522.0,33.79138,-118.24903,California,Los Angeles,Los Angeles Basin,Pacific Coast,Nwu 54-3 Satallit #1,4037017030000.0,3514.0,3696.0,Ordovician,1975-08-20,7.1,18.615,95.0,56.80499999999999,467.85,386.13,18284.85,3.06,0.0,,355.48,10930.05,1986.9940000000008,53.77479999999999,2.0887,0.2,Pacific,3.390383449868426
46995,Sedimentary,Conventional Hydrocarbon,Ranger,29770.0,33.7908,-118.2289,California,Los Angeles,Los Angeles Basin,Pacific Coast,Odonnell No 59,4037037860000.0,3592.0,3720.0,Ordovician,1974-09-24,7.5,23.6672,39.67,33.061,287.9,391.66,18006.21,24.363000000000003,0.0,,261.45,10783.38,749.438,77.05799999999999,3.6087,-0.2,Pacific,3.134280557777388
46996,Sedimentary,Conventional Hydrocarbon,Ranger,28737.0,33.78,-118.24,California,Los Angeles,Los Angeles Basin,Pacific Coast,N Wilmington Inj. Facility,,3253.2,,Ordovician,1976-06-14,6.9,21.127,37.62,25.380000000000003,947.56,540.88,16877.22,66.696,0.0,,392.45,9924.01,17.28,50.223,2.11295672,0.0,Pacific,3.31245170780647
46997,Sedimentary,Conventional Hydrocarbon,Ranger,28506.0,33.78247,-118.23087,California,Los Angeles,Los Angeles Basin,Pacific Coast,Dhc No 25,4037017240000.0,3007.0,3273.0,Ordovician,1974-09-04,7.2,22.224,34.66,46.94199999999999,995.95,566.79,16718.16,10.825,0.0,,394.51,9796.43,179.797,26.611,0.61541,-0.1,Pacific,3.2897781561194046
46998,Sedimentary,Conventional Hydrocarbon,Ranger,33028.0,33.78376,-118.23118,California,Los Angeles,Los Angeles Basin,Pacific Coast,Dhc No 13,4037017190000.0,3063.0,3238.0,Ordovician,1974-08-19,7.4,40.322,50.11,185.764,952.13,866.23,19533.57,15.170000000000002,0.0,,475.56,11147.43,3.07,65.891,0.2959134399999999,0.1,Pacific,4.218912726761433
46999,Sedimentary,Conventional Hydrocarbon,Ranger,29492.0,33.771,-118.206,California,Los Angeles,Los Angeles Basin,Pacific Coast,Dhc - Tank,,3755.6,,Ordovician,1974-10-16,7.8,33.717,22.43,50.424,877.7,624.89,17431.74,7.14,0.0,,406.74,10102.25,19.37,25.9,2.92843672,-0.2,Pacific,3.3402427904765126
47000,Sedimentary,Conventional Hydrocarbon,Ranger,29751.0,33.7846,-118.22912,California,Los Angeles,Los Angeles Basin,Pacific Coast,Dhc No 5; Nwu 3-5,4037017140000.0,3152.0,3506.0,Ordovician,1974-10-15,7.0,40.716,29.58,50.55,636.54,581.46,17749.74,60.19,0.0,,374.38,10303.01,16.32,20.852,2.11324672,-0.3,Pacific,3.370153354969212
47001,Sedimentary,Conventional Hydrocarbon,Ranger,28889.0,33.78421,-118.22507,California,Los Angeles,Los Angeles Basin,Pacific Coast,Dhc No 2; Nwu 3-2,4037017130000.0,3171.0,3304.0,Ordovician,1974-09-30,7.6,37.647000000000006,29.57,43.765,854.42,537.33,17027.32,13.263,0.0,,330.35,10104.24,6.12,14.611999999999998,2.15924672,0.0,Pacific,3.3283511787394326
47002,Sedimentary,Conventional Hydrocarbon,Ranger,29127.0,33.79138,-118.24909,California,Los Angeles,Los Angeles Basin,Pacific Coast,Nwu 56-1,4037201220000.0,3464.0,3805.0,Ordovician,1975-08-18,7.2,14.6057,79.68,30.535,539.4,358.58,17367.2,13.135,0.0,,361.65,10420.32,1935.157,63.028,2.503,0.3,Pacific,3.365224155808318
47003,Sedimentary,Conventional Hydrocarbon,Ranger,29098.0,33.771,-118.206,California,Los Angeles,Los Angeles Basin,Pacific Coast,Nwu Central Facility,,2683.6,,Ordovician,1976-05-26,7.3,22.375,37.74,55.616,927.09,608.88,17134.32,2.04,0.0,,402.86,9974.62,10.2,46.363,2.1381467200000004,-0.1,Pacific,3.2718800665710037
47004,Sedimentary,Conventional Hydrocarbon,Ranger,28163.0,33.78404,-118.21918,California,Los Angeles,Los Angeles Basin,Pacific Coast,North Wilmington Unit 423-4,4037014900000.0,3240.0,3586.0,Ordovician,1975-08-08,7.4,9.947,56.06,29.087,782.82,491.3,16614.59,4.880000000000001,0.0,,310.89,9907.6,3014.261,49.3154,1.8590000000000004,0.0,Pacific,3.345292536745393
47005,Sedimentary,Conventional Hydrocarbon,Ranger,31968.0,33.78851,-118.2435,California,Los Angeles,Los Angeles Basin,Pacific Coast,Stevenson #5 & 13,4037038680000.0,3197.0,3590.0,Ordovician,1974-10-04,7.5,18.5685,74.62,29.308000000000003,536.66,453.86,19115.14,17.540999999999997,0.0,,339.37,11448.64,994.98,86.83800000000001,0.3577,0.2,Pacific,3.453062728013965
47006,Sedimentary,Conventional Hydrocarbon,Ranger,28016.0,33.78664,-118.22068,California,Los Angeles,Los Angeles Basin,Pacific Coast,North Wilmington Unit 74-1,4037050510000.0,3434.0,3589.0,Ordovician,1975-08-06,7.3,29.428569999695004,81.55,40.353,250.77,400.62,16922.04,154.00799999999998,0.0,,258.93,10102.25,1093.3300000000002,67.981,6.165699999999999,0.1,Pacific,3.403777297470268
47007,Sedimentary,Conventional Hydrocarbon,Ranger,32197.0,33.78348,-118.23217,California,Los Angeles,Los Angeles Basin,Pacific Coast,Dhc No 12; Nwu 3-12,4037017180000.0,3060.0,3358.0,Ordovician,1974-10-17,7.2,40.595,60.37,176.9,1115.29,722.38,18826.88,9.21,0.0,,411.33,11050.56,1.02,82.968,1.12261344,0.2,Pacific,3.827478748920884
47008,Sedimentary,Conventional Hydrocarbon,Ranger,27400.0,33.79138,-118.2489,California,Los Angeles,Los Angeles Basin,Pacific Coast,Nwu 54-2,4037017020000.0,3525.0,3741.0,Ordovician,1975-08-20,7.2,11.8185,79.52,25.491,616.8,378.23,16210.05,8.16,0.0,,320.12,9787.2,2650.0260000000003,48.639,3.378,0.5,Pacific,3.2940951526402453
47009,Sedimentary,Conventional Hydrocarbon,Ranger,29049.0,33.79138,-118.24913,California,Los Angeles,Los Angeles Basin,Pacific Coast,Nwu 53-1,4037201230000.0,3742.0,3878.0,Ordovician,1975-08-20,7.1,11.8372,100.1,22.631,476.51,405.61,17413.09,23.276,0.0,,351.39,10301.88,3782.975,30.568,0.8097,0.0,Pacific,3.278165885282379
47010,Sedimentary,Conventional Hydrocarbon,Ranger,29927.0,33.79138,-118.24906,California,Los Angeles,Los Angeles Basin,Pacific Coast,Nwu 54-1,4037017010000.0,3395.0,3595.0,Ordovician,1975-08-07,7.1,20.5327,94.98,37.473,521.88,364.6,17872.75,3.06,0.0,,346.22,10723.65,2096.252,49.527,2.0887,0.2,Pacific,3.309644343210519
47011,Sedimentary,Conventional Hydrocarbon,Ranger,30844.0,33.79138,-118.249,California,Los Angeles,Los Angeles Basin,Pacific Coast,North Wilmington Unit 55-6,4037017040000.0,3436.0,3685.0,Ordovician,1975-08-25,7.4,16.4427,76.63,44.518,573.17,434.22,18390.6,8.446000000000002,0.0,,335.12,11034.36,2822.491,49.08480000000001,2.0537,0.2,Pacific,3.4638008311307678
47012,Sedimentary,Conventional Hydrocarbon,Ranger,27443.0,33.79012,-118.24032,California,Los Angeles,Los Angeles Basin,Pacific Coast,Stevenson #6; Nwu 17-6,4037038690000.0,3406.0,3560.0,Ordovician,1974-09-11,7.1,15.02,60.1,26.414,354.47,320.86,16501.32,32.641000000000005,0.0,,275.02,9931.35,2642.779,43.86,4.273000000000001,0.0,Pacific,3.4456711360386136
47013,Sedimentary,Conventional Hydrocarbon,Ranger,28995.0,33.78285,-118.24138,California,Los Angeles,Los Angeles Basin,Pacific Coast,Stevenson #14,4037038740000.0,3025.0,3325.0,Ordovician,1974-08-21,7.2,21.713,39.78,44.169,817.02,377.4,17136.0,21.42,0.0,,402.9,10200.0,316.76000000000005,62.327,0.3167,0.0,Pacific,3.405653770934742
47014,Sedimentary,Conventional Hydrocarbon,Ranger,10258.0,33.78914,-118.24118,California,Los Angeles,Los Angeles Basin,Pacific Coast,Stevenson #1 & 3,4037038640000.0,3350.0,3592.0,Ordovician,1974-09-17,7.0,19.138,25.19,8.468,178.35,153.16,6136.28,8.06,0.0,,109.83,3647.51,921.5,7.65,5.130000000000001,-0.1,Pacific,2.570484828297897
47015,Sedimentary,Conventional Hydrocarbon,Ranger,30750.0,33.78427,-118.24829,California,Los Angeles,Los Angeles Basin,Pacific Coast,Stevenson #50,4037037700000.0,3143.0,3465.0,Ordovician,1974-09-11,7.7,39.889,50.06,182.402,1052.25,366.75,17980.16,11.551000000000002,0.0,,368.8,10931.12,1.02,63.931,0.29083344,0.0,Pacific,4.206461570240286
47016,Sedimentary,Conventional Hydrocarbon,Ranger,32036.0,33.78433,-118.24585,California,Los Angeles,Los Angeles Basin,Pacific Coast,Stevenson #34,4037038910000.0,3130.0,3419.0,Ordovician,1974-09-18,7.8,17.955000000000002,55.21,54.628,881.31,431.45,18914.4,7.907999999999999,0.0,,404.87,11348.64,406.946,91.18200000000002,1.1302,0.1,Pacific,3.360015805574405
47017,Sedimentary,Conventional Hydrocarbon,Ranger,32261.0,33.78654,-118.24154,California,Los Angeles,Los Angeles Basin,Pacific Coast,Stevenson #10,4037038710000.0,3120.0,3495.0,Ordovician,1974-09-17,7.7,36.477,50.09,184.342,760.52,404.79,19115.14,15.508,0.0,,378.21,11550.86,1.02,70.051,0.29083344,0.3,Pacific,4.206658020450275
47018,Sedimentary,Conventional Hydrocarbon,Ranger,32523.0,33.78588,-118.2473,California,Los Angeles,Los Angeles Basin,Pacific Coast,Stevenson No 31,4037038880000.0,3209.0,3585.0,Ordovician,1974-10-10,7.2,19.717,80.71,46.396,366.75,347.34,19614.72,15.636,0.0,,364.71,11748.4,991.32,99.08200000000002,1.0717,0.0,Pacific,3.3245980880331945
47019,Sedimentary,Conventional Hydrocarbon,Ranger,32428.0,33.7852,-118.24171,California,Los Angeles,Los Angeles Basin,Pacific Coast,Stevenson #24,4037038810000.0,3200.0,3459.0,Ordovician,1974-09-17,7.7,18.898,45.01,46.579,833.75,467.51,19232.4,6.2767,0.0,,391.81,11457.6,813.8960000000001,68.78,0.3167,-0.1,Pacific,3.3921372518100843
47020,Sedimentary,Conventional Hydrocarbon,Ranger,30252.0,33.78333,-118.249,California,Los Angeles,Los Angeles Basin,Pacific Coast,Stevenson #15,4037038750000.0,3092.0,3409.0,Ordovician,1974-09-16,7.7,28.263,39.83,70.626,902.83,351.33,17770.62,11.866,0.0,,361.54,10825.78,263.515,59.99400000000001,0.3102,0.3,Pacific,3.764976862632242
47021,Sedimentary,Conventional Hydrocarbon,Ranger,26725.0,33.78308,-118.24716,California,Los Angeles,Los Angeles Basin,Pacific Coast,Stevenson No 44,4037003610000.0,3058.0,3399.0,Ordovician,1974-09-25,7.1,45.171,39.71,41.099,1201.59,342.15,15376.33,22.394,0.0,,303.45,9460.01,2.04,38.984,2.1190167200000003,0.1,Pacific,3.1471263906163656
47022,Sedimentary,Conventional Hydrocarbon,Ranger,33072.0,33.79176,-118.242,California,Los Angeles,Los Angeles Basin,Pacific Coast,Stevenson No 23,4037038800000.0,3450.0,3677.0,Ordovician,1974-09-26,6.7,13.4672,100.26,32.838,206.67,411.29,20052.76,19.724,0.0,,330.46,11970.27,2905.924,68.647,3.8291,0.1,Pacific,3.4401352458854144
47023,Sedimentary,Conventional Hydrocarbon,Ranger,33014.0,33.78598,-118.24383,California,Los Angeles,Los Angeles Basin,Pacific Coast,Stevenson No 28,4037038850000.0,3206.0,3467.0,Ordovician,1974-09-24,7.3,28.69,50.06,38.805,381.06,388.21,19921.2,13.614,0.0,,422.94,11850.56,196.448,64.731,0.5002000000000001,0.2,Pacific,3.3790342941368374
47024,Sedimentary,Conventional Hydrocarbon,Ranger,27486.0,33.78138,-118.24441,California,Los Angeles,Los Angeles Basin,Pacific Coast,Stevenson No 25; Nwu 31-25,4037038820000.0,3011.0,3623.0,Ordovician,1974-09-20,7.3,41.29517,34.6,41.49,1078.76,432.52,15977.89,7.758000000000001,0.0,,365.35,9586.73,10.18,38.044,2.1190167200000003,0.1,Pacific,3.272473237840828
47025,Sedimentary,Conventional Hydrocarbon,Ranger,29836.0,33.78623,-118.241,California,Los Angeles,Los Angeles Basin,Pacific Coast,Stev No 9,4037038700000.0,3235.0,3531.0,Ordovician,1974-10-03,7.6,35.111999999999995,39.79,65.362,804.94,465.21,17649.46,11.760000000000002,0.0,,365.23,10508.06,3.06,65.90400000000001,2.12257672,0.0,Pacific,3.363397764164051
47026,Sedimentary,Conventional Hydrocarbon,Ranger,28129.0,33.79012,-118.24032,California,Los Angeles,Los Angeles Basin,Pacific Coast,Stevenson No 6,4037038690000.0,3406.0,3560.0,Ordovician,1974-10-21,7.3,29.868569999695,70.3,40.634,351.49,318.88,16912.08,147.75799999999998,0.0,,288.32,10188.0,1085.958,66.543,5.986700000000001,0.1,Pacific,3.3889702557790677
47027,Sedimentary,Conventional Hydrocarbon,Ranger,27879.0,33.78213,-118.23488,California,Los Angeles,Los Angeles Basin,Pacific Coast,Stevenson No 49,4037003660000.0,3016.0,3280.0,Ordovician,1974-08-13,7.3,45.362170000000006,29.56,38.509,1059.97,512.66,16307.2,7.7,0.0,,457.62,9509.14,3.06,34.92,2.1190167200000003,0.0,Pacific,3.3406058850505906
47028,Sedimentary,Conventional Hydrocarbon,Ranger,30612.0,33.78337,-118.24766,California,Los Angeles,Los Angeles Basin,Pacific Coast,Stevenson No 45,4037003620000.0,3081.0,3410.0,Ordovician,1974-09-25,7.2,26.545,50.03,67.05499999999999,863.85,411.5,18073.47,9.649,0.0,,389.04,10823.66,254.383,67.13000000000001,0.3102,0.0,Pacific,3.764976862632242
47029,Sedimentary,Conventional Hydrocarbon,Ranger,29295.0,33.78307,-118.23807,California,Los Angeles,Los Angeles Basin,Pacific Coast,Stevenson No 46,4037003630000.0,3093.0,3442.0,Ordovician,1974-08-13,7.4,23.71,44.86,45.455,982.89,540.39,17231.24,9.451,0.0,,391.53,10104.24,123.69,64.9146,0.4636667200000001,-0.3,Pacific,3.366081547447295
47030,Sedimentary,Conventional Hydrocarbon,Ranger,32018.0,33.78327,-118.23813,California,Los Angeles,Los Angeles Basin,Pacific Coast,Stevenson No 47,4037003640000.0,3096.0,3420.0,Ordovician,1974-08-13,7.3,21.384,50.09,65.849,1020.16,601.05,18808.48,9.458,0.0,,396.61,11141.98,295.587,63.83700000000001,0.31091,0.1,Pacific,3.446672075735118
47031,Sedimentary,Conventional Hydrocarbon,Ranger,31176.0,33.78206,-118.23586,California,Los Angeles,Los Angeles Basin,Pacific Coast,Stevenson No 48,4037003650000.0,3025.0,3460.0,Ordovician,1974-08-13,7.1,15.714,41.89,68.114,1019.56,606.83,18286.64,2.955,0.0,,392.29,10828.96,182.552,67.465,0.70171,0.2,Pacific,3.281986573406554
47032,Sedimentary,Conventional Hydrocarbon,Maxwell,33420.0,33.90359,-118.27468,California,Los Angeles,Los Angeles Basin,Pacific Coast,Odea No 5 866909,4037144350000.0,4035.0,4552.0,,1972-09-05,7.75,30.5,5.09,62.754000000000005,396.63,526.81,20141.69,29.774,66.11,,345.78,11898.9,8.14,26.44,0.1834,0.0,Pacific,2.145477682190662
47033,Sedimentary,Conventional Hydrocarbon,Ranger,29310.0,33.78337,-118.24766,California,Los Angeles,Los Angeles Basin,Pacific Coast,Stevenson No 45,4037003620000.0,3081.0,3410.0,Ordovician,1974-09-25,7.2,11.760000000000002,44.89,37.105,702.99,335.68,17447.13,7.2354,0.0,,372.41,10407.06,1426.697,55.82199999999999,1.512,-0.3,Pacific,3.2227587207588773
47034,Sedimentary,Conventional Hydrocarbon,Ranger,29672.0,33.78285,-118.24138,California,Los Angeles,Los Angeles Basin,Pacific Coast,Stevenson No 14,4037038740000.0,3025.0,3325.0,Ordovician,1974-10-21,7.3,23.09,44.9,43.545,946.93,402.04,17448.84,12.24,0.0,,409.18,10408.08,100.352,57.087,2.21084672,-0.1,Pacific,3.3177823035756813
47035,Sedimentary,Conventional Hydrocarbon,Ranger,32778.0,33.7854,-118.2409,California,Los Angeles,Los Angeles Basin,Pacific Coast,Stevenson #29,4037038860000.0,3205.0,3476.0,Ordovician,1974-09-17,7.6,38.391,45.0,173.18699999999998,730.21,428.51,19533.57,18.212,0.0,,380.44,11658.78,1.02,69.429,0.29083344,-0.2,Pacific,4.206658020450275
47036,Sedimentary,Conventional Hydrocarbon,Ranger,30402.0,33.78164,-118.24224,California,Los Angeles,Los Angeles Basin,Pacific Coast,Stevenson #26,4037038830000.0,2963.0,3632.0,Ordovician,1974-08-22,7.5,11.338,50.03,43.222,647.31,587.08,18071.7,6.222999999999999,0.0,,325.7,10720.5,1799.081,56.25500000000001,2.028,0.3,Pacific,3.298681336460939
47037,Sedimentary,Conventional Hydrocarbon,Ranger,31653.0,33.78319,-118.24461,California,Los Angeles,Los Angeles Basin,Pacific Coast,Stevenson #33,4037038900000.0,3079.0,3408.0,Ordovician,1974-09-11,7.5,25.007,50.06,53.372,748.91,420.94,18799.28,6.948,0.0,,395.4,11238.7,289.01,71.6256,0.3167,0.1,Pacific,3.4352754447353417
47039,Sedimentary,Conventional Hydrocarbon,Tar,31746.0,33.771,-118.206,California,Los Angeles,Los Angeles Basin,Pacific Coast,Patton 25-8,,2601.0,2700.0,,1974-09-20,7.5,35.04600000000001,34.69,57.470000000000006,615.24,359.15,18875.55,6.157,0.0,,312.21,11529.39,19.39,24.158,2.1190167200000003,0.3,Pacific,3.425079243032271
47040,Sedimentary,Conventional Hydrocarbon,Ranger,31913.0,33.78695,-118.2434,California,Los Angeles,Los Angeles Basin,Pacific Coast,Stevenson No 18,4037038760000.0,3270.0,3524.0,Ordovician,1974-09-24,7.3,30.003000000000004,60.2,183.613,538.77,421.43,19081.48,14.385000000000002,0.0,,380.61,11428.48,2.04,79.12899999999999,1.11753344,0.3,Pacific,3.8195098860158203
47041,Sedimentary,Conventional Hydrocarbon,Ranger,38134.0,33.78689,-118.24438,California,Los Angeles,Los Angeles Basin,Pacific Coast,Stevenson No 11,4037038720000.0,3269.0,3522.0,Ordovician,1974-09-24,7.2,10.299,60.45,47.977,243.85,418.04,23155.96,192.437,0.0,,423.16,13832.1,1411.581,53.48720000000001,75.12400007599999,0.1,Pacific,3.241063167338405
47042,Sedimentary,Conventional Hydrocarbon,Ranger,14566.0,33.78165,-118.24657,California,Los Angeles,Los Angeles Basin,Pacific Coast,Stevenson #21,4037038780000.0,3009.0,3652.0,Ordovician,1974-08-20,7.8,16.249,15.15,47.254000000000005,1595.96,157.58,7575.75,17.951,0.0,,130.3,5090.9,308.903,7.362999999999999,2.8781,0.1,Pacific,1.9817558966973527
47043,Sedimentary,Conventional Hydrocarbon,Ranger,29981.0,33.78436,-118.24803,California,Los Angeles,Los Angeles Basin,Pacific Coast,Stevenson #35,4037038920000.0,3129.0,3381.0,Ordovician,1974-09-14,7.9,47.143,49.98,54.402,988.48,334.59,17545.72,10.635,0.0,,349.89,10711.05,1.02,62.661,2.1190167200000003,0.1,Pacific,3.499370233804059
47044,Sedimentary,Conventional Hydrocarbon,Ranger,32606.0,33.78605,-118.24908,California,Los Angeles,Los Angeles Basin,Pacific Coast,Stevenson #43,4037003600000.0,3231.0,3553.0,Ordovician,1974-10-08,7.3,19.736,80.51,40.632,726.62,437.19,19362.9,20.38,0.0,,360.76,11617.74,1063.324,86.358,0.9817,0.0,Pacific,3.3686408667712153
47045,Sedimentary,Conventional Hydrocarbon,Terminal,31574.0,33.78125,-118.24704,California,Los Angeles,Los Angeles Basin,Pacific Coast,Stevenson No 22; Nwu 28-22,4037038790000.0,3540.0,3650.0,,1974-10-21,7.1,21.617200000000004,29.64,45.42,376.1,632.62,19009.2,16.35,0.0,,267.76,11242.0,237.201,42.224,2.1772,0.1,Pacific,3.299996363490993
47046,Sedimentary,Conventional Hydrocarbon,Ranger,30436.0,33.78715,-118.24161,California,Los Angeles,Los Angeles Basin,Pacific Coast,Stevenson #8; Nwu 19-8,4037038930000.0,3274.0,3590.0,Ordovician,1974-10-04,7.5,14.53,70.45,30.32,775.96,450.26,17969.6,8.784,0.0,,347.14,10822.6,1787.5970000000002,59.419,0.6539999999999998,0.3,Pacific,3.352368965174697
47047,Sedimentary,Conventional Hydrocarbon,Ranger,30172.0,33.78623,-118.241,California,Los Angeles,Los Angeles Basin,Pacific Coast,Stevenson #9; Nwu 20-9,4037038700000.0,3235.0,3531.0,Ordovician,1974-09-10,7.5,18.984,50.03,46.465,865.81,505.4,17765.4,7.897,0.0,,366.54,10618.4,163.97899999999998,64.64500000000001,0.4047,0.3,Pacific,3.342980655272809
47048,Sedimentary,Conventional Hydrocarbon,Ranger,32005.0,33.78712,-118.24159,California,Los Angeles,Los Angeles Basin,Pacific Coast,Stevenson #7; Nwu 18-7,4037038940000.0,3252.0,3525.0,Ordovician,1974-09-11,7.4,20.1472,69.5,26.385,564.14,456.83,19111.4,81.85400000000001,0.0,,356.68,11446.4,1681.377,60.062,0.3737,0.2,Pacific,3.575596544000481
47049,Sedimentary,Conventional Hydrocarbon,Ranger,31510.0,33.7878,-118.22602,California,Los Angeles,Los Angeles Basin,Pacific Coast,Nwu 79-1,4037050580000.0,3612.0,3838.0,Ordovician,1975-08-06,7.4,11.2475,105.31,43.057,512.22,393.62,18812.16,12.956,0.0,,338.41,11348.64,3482.512,29.3608,3.0379000000000005,0.3,Pacific,3.3429865509539947
47050,Sedimentary,Conventional Hydrocarbon,Ranger,26287.0,33.78133,-118.24562,California,Los Angeles,Los Angeles Basin,Pacific Coast,Nwu 66-22,4037013970000.0,3025.0,3622.0,Ordovician,1975-08-18,7.4,25.773000000000003,39.72,101.028,814.72,377.83,15479.68,13.648999999999996,0.0,,452.17,9084.13,38.7,38.735,0.29083344,0.1,Pacific,3.8544996989868108
47051,Sedimentary,Conventional Hydrocarbon,Ranger,28571.0,33.78676,-118.23894,California,Los Angeles,Los Angeles Basin,Pacific Coast,Nwu Tract 68,4037040090000.0,3087.75,,Ordovician,1975-08-19,7.3,36.538,29.59,35.78,410.16,677.48,17243.07,11.886,0.0,,344.86,9866.3,374.963,32.173,0.5417,-0.1,Pacific,3.388929806655018
47052,Sedimentary,Conventional Hydrocarbon,Miocene,12714.0,34.83667,-120.32862,California,Santa Barbara,Santa Maria Basin,Pacific Coast,Ucb #1,4083206460000.0,5174.0,6705.0,Neogene,1974-06-01,8.1,12.1145,9.08,47.462,982.86,258.33,6993.06,12.933999999999996,0.0,,212.92,4218.04,39.35,15.806000000000004,0.44889,0.0,Pacific,3.5229097400012543
47054,Sedimentary,Conventional Hydrocarbon,Miocene,11611.0,34.84,-120.32,California,Santa Barbara,Santa Maria Basin,Pacific Coast,Dominion Composite,,9136.7,,Neogene,1971-04-26,8.1,43.111,3.02,37.012,1625.7,53.32,5471.63,15.986,70.42,,23.14,4053.17,109.65,25.15,0.15527,0.0,Pacific,2.425627118378454
47055,Sedimentary,Conventional Hydrocarbon,Pliocene,22953.0,34.85592,-120.31724,California,Santa Barbara,Santa Maria Basin,Pacific Coast,California Trust #42,4083202820000.0,2875.0,3416.0,Neogene,1971-04-27,8.1,31.95617,1.01,47.383,1162.79,309.67,12713.76,15.288,129.54,,70.84,8116.24,49.59,47.56,4.24804,0.0,Pacific,0.8829381289424144
47059,Sedimentary,Conventional Hydrocarbon,Forbes,10022.0,39.82336,-122.17246,California,Tehama,Sacramento Basin,Pacific Coast,E P Porter,4103000660000.0,4698.0,4774.0,,1972-11-27,7.7,22.288000000000004,11.07,27.08,226.53,143.97,5922.0,424.04,0.0,,47.32,3669.79,3.02,7.461,87.33500000000001,0.0,Pacific,1.5629328488677794
47060,Sedimentary,Conventional Hydrocarbon,Forbes,21541.0,39.85193,-122.13614,California,Tehama,Sacramento Basin,Pacific Coast,Victor Estate Unit Well #2,4103000720000.0,3930.0,5364.0,,1975-07-01,5.0,13.550999999999998,35.41,23.597999999999995,640.6159999999999,404.64,13150.8,71.82,0.0,,139.6,7646.68,947.901,22.49,2.63601,-0.8,Pacific,1.7227522088233629
47061,Shale,Conventional Hydrocarbon,Monterey,33313.0,34.43518,-119.08991,California,Ventura,Ventura Basin,Pacific Coast,Hamp No 45,4111204310000.0,5290.0,5540.0,Neogene,1978-08-09,8.8,67.41900000000001,2.05,45.14300000000001,11273.9,4.1,8598.91,3.07,0.0,,15.37,11376.39,383.2369999999999,24.546,2.44879,7.5,Pacific,1.4161666456004685
47062,Sedimentary,Conventional Hydrocarbon,Unknown,34092.0,34.43515,-119.08995,California,Ventura,Ventura Basin,Pacific Coast,Hamp No 60,4111205700000.0,5325.0,5780.0,,1978-08-09,8.6,81.061,2.05,69.84299999999999,12808.75,4.1,8597.23,2.05,0.0,,14.35,11374.17,8.2,24.905,1.4528,4.6,Pacific,1.4333338349325013
47063,Sedimentary,Conventional Hydrocarbon,Leda,25501.0,36.13619,-120.21502,California,Fresno,San Joaquin Basin,Pacific Coast,Dessel #21,4019048090000.0,8650.0,8841.0,,1970-05-21,6.7,22.231,5.574,134.423,700.11,1274.0,15365.76,182.47,0.0,,792.71,7301.28,67.16,42.812,16.518999962,0.0,Pacific,3.792507551614943
47064,Sedimentary,Conventional Hydrocarbon,Stevens,27844.0,35.29181,-119.5817,California,Kern,San Joaquin Basin,Pacific Coast,Col Fed A #43,4029358850000.0,5632.0,5740.0,,1970-05-22,7.5,94.338,13.632,102.874,2748.6,125.21,14607.28,5.884,0.0,,34.61,10310.3,18.32,80.08,0.09959,0.0,Pacific,1.87118762718054
47066,Sedimentary,Conventional Hydrocarbon,Kreyenhagen,19850.0,36.14556,-120.21873,California,Fresno,San Joaquin Basin,Pacific Coast,Allison E-54,4019047840000.0,9170.0,9180.0,,1971-03-31,7.7,111.562,8.97,120.6,2328.0,30.0,10094.0,4.801,0.0,,14.0,7370.0,14.0,209.64334,0.1924499999999999,0.0,Pacific,1.8137238740995933
47067,Shale,Conventional Hydrocarbon,Monterey,12106.0,34.83675,-120.32716,California,Kern,Santa Maria Basin,Pacific Coast,Dominion No 28,4083014190000.0,5488.0,6698.0,Neogene,,8.1,27.277,5.05,64.054,1830.33,19.17,5739.19,9.568,0.0,,6.05,4420.43,85.77,7.729000000000001,0.0790999999999999,0.0,Pacific,1.6959278321924622
47068,Shale,Conventional Hydrocarbon,Monterey,10160.0,34.83857,-120.32273,California,Kern,Santa Maria Basin,Pacific Coast,Dominion No 47,4083014270000.0,4579.0,6335.0,Neogene,,8.4,35.021,5.04,15.75,1475.84,35.26,4893.95,110.23999999999998,0.0,,7.05,3700.18,29.21,4.697000000000001,0.33605,0.2,Pacific,1.8207828982002487
47069,Sedimentary,Conventional Hydrocarbon,Unknown,13049.0,34.83857,-120.32273,California,Santa Barbara,Santa Maria Basin,Pacific Coast,Dominion #47,4083014270000.0,4579.0,6571.0,,1974-06-01,8.1,17.157000000000004,7.06,36.466,1150.49,289.64,7074.49,169.019,0.0,,203.86,4309.28,14.13,14.076,12.3065,0.0,Pacific,2.6690311731264442
47070,Sedimentary,Conventional Hydrocarbon,Miocene Chert,10635.0,34.83667,-120.32862,California,Los Angeles,Santa Maria Basin,Pacific Coast,Ucb No 1,4083206460000.0,5200.0,6700.0,Neogene,1974-09-30,8.2,20.478,5.04,15.669999999999998,1149.12,55.44,5503.68,19.154000000000003,0.0,,21.17,3900.96,313.28,10.037,0.57601,0.1,Pacific,1.6071372432320095
47071,Sedimentary,Conventional Hydrocarbon,Repetto,26500.0,34.3349,-119.55219,OffShore-California,Santa Barbara,Ventura Basin-Offshore,Pacific Coast-Offshore,Ocs P-0166 B-23,4311201370000.0,4990.0,,,1970-08-09,7.9,102.742,13.764999999999995,66.17,4049.63,89.74,12767.9,266.486,0.0,,125.44,9465.78,145.584,39.08220000000001,48.08331,0.0,Pacific,2.0656013853230775
47072,Sedimentary,Conventional Hydrocarbon,Repetto,23175.0,34.33495,-119.55224,OffShore-California,Santa Barbara,Ventura Basin-Offshore,Pacific Coast-Offshore,Ocs P-0166 B-7,4311200850000.0,4278.7,,,1970-07-02,8.9,81.82500000000002,13.872000000000003,36.443,4172.16,11.19,9504.38,360.27700000000004,0.0,,39.69,8390.11,311.128,12.204,31.393310000000003,4.6,Pacific,1.156717551770479
47073,Sedimentary,Conventional Hydrocarbon,Repetto,25137.0,34.33492,-119.55219,OffShore-California,Santa Barbara,Ventura Basin-Offshore,Pacific Coast-Offshore,Ocs P-0166 B-4,4311200820000.0,11469.1,,,1970-08-22,8.4,114.823,11.765,116.38444800000002,6416.94,34.63,9645.27,2002.4716,0.0,,45.83,8738.89,2.04,173.56238000000002,167.9,1.1,Pacific,1.0102309754977723
47074,Sedimentary,Conventional Hydrocarbon,Repetto,26003.0,34.33494,-119.55198,OffShore-California,Santa Barbara,Ventura Basin-Offshore,Pacific Coast-Offshore,Ocs P-0166 B-26,4311201440000.0,7797.4,,,1970-05-14,8.2,59.001,30.07,161.85,6721.68,16.3,10140.09,16.238999999999997,0.0,,84.57,8974.47,18.34,55.076,0.09682,0.2,Pacific,2.441927455828989
47075,Sedimentary,Conventional Hydrocarbon,Repetto,23459.0,34.32517,-119.55511,OffShore-California,Santa Barbara,Ventura Basin-Offshore,Pacific Coast-Offshore,Ocs P-0166 B-6,4311200840000.0,14328.6,,,1970-04-27,8.3,243.6,185.46989,723.58272,5111.93,31.54,9787.44,906.518,0.0,,29.5,8318.46,3796.3020000000006,337.7793,144.1,0.8,Pacific,1.4320012878233275
47076,Sedimentary,Conventional Hydrocarbon,Unknown,16197.0,34.33507,-119.55226,OffShore-California,Santa Barbara,Ventura Basin-Offshore,Pacific Coast-Offshore,Ocs P-0166 B-32,4311202990000.0,14386.0,,,1975-06-27,7.9,101.415,9.464,50.083000000000006,4318.9,375.6,5460.89,8.6368,0.0,,20.25,5082.25,799.8,37.157568000000005,0.4051,0.0,Pacific,1.2743682635187332
47077,Sedimentary,Conventional Hydrocarbon,Unknown,15900.0,34.33507,-119.55226,OffShore-California,Santa Barbara,Ventura Basin-Offshore,Pacific Coast-Offshore,Ocs P-0166 B-32,4311202990000.0,14386.0,,,1975-06-27,7.8,71.305,11.796,43.179,4124.31,311.73,5532.14,8.369800000000001,0.0,,20.24,5070.62,680.13,33.716568,0.60241,0.0,Pacific,1.2406587765516504
47078,Sedimentary,Conventional Hydrocarbon,Unknown,14553.0,34.33507,-119.55226,OffShore-California,Santa Barbara,Ventura Basin-Offshore,Pacific Coast-Offshore,Ocs P-0166 B-32,4311202990000.0,13120.0,,,1975-07-01,8.1,62.53,4.751,52.99899999999999,3782.15,83.91,5389.64,20.245,0.0,,10.11,4952.89,310.38,18.595,0.70522,0.0,Pacific,1.1428635102280913
47079,Sedimentary,Conventional Hydrocarbon,Unknown,14397.0,34.33507,-119.55226,OffShore-California,Santa Barbara,Ventura Basin-Offshore,Pacific Coast-Offshore,Ocs P-0166 B-32,4311202990000.0,13120.0,,,1975-07-01,7.9,66.94,8.608999999999998,41.649,3684.17,80.9,5390.23,20.493,0.0,,10.11,4910.87,290.24,18.595,0.8382,0.0,Pacific,1.2077925474145703
47080,Sedimentary,Conventional Hydrocarbon,Unknown,16363.0,34.33507,-119.55226,OffShore-California,Santa Barbara,Ventura Basin-Offshore,Pacific Coast-Offshore,Ocsp-0166 B-32,4311202990000.0,14484.0,14508.0,,1975-06-12,8.3,92.037,451.306,357.85,4562.66,360.18,4964.44,11.965,0.0,,48.7,5127.79,1299.7,91.169,0.15671,0.7,Pacific,1.9227027476853733
47081,Sedimentary,Conventional Hydrocarbon,Repetto,25865.0,34.33758,-119.5413,OffShore-California,Santa Barbara,Ventura Basin-Offshore,Pacific Coast-Offshore,Ocs-p-0166 A-2,4311200140000.0,3729.0,,,1972-06-16,8.1,67.91699999999999,14.915,37.352,4685.0,99.83,11562.25,33.222,0.0,,181.33,8975.77,359.6,22.104000000000003,2.9340199999999994,0.0,Pacific,2.419673030032026
47082,Sedimentary,Conventional Hydrocarbon,Ranger,37113.0,33.781,-118.206,California,Los Angeles,Los Angeles Basin,Pacific Coast,Continental Consolidated Corp N 3,,3794.5,,Ordovician,1951-10-10,,32.315,125.14,83.161,305.66,551.83,22456.68,13.572,0.0,,399.0,13120.72,20.51,66.14280000000001,0.26051016,-0.5,Pacific,3.843749030862517
47083,Sedimentary,Conventional Hydrocarbon,K Z,30117.0,33.76597,-118.20661,California,Los Angeles,Los Angeles Basin,Pacific Coast,Continental Consolidated Corp A No 1,4037022570000.0,2528.0,3066.0,,,,23.15,122.44,67.07300000000001,333.64,551.98,18134.81,32.897000000000006,0.0,,306.09,10496.49,26.53,105.918,3.02983344,-0.6,Pacific,3.4024712355493794
47084,Sedimentary,Conventional Hydrocarbon,Ranger,32109.0,33.771,-118.206,California,Los Angeles,Los Angeles Basin,Pacific Coast,Continental Consolidated Corp - S - 1,,3063.8,,Ordovician,1951-10-10,,31.215,59.31,55.98100000000001,287.32,566.47,19519.53,19.799,0.0,,492.85,11046.03,14.32,92.51,2.0304267200000004,-0.5,Pacific,3.383717465050452
47085,Sedimentary,Conventional Hydrocarbon,Alegria,18137.0,34.43336,-120.39376,OffShore-California,,Ventura Basin,Pacific Coast,California State Lease 2207,4283038010000.0,3455.3,,,1970-01-29,6.7,23.634,11.657610000000002,46.83,105.42,1704.0,11059.47,19.769,0.0,,83.12,5125.27,56.77,49.219,5.90906672,0.0,Pacific,1.873873928360382
